{
"type": "FeatureCollection",
"name": "jalanwunut",
"crs": { "type": "name", "properties": { "name": "urn:ogc:def:crs:EPSG::32749" } },
"features": [
{ "type": "Feature", "properties": { "OBJECTID": 1673, "Id": 0, "FUNGSI": "Jalan Lingkungan", "Shape_Leng": 173.99640094700001, "LEBAR": 1.5, "NAMA_JALAN": "Dk. Boto", "PENGERASAN": null, "SET_LEBAR": 0.75, "SET_LEB": 0.0, "fungsi_1": "Jalan Lingkungan Sekunder" }, "geometry": { "type": "MultiLineString", "coordinates": [ [ [ 461610.580099999904633, 9161202.826099999248981 ], [ 461613.253800000064075, 9161190.487400000914931 ], [ 461617.354899999685585, 9161176.795199999585748 ], [ 461619.418600000441074, 9161167.270099999383092 ], [ 461619.581799999810755, 9161148.930099999532104 ], [ 461616.737499999813735, 9161131.864399999380112 ], [ 461611.895600000396371, 9161095.3717 ], [ 461609.038099999539554, 9161067.114099999889731 ], [ 461607.212500000372529, 9161049.254699999466538 ], [ 461606.118204166472424, 9161036.397612128406763 ] ] ] } },
{ "type": "Feature", "properties": { "OBJECTID": 1674, "Id": 0, "FUNGSI": "Jalan Lingkungan", "Shape_Leng": 577.26954433399999, "LEBAR": 3.0, "NAMA_JALAN": "Dk. Boto", "PENGERASAN": null, "SET_LEBAR": 1.55, "SET_LEB": 1.5, "fungsi_1": "Jalan Lingkungan Sekunder" }, "geometry": { "type": "MultiLineString", "coordinates": [ [ [ 461754.749499999918044, 9161190.09569999948144 ], [ 461699.319199999794364, 9161194.858200000599027 ], [ 461685.074000000022352, 9161196.604399999603629 ], [ 461670.984899999573827, 9161197.596599999815226 ], [ 461633.017099999822676, 9161200.484999999403954 ], [ 461605.88399999961257, 9161203.315999999642372 ], [ 461581.237999999895692, 9161202.403200000524521 ], [ 461556.615899999625981, 9161199.757400000467896 ], [ 461521.214499999769032, 9161198.1699 ], [ 461468.668200000189245, 9161194.5186 ], [ 461455.9682, 9161192.15059999935329 ], [ 461430.30350000038743, 9161190.69539999961853 ], [ 461412.047199999913573, 9161189.584100000560284 ], [ 461398.394700000062585, 9161186.88539999909699 ], [ 461385.853400000371039, 9161182.599099999293685 ], [ 461378.709699999541044, 9161178.154100000858307 ], [ 461370.041899999603629, 9161174.195900000631809 ], [ 461358.717699999921024, 9161173.137599999085069 ], [ 461343.424800000153482, 9161174.090099999681115 ], [ 461333.211799999698997, 9161173.613900000229478 ], [ 461308.764299999922514, 9161173.349300000816584 ], [ 461286.221699999645352, 9161174.090099999681115 ], [ 461258.810800000093877, 9161175.995100000873208 ], [ 461227.589900000020862, 9161178.1118 ], [ 461203.883200000040233, 9161178.958399999886751 ], [ 461191.950500000268221, 9161179.821699999272823 ], [ 461182.160899999551475, 9161180.9792 ] ] ] } },
{ "type": "Feature", "properties": { "OBJECTID": 1675, "Id": 0, "FUNGSI": "Jalan Lokal", "Shape_Leng": 672.70697350099999, "LEBAR": 5.2, "NAMA_JALAN": "Jl. Kulon Umbul Pelem", "PENGERASAN": null, "SET_LEBAR": 2.6, "SET_LEB": 2.6, "fungsi_1": "Jalan Lokal Primer" }, "geometry": { "type": "MultiLineString", "coordinates": [ [ [ 461247.503200000151992, 9160737.581599999219179 ], [ 461247.609000000171363, 9160753.271500000730157 ], [ 461244.519999999552965, 9160770.158500000834465 ], [ 461242.0329, 9160782.308199999853969 ], [ 461240.024699999950826, 9160789.945000000298023 ], [ 461232.285600000061095, 9160823.414799999445677 ], [ 461227.417299999855459, 9160844.26410000026226 ], [ 461221.596499999985099, 9160867.759099999442697 ], [ 461214.64670000039041, 9160898.877699999138713 ], [ 461211.154199999757111, 9160912.741900000721216 ], [ 461206.497499999590218, 9160930.892300000414252 ], [ 461201.761500000022352, 9160950.722899999469519 ], [ 461198.189600000157952, 9160966.39949999935925 ], [ 461192.897900000214577, 9160990.450200000777841 ], [ 461188.982099999673665, 9161007.145400000736117 ], [ 461185.436700000427663, 9161020.480399999767542 ], [ 461183.055399999953806, 9161032.545499999076128 ], [ 461179.721699999645352, 9161045.457100000232458 ], [ 461177.128700000233948, 9161056.675499999895692 ], [ 461173.477500000037253, 9161071.862600000575185 ], [ 461170.24959999974817, 9161087.367200000211596 ], [ 461168.979600000195205, 9161098.956000000238419 ], [ 461169.297100000083447, 9161110.43889999948442 ], [ 461170.51410000026226, 9161124.197300000116229 ], [ 461173.424599999561906, 9161140.389799999073148 ], [ 461176.493700000457466, 9161156.635299999266863 ], [ 461178.83530000038445, 9161168.05210000090301 ], [ 461182.160899999551475, 9161180.9792 ], [ 461184.529099999926984, 9161194.917899999767542 ], [ 461191.474499999545515, 9161227.660199999809265 ], [ 461197.559899999760091, 9161256.036800000816584 ], [ 461203.645299999974668, 9161280.643100000917912 ], [ 461210.392199999652803, 9161308.887399999424815 ], [ 461217.800599999725819, 9161339.909900000318885 ], [ 461220.578700000420213, 9161352.080700000748038 ], [ 461221.835500000044703, 9161366.30210000090301 ], [ 461223.489099999889731, 9161381.2379 ], [ 461223.707059996086173, 9161390.468984408304095 ] ] ] } },
{ "type": "Feature", "properties": { "OBJECTID": 1676, "Id": 0, "FUNGSI": "Jalan Lingkungan", "Shape_Leng": 219.984032442, "LEBAR": 3.1, "NAMA_JALAN": "Jl. Umbul Kemanten", "PENGERASAN": null, "SET_LEBAR": 1.55, "SET_LEB": 1.55, "fungsi_1": "Jalan Lingkungan Sekunder" }, "geometry": { "type": "MultiLineString", "coordinates": [ [ [ 461202.775299999862909, 9160946.4781 ], [ 461230.3591, 9160946.85190000012517 ], [ 461256.817499999888241, 9160947.804400000721216 ], [ 461286.252399999648333, 9160948.823100000619888 ], [ 461325.344700000248849, 9160950.344399999827147 ], [ 461358.285400000400841, 9160951.3366 ], [ 461392.019799999892712, 9160952.791799999773502 ], [ 461414.774000000208616, 9160953.056399999186397 ], [ 461417.487440838012844, 9160952.863575236871839 ] ] ] } },
{ "type": "Feature", "properties": { "OBJECTID": 1677, "Id": 0, "FUNGSI": "Jalan Lingkungan", "Shape_Leng": 623.74580444799994, "LEBAR": 3.75, "NAMA_JALAN": "Dk. Dukuh", "PENGERASAN": null, "SET_LEBAR": 1.875, "SET_LEB": 1.88, "fungsi_1": "Jalan Lingkungan Sekunder" }, "geometry": { "type": "MultiLineString", "coordinates": [ [ [ 460796.968100000172853, 9160890.321399999782443 ], [ 460794.807300000451505, 9160880.434800000861287 ], [ 460791.208999999798834, 9160851.8597 ], [ 460787.399000000208616, 9160822.967199999839067 ], [ 460785.057400000281632, 9160804.538899999111891 ], [ 460782.603400000371039, 9160778.450899999588728 ], [ 460778.277400000020862, 9160749.994899999350309 ], [ 460775.340499999932945, 9160725.626700000837445 ], [ 460772.681499999947846, 9160703.485500000417233 ], [ 460774.116799999959767, 9160682.57010000012815 ], [ 460776.886199999600649, 9160676.1601 ], [ 460798.185200000181794, 9160656.083499999716878 ], [ 460821.25690000038594, 9160634.334699999541044 ], [ 460825.913499999791384, 9160626.386600000783801 ], [ 460829.617700000293553, 9160606.860300000756979 ], [ 460831.22510000038892, 9160599.41499999910593 ], [ 460832.600899999961257, 9160596.769099999219179 ], [ 460852.513500000350177, 9160598.462500000372529 ], [ 460866.800999999977648, 9160601.822699999436736 ], [ 460886.274400000460446, 9160604.891799999400973 ], [ 460920.564500000327826, 9160607.220200000330806 ], [ 460930.354100000113249, 9160607.537699999287724 ], [ 460933.634899999946356, 9160606.05599999986589 ], [ 460936.862800000235438, 9160600.552699999883771 ], [ 460941.784099999815226, 9160596.160599999129772 ], [ 460949.933299999684095, 9160591.768500000238419 ], [ 460959.564100000075996, 9160585.524299999698997 ], [ 460968.930399999953806, 9160579.22719999961555 ], [ 460981.736200000159442, 9160571.712999999523163 ], [ 460998.352099999785423, 9160564.9397 ], [ 461010.628800000064075, 9160561.447200000286102 ], [ 461024.54590000025928, 9160556.737600000575185 ], [ 461035.923000000417233, 9160553.086300000548363 ], [ 461046.770999999716878, 9160550.07010000012815 ], [ 461067.249699999578297, 9160542.820499999448657 ], [ 461081.96059999987483, 9160537.952099999412894 ], [ 461089.620299999602139, 9160535.221400000154972 ], [ 461092.834999999962747, 9160534.070499999448657 ], [ 461096.486299999989569, 9160534.268899999558926 ], [ 461105.839300000108778, 9160542.947200000286102 ], [ 461112.255499999970198, 9160549.16499999910593 ], [ 461113.873800000175834, 9160550.265599999576807 ] ] ] } },
{ "type": "Feature", "properties": { "OBJECTID": 1678, "Id": 0, "FUNGSI": "Jalan Lingkungan", "Shape_Leng": 262.04003554399998, "LEBAR": 3.1, "NAMA_JALAN": "Jl. Kulon Umbul Pelem", "PENGERASAN": null, "SET_LEBAR": 1.55, "SET_LEB": 1.55, "fungsi_1": "Jalan Lingkungan Sekunder" }, "geometry": { "type": "MultiLineString", "coordinates": [ [ [ 461247.503200000151992, 9160737.581599999219179 ], [ 461242.28830000013113, 9160729.3267 ], [ 461237.486999999731779, 9160719.895199999213219 ], [ 461232.830299999564886, 9160711.42850000038743 ], [ 461226.744900000281632, 9160700.580600000917912 ], [ 461220.50069999974221, 9160692.166799999773502 ], [ 461212.430900000035763, 9160680.207599999383092 ], [ 461206.027900000102818, 9160670.206399999558926 ], [ 461202.720700000412762, 9160664.597200000658631 ], [ 461194.730200000107288, 9160651.368000000715256 ], [ 461188.644799999892712, 9160641.895899999886751 ], [ 461182.453499999828637, 9160632.63539999909699 ], [ 461173.986800000071526, 9160619.5121 ], [ 461163.138899999670684, 9160604.060399999842048 ], [ 461153.349299999885261, 9160590.989900000393391 ], [ 461144.829699999652803, 9160578.660299999639392 ], [ 461136.574699999764562, 9160566.330700000748038 ], [ 461126.361700000241399, 9160551.302400000393391 ], [ 461116.863199999555945, 9160538.708200000226498 ], [ 461105.903887057618704, 9160523.371294999495149 ] ] ] } },
{ "type": "Feature", "properties": { "OBJECTID": 1679, "Id": 0, "FUNGSI": "Jalan Lingkungan", "Shape_Leng": 346.21788349399998, "LEBAR": 2.0, "NAMA_JALAN": "Dk. Dukuh", "PENGERASAN": null, "SET_LEBAR": 1.0, "SET_LEB": 0.0, "fungsi_1": "Jalan Lingkungan Sekunder" }, "geometry": { "type": "MultiLineString", "coordinates": [ [ [ 461169.252700000070035, 9161108.834000000730157 ], [ 461145.885400000028312, 9161109.5713 ], [ 461122.9989, 9161110.166600000113249 ], [ 461101.964499999769032, 9161110.96030000038445 ], [ 461078.151899999938905, 9161111.687999999150634 ], [ 461055.926900000311434, 9161112.878599999472499 ], [ 461016.966900000348687, 9161113.870799999684095 ], [ 460971.339399999938905, 9161116.38429999910295 ], [ 460916.517599999904633, 9161119.982699999585748 ], [ 460889.596199999563396, 9161120.273700000718236 ], [ 460882.149299999698997, 9161119.694900000467896 ], [ 460880.99170000012964, 9161117.214400000870228 ], [ 460879.933400000445545, 9161108.298000000417233 ], [ 460878.875099999830127, 9161103.318499999120831 ], [ 460878.557599999941885, 9161092.973300000652671 ], [ 460879.245500000193715, 9161084.9035 ], [ 460881.071100000292063, 9161076.99239999987185 ], [ 460883.3597999997437, 9161068.062699999660254 ], [ 460882.923200000077486, 9161061.858200000599027 ] ] ] } },
{ "type": "Feature", "properties": { "OBJECTID": 1680, "Id": 0, "FUNGSI": "Jalan Lingkungan", "Shape_Leng": 363.54296889400001, "LEBAR": 3.0, "NAMA_JALAN": "Dk. Dukuh", "PENGERASAN": null, "SET_LEBAR": 1.5, "SET_LEB": 1.5, "fungsi_1": "Jalan Lingkungan Sekunder" }, "geometry": { "type": "MultiLineString", "coordinates": [ [ [ 460882.923200001008809, 9161061.858200000599027 ], [ 460874.734299999661744, 9161062.741900000721216 ], [ 460860.645200001075864, 9161066.578400000929832 ], [ 460843.050400000996888, 9161070.613299999386072 ], [ 460821.751400001347065, 9161074.846599999815226 ], [ 460800.386300000362098, 9161077.293999999761581 ], [ 460777.367500000633299, 9161078.947700001299381 ], [ 460752.893500000238419, 9161080.402899999171495 ], [ 460728.551800000481308, 9161081.262800000607967 ], [ 460708.191999999806285, 9161081.236300000920892 ], [ 460704.302600000053644, 9161079.35780000127852 ], [ 460700.553299999795854, 9161072.728900000452995 ], [ 460695.658499999903142, 9161059.632000001147389 ], [ 460692.152700000442564, 9161052.355900000780821 ], [ 460691.951313341036439, 9161051.904634710401297 ] ] ] } },
{ "type": "Feature", "properties": { "OBJECTID": 1681, "Id": 0, "FUNGSI": "Jalan Lingkungan", "Shape_Leng": 578.51393923399996, "LEBAR": 4.05, "NAMA_JALAN": "Dk. Wunut", "PENGERASAN": null, "SET_LEBAR": 2.025, "SET_LEB": 2.02, "fungsi_1": "Jalan Lingkungan Sekunder" }, "geometry": { "type": "MultiLineString", "coordinates": [ [ [ 461214.717799999751151, 9161327.000800000503659 ], [ 461202.038900000043213, 9161327.351099999621511 ], [ 461178.861399999819696, 9161327.097100000828505 ], [ 461165.685100000351667, 9161324.557099999859929 ], [ 461147.031899999827147, 9161321.064600000157952 ], [ 461132.744400000199676, 9161319.794600000604987 ], [ 461108.058699999935925, 9161320.905899999663234 ], [ 461090.754900000058115, 9161321.620300000533462 ], [ 461074.086199999786913, 9161322.572799999266863 ], [ 461060.909900000318885, 9161324.080900000408292 ], [ 461045.590499999932945, 9161327.573400000110269 ], [ 461030.985399999655783, 9161332.494699999690056 ], [ 461022.412899999879301, 9161334.558399999514222 ], [ 461015.745400000363588, 9161335.35219999961555 ], [ 461007.728500000201166, 9161334.717199999839067 ], [ 460983.810100000351667, 9161335.537399999797344 ], [ 460966.770899999886751, 9161337.230699999257922 ], [ 460947.826700000092387, 9161339.453199999406934 ], [ 460927.718399999663234, 9161341.887399999424815 ], [ 460900.41330000013113, 9161342.8399 ], [ 460869.509899999946356, 9161344.639000000432134 ], [ 460844.003999999724329, 9161345.168199999257922 ], [ 460809.925599999725819, 9161346.438200000673532 ], [ 460783.943500000052154, 9161348.55489999987185 ], [ 460772.46059999987483, 9161350.93610000051558 ], [ 460764.099700000137091, 9161354.375700000673532 ], [ 460756.162200000137091, 9161359.773199999704957 ], [ 460749.759300000034273, 9161364.0066 ], [ 460744.996700000017881, 9161366.017400000244379 ], [ 460730.338800000026822, 9161367.128699999302626 ], [ 460710.230399999767542, 9161366.969900000840425 ], [ 460697.636199999600649, 9161364.694499999284744 ], [ 460682.025799999944866, 9161364.482799999415874 ], [ 460676.25789999961853, 9161363.5833 ], [ 460662.605299999937415, 9161356.968699999153614 ], [ 460650.738699999637902, 9161351.518200000748038 ], [ 460647.484400000423193, 9161348.581299999728799 ] ] ] } },
{ "type": "Feature", "properties": { "OBJECTID": 1682, "Id": 0, "FUNGSI": "Jalan Lingkungan", "Shape_Leng": 210.40532323900001, "LEBAR": 3.25, "NAMA_JALAN": "Dk. Dukuh", "PENGERASAN": null, "SET_LEBAR": 1.625, "SET_LEB": 1.63, "fungsi_1": "Jalan Lingkungan Sekunder" }, "geometry": { "type": "MultiLineString", "coordinates": [ [ [ 460882.923200000077486, 9161061.858200000599027 ], [ 460883.870199999772012, 9161055.882799999788404 ], [ 460883.27489999961108, 9161048.80519999936223 ], [ 460881.951999999582767, 9161041.330700000748038 ], [ 460880.893600000068545, 9161027.836899999529123 ], [ 460879.822100000455976, 9161014.515100000426173 ], [ 460883.2352, 9161013.046700000762939 ], [ 460885.814899999648333, 9161009.712899999693036 ], [ 460886.211799999698997, 9161004.117000000551343 ], [ 460885.934000000357628, 9160996.2588 ], [ 460885.298999999649823, 9160992.171 ], [ 460884.822700000368059, 9160984.90819999948144 ], [ 460883.909900000318885, 9160974.748199999332428 ], [ 460882.917700000107288, 9160967.485300000756979 ], [ 460880.682000000029802, 9160959.6404 ], [ 460879.755900000222027, 9160955.1425 ], [ 460876.382500000298023, 9160948.726299999281764 ], [ 460873.405899999663234, 9160944.029999999329448 ], [ 460869.238699999637902, 9160939.796599999070168 ], [ 460862.558000000193715, 9160937.216900000348687 ], [ 460853.429800000041723, 9160935.29869999922812 ], [ 460846.947499999776483, 9160934.1081000007689 ], [ 460841.589700000360608, 9160931.065400000661612 ], [ 460835.967299999669194, 9160919.688300000503659 ], [ 460832.461600000038743, 9160910.494000000879169 ], [ 460828.823499999940395, 9160900.83669999986887 ], [ 460824.457899999804795, 9160889.327299999073148 ], [ 460821.846599999815226, 9160883.362400000914931 ] ] ] } },
{ "type": "Feature", "properties": { "OBJECTID": 1732, "Id": 0, "FUNGSI": "Jalan Lingkungan", "Shape_Leng": 127.746493472, "LEBAR": 2.85, "NAMA_JALAN": "Dk. Dukuh", "PENGERASAN": null, "SET_LEBAR": 1.425, "SET_LEB": 1.43, "fungsi_1": "Jalan Lingkungan Sekunder" }, "geometry": { "type": "MultiLineString", "coordinates": [ [ [ 460675.130099999718368, 9160916.840600000694394 ], [ 460677.676799999549985, 9160931.121099999174476 ], [ 460679.991899999789894, 9160944.945599999278784 ], [ 460683.629900000058115, 9160962.474199999123812 ], [ 460688.19400000013411, 9160982.053400000557303 ], [ 460692.744800000451505, 9161005.627900000661612 ], [ 460695.443599999882281, 9161022.614199999719858 ], [ 460697.401499999687076, 9161035.525800000876188 ], [ 460699.359400000423193, 9161042.193399999290705 ] ] ] } },
{ "type": "Feature", "properties": { "OBJECTID": 1733, "Id": 0, "FUNGSI": "Jalan Lingkungan", "Shape_Leng": 162.732526947, "LEBAR": 2.8, "NAMA_JALAN": "Dk. Dukuh", "PENGERASAN": null, "SET_LEBAR": 1.4, "SET_LEB": 1.4, "fungsi_1": "Jalan Lingkungan Sekunder" }, "geometry": { "type": "MultiLineString", "coordinates": [ [ [ 460687.489900000393391, 9160979.032999999821186 ], [ 460677.531299999915063, 9160981.709499999880791 ], [ 460654.353699999861419, 9160988.218299999833107 ], [ 460629.595700000412762, 9160994.645899999886751 ], [ 460615.361100000329316, 9160999.884600000455976 ], [ 460591.707299999892712, 9161007.134199999272823 ], [ 460574.350599999539554, 9161012.214199999347329 ], [ 460553.607300000265241, 9161018.246799999848008 ], [ 460531.117600000463426, 9161023.829500000923872 ] ] ] } },
{ "type": "Feature", "properties": { "OBJECTID": 1734, "Id": 0, "FUNGSI": "Jalan Lingkungan", "Shape_Leng": 58.804045997199999, "LEBAR": 3.25, "NAMA_JALAN": "Dk. Wunut", "PENGERASAN": null, "SET_LEBAR": 1.625, "SET_LEB": 1.63, "fungsi_1": "Jalan Lingkungan Sekunder" }, "geometry": { "type": "MultiLineString", "coordinates": [ [ [ 460531.117600000463426, 9161023.829500000923872 ], [ 460532.793300000019372, 9161034.571599999442697 ], [ 460536.285799999721348, 9161050.340800000354648 ], [ 460540.625, 9161065.051599999889731 ], [ 460545.89740000013262, 9161080.626700000837445 ] ] ] } },
{ "type": "Feature", "properties": { "OBJECTID": 1735, "Id": 0, "FUNGSI": "Jalan Lingkungan", "Shape_Leng": 53.932291708400001, "LEBAR": 3.25, "NAMA_JALAN": "Dk. Wunut", "PENGERASAN": null, "SET_LEBAR": 1.625, "SET_LEB": 1.63, "fungsi_1": "Jalan Lingkungan Sekunder" }, "geometry": { "type": "MultiLineString", "coordinates": [ [ [ 460545.89740000013262, 9161080.626700000837445 ], [ 460548.697499999776483, 9161090.789000000804663 ], [ 460555.338499999605119, 9161112.722999999299645 ], [ 460561.435100000351667, 9161132.268200000748038 ] ] ] } },
{ "type": "Feature", "properties": { "OBJECTID": 1736, "Id": 0, "FUNGSI": "Jalan Lingkungan", "Shape_Leng": 311.21052622399998, "LEBAR": 2.95, "NAMA_JALAN": "Dk. Wunut", "PENGERASAN": null, "SET_LEBAR": 1.475, "SET_LEB": 1.48, "fungsi_1": "Jalan Lingkungan Sekunder" }, "geometry": { "type": "MultiLineString", "coordinates": [ [ [ 460334.901300000026822, 9161374.286699999123812 ], [ 460342.680100000463426, 9161373.545800000429153 ], [ 460353.72649999987334, 9161374.8026 ], [ 460362.722299999557436, 9161374.934900000691414 ], [ 460383.558299999684095, 9161375.331800000742078 ], [ 460410.54590000025928, 9161375.530200000852346 ], [ 460429.860500000417233, 9161375.86089999973774 ], [ 460448.182900000363588, 9161375.993200000375509 ], [ 460457.972500000149012, 9161375.86089999973774 ], [ 460477.948599999770522, 9161374.008899999782443 ], [ 460486.040500000119209, 9161373.065199999138713 ], [ 460494.176400000229478, 9161370.5252 ], [ 460504.614299999549985, 9161366.675499999895692 ], [ 460517.009999999776483, 9161363.897299999371171 ], [ 460535.663200000301003, 9161358.076500000432134 ], [ 460552.794999999925494, 9161352.652499999850988 ], [ 460568.603900000452995, 9161346.76549999974668 ], [ 460583.817400000058115, 9161341.143100000917912 ], [ 460608.185600000433624, 9161334.237500000745058 ], [ 460621.017900000326335, 9161330.533299999311566 ], [ 460633.850200000219047, 9161326.300000000745058 ], [ 460638.303299999795854, 9161324.901100000366569 ] ] ] } },
{ "type": "Feature", "properties": { "OBJECTID": 1737, "Id": 0, "FUNGSI": "Jalan Lingkungan", "Shape_Leng": 162.73312890899999, "LEBAR": 2.4, "NAMA_JALAN": "Dk. Wunut", "PENGERASAN": null, "SET_LEBAR": 1.25, "SET_LEB": 0.0, "fungsi_1": "Jalan Lingkungan Sekunder" }, "geometry": { "type": "MultiLineString", "coordinates": [ [ [ 460334.901300000958145, 9161374.286699999123812 ], [ 460317.480700000189245, 9161378.4759 ], [ 460301.129400000907481, 9161382.0743000023067 ], [ 460281.074000000953674, 9161387.154300002381206 ], [ 460270.226000001654029, 9161390.646800002083182 ], [ 460255.04689999949187, 9161394.406500000506639 ], [ 460239.965599999763072, 9161398.772100001573563 ], [ 460236.195300000719726, 9161392.025300001725554 ], [ 460231.644399999640882, 9161383.727000001817942 ], [ 460229.342500001192093, 9161380.512299999594688 ], [ 460221.117300001904368, 9161364.57120000012219 ], [ 460212.890524318441749, 9161345.088072506710887 ], [ 460211.643802790902555, 9161340.989745490252972 ] ] ] } },
{ "type": "Feature", "properties": { "OBJECTID": 1738, "Id": 0, "FUNGSI": "Jalan Lingkungan", "Shape_Leng": 111.39012110500001, "LEBAR": 2.3, "NAMA_JALAN": "Dk. wunut", "PENGERASAN": null, "SET_LEBAR": 1.325, "SET_LEB": 0.0, "fungsi_1": "Jalan Lingkungan Sekunder" }, "geometry": { "type": "MultiLineString", "coordinates": [ [ [ 460289.520600000396371, 9161385.014799999073148 ], [ 460286.942699999548495, 9161376.82179999910295 ], [ 460284.455599999986589, 9161368.090600000694394 ], [ 460279.481399999931455, 9161351.368899999186397 ], [ 460276.6239, 9161342.478800000622869 ], [ 460271.914300000295043, 9161328.561699999496341 ], [ 460268.633500000461936, 9161319.195499999448657 ], [ 460265.749499999918044, 9161309.630799999460578 ], [ 460264.241399999707937, 9161302.645700000226498 ], [ 460261.026700000278652, 9161292.565099999308586 ], [ 460257.177000000141561, 9161283.59569999948144 ], [ 460255.906999999657273, 9161278.920499999076128 ] ] ] } },
{ "type": "Feature", "properties": { "OBJECTID": 1739, "Id": 0, "FUNGSI": "Jalan Lingkungan", "Shape_Leng": 124.45310724700001, "LEBAR": 2.2, "NAMA_JALAN": "Dk. Sidosari", "PENGERASAN": null, "SET_LEBAR": 1.1, "SET_LEB": 0.0, "fungsi_1": "Jalan Lingkungan Sekunder" }, "geometry": { "type": "MultiLineString", "coordinates": [ [ [ 460255.906999999657273, 9161278.920499999076128 ], [ 460271.146999999880791, 9161272.253000000491738 ], [ 460278.767, 9161271.035900000482798 ], [ 460285.222900000400841, 9161271.988399999216199 ], [ 460292.15500000026077, 9161271.353399999439716 ], [ 460303.214599999599159, 9161267.067199999466538 ], [ 460308.717899999581277, 9161264.527100000530481 ], [ 460315.96750000026077, 9161262.728000000119209 ], [ 460327.185899999924004, 9161259.182600000873208 ], [ 460340.838399999774992, 9161254.631699999794364 ], [ 460350.94550000037998, 9161251.933000000193715 ], [ 460355.496299999766052, 9161251.086300000548363 ], [ 460361.528800000436604, 9161252.462099999189377 ], [ 460366.026800000108778, 9161255.160900000482798 ], [ 460369.413399999961257, 9161259.0767 ], [ 460371.316800000146031, 9161261.85359999909997 ] ] ] } },
{ "type": "Feature", "properties": { "OBJECTID": 1740, "Id": 0, "FUNGSI": "Jalan Lingkungan", "Shape_Leng": 102.855815599, "LEBAR": 2.2, "NAMA_JALAN": "Dk. Sidosari", "PENGERASAN": null, "SET_LEBAR": 1.1, "SET_LEB": 0.0, "fungsi_1": "Jalan Lingkungan Sekunder" }, "geometry": { "type": "MultiLineString", "coordinates": [ [ [ 460255.906999999657273, 9161278.920499999076128 ], [ 460251.95409999974072, 9161281.805800000205636 ], [ 460245.868700000457466, 9161283.95549999922514 ], [ 460232.099299999885261, 9161288.3388 ], [ 460220.140100000426173, 9161292.783800000324845 ], [ 460211.038399999961257, 9161296.593800000846386 ], [ 460202.148400000296533, 9161300.721300000324845 ], [ 460200.243400000035763, 9161302.20299999974668 ] ] ] } },
{ "type": "Feature", "properties": { "OBJECTID": 1741, "Id": 0, "FUNGSI": "Jalan Lingkungan", "Shape_Leng": 124.809624052, "LEBAR": 2.45, "NAMA_JALAN": "Dk. Wunut", "PENGERASAN": null, "SET_LEBAR": 1.225, "SET_LEB": 0.0, "fungsi_1": "Jalan Lingkungan Sekunder" }, "geometry": { "type": "MultiLineString", "coordinates": [ [ [ 460491.074000000022352, 9161311.176799999549985 ], [ 460488.454599999822676, 9161308.239900000393391 ], [ 460483.295199999585748, 9161306.493699999526143 ], [ 460480.04079999960959, 9161301.096200000494719 ], [ 460477.262699999846518, 9161293.476099999621511 ], [ 460470.039499999955297, 9161272.362400000914931 ], [ 460463.848299999721348, 9161256.72550000064075 ], [ 460456.069500000216067, 9161235.294199999421835 ], [ 460447.576399999670684, 9161213.0691 ], [ 460442.391499999910593, 9161198.68610000051558 ] ] ] } },
{ "type": "Feature", "properties": { "OBJECTID": 1742, "Id": 0, "FUNGSI": "Jalan Lingkungan", "Shape_Leng": 138.928306233, "LEBAR": 2.45, "NAMA_JALAN": "Dk. Wunut", "PENGERASAN": null, "SET_LEBAR": 1.225, "SET_LEB": 0.0, "fungsi_1": "Jalan Lingkungan Sekunder" }, "geometry": { "type": "MultiLineString", "coordinates": [ [ [ 460442.391500000841916, 9161198.686100002378225 ], [ 460436.239000000990927, 9161178.898100001737475 ], [ 460428.830599999986589, 9161155.614700000733137 ], [ 460416.130599999800324, 9161116.323999999091029 ], [ 460411.963399999774992, 9161102.168800000101328 ], [ 460411.764899999834597, 9161097.009400002658367 ], [ 460409.449799999594688, 9161086.955199999734759 ], [ 460406.248399999924004, 9161078.83250000141561 ], [ 460405.799648758023977, 9161077.69026966765523 ], [ 460404.755703260190785, 9161074.363170022144914 ] ] ] } },
{ "type": "Feature", "properties": { "OBJECTID": 1743, "Id": 0, "FUNGSI": "Jalan Lingkungan", "Shape_Leng": 97.004502096600007, "LEBAR": 2.5, "NAMA_JALAN": "Dk. Sidosari", "PENGERASAN": null, "SET_LEBAR": 1.25, "SET_LEB": 1.25, "fungsi_1": "Jalan Lingkungan Sekunder" }, "geometry": { "type": "MultiLineString", "coordinates": [ [ [ 460395.506299999542534, 9161073.752499999478459 ], [ 460388.838800000026822, 9161053.644099999219179 ], [ 460382.594600000418723, 9161031.313200000673532 ], [ 460376.535600000061095, 9161005.7544 ], [ 460372.408099999651313, 9160988.688799999654293 ], [ 460371.086400000378489, 9160979.981300000101328 ] ] ] } },
{ "type": "Feature", "properties": { "OBJECTID": 1744, "Id": 0, "FUNGSI": "Jalan Lingkungan", "Shape_Leng": 168.839240316, "LEBAR": 2.4, "NAMA_JALAN": "Dk. Sidosari", "PENGERASAN": null, "SET_LEBAR": 1.25, "SET_LEB": 0.0, "fungsi_1": "Jalan Lingkungan Sekunder" }, "geometry": { "type": "MultiLineString", "coordinates": [ [ [ 460395.506299999542534, 9161073.752500001341105 ], [ 460383.361900000832975, 9161076.273300001397729 ], [ 460364.629300001077354, 9161080.0833 ], [ 460354.072399999946356, 9161081.670800000429153 ], [ 460338.144500000402331, 9161084.740000000223517 ], [ 460312.628700000233948, 9161088.311899999156594 ], [ 460302.243800000287592, 9161089.568600000813603 ], [ 460281.839900001883507, 9161093.418300000950694 ], [ 460271.362400000914931, 9161094.900000002235174 ], [ 460266.937300000339746, 9161095.733400002121925 ], [ 460260.190399999730289, 9161095.799600001424551 ], [ 460245.142200000584126, 9161098.71000000089407 ], [ 460234.823400001041591, 9161100.760500000789762 ], [ 460229.06870000064373, 9161100.760500000789762 ], [ 460227.575631838815752, 9161100.816711263731122 ] ] ] } },
{ "type": "Feature", "properties": { "OBJECTID": 1745, "Id": 0, "FUNGSI": "Jalan Lingkungan", "Shape_Leng": 100.353011569, "LEBAR": 2.55, "NAMA_JALAN": "Dk. Sidosari", "PENGERASAN": null, "SET_LEBAR": 1.275, "SET_LEB": 1.27, "fungsi_1": "Jalan Lingkungan Sekunder" }, "geometry": { "type": "MultiLineString", "coordinates": [ [ [ 460311.521599999628961, 9161088.445900000631809 ], [ 460306.472699999809265, 9161071.219799999147654 ], [ 460302.503899999894202, 9161056.059100000187755 ], [ 460297.318099999800324, 9161043.70299999974668 ], [ 460289.803899999707937, 9161016.6096 ], [ 460285.200199999846518, 9160998.67090000025928 ], [ 460283.357400000095367, 9160992.235200000926852 ] ] ] } },
{ "type": "Feature", "properties": { "OBJECTID": 1747, "Id": 0, "FUNGSI": "Jalan Lingkungan", "Shape_Leng": 82.932362292700006, "LEBAR": 2.5, "NAMA_JALAN": "Dk. Sidosari", "PENGERASAN": null, "SET_LEBAR": 1.25, "SET_LEB": 1.25, "fungsi_1": "Jalan Lingkungan Sekunder" }, "geometry": { "type": "MultiLineString", "coordinates": [ [ [ 460223.790199999697506, 9161080.830800000578165 ], [ 460235.074699999764562, 9161078.409800000488758 ], [ 460247.377899999730289, 9161076.028599999845028 ], [ 460261.691899999976158, 9161074.546900000423193 ], [ 460267.869900000281632, 9161074.141200000420213 ], [ 460273.293899999931455, 9161073.67820000089705 ], [ 460283.67879999987781, 9161072.255999999120831 ], [ 460294.262099999934435, 9161069.927699999883771 ], [ 460305.585099999792874, 9161067.82909999974072 ] ] ] } },
{ "type": "Feature", "properties": { "OBJECTID": 1748, "Id": 0, "FUNGSI": "Jalan Lingkungan", "Shape_Leng": 84.805177376100005, "LEBAR": 2.3, "NAMA_JALAN": "Dk. Sidosari", "PENGERASAN": null, "SET_LEBAR": 1.25, "SET_LEB": 0.0, "fungsi_1": "Jalan Lingkungan Sekunder" }, "geometry": { "type": "MultiLineString", "coordinates": [ [ [ 460305.585099999792874, 9161067.82909999974072 ], [ 460312.253899999894202, 9161066.964400000870228 ], [ 460324.636400000192225, 9161065.165200000628829 ], [ 460328.089200000278652, 9161064.133300000801682 ], [ 460340.273299999535084, 9161062.506100000813603 ], [ 460358.950299999676645, 9161059.398600000888109 ], [ 460370.856499999761581, 9161057.414200000464916 ], [ 460379.825899999588728, 9161056.8586 ], [ 460385.699699999764562, 9161055.667999999597669 ], [ 460389.359899999573827, 9161055.215900000184774 ] ] ] } },
{ "type": "Feature", "properties": { "OBJECTID": 1749, "Id": 0, "FUNGSI": "Jalan Lingkungan", "Shape_Leng": 87.971062764300001, "LEBAR": 2.6, "NAMA_JALAN": "Dk. Sidosari", "PENGERASAN": null, "SET_LEBAR": 1.3, "SET_LEB": 1.3, "fungsi_1": "Jalan Lingkungan Sekunder" }, "geometry": { "type": "MultiLineString", "coordinates": [ [ [ 460207.568857666919939, 9161045.226434122771025 ], [ 460211.403699999675155, 9161043.100199999287724 ], [ 460216.563099999912083, 9161041.1952 ], [ 460228.072499999776483, 9161039.607699999585748 ], [ 460248.075100000016391, 9161037.305800000205636 ], [ 460261.17200000025332, 9161035.0833 ], [ 460282.285799999721348, 9161032.384600000455976 ], [ 460293.703099999576807, 9161030.668500000610948 ] ] ] } },
{ "type": "Feature", "properties": { "OBJECTID": 1750, "Id": 0, "FUNGSI": "Jalan Lingkungan", "Shape_Leng": 86.700634895099995, "LEBAR": 2.6, "NAMA_JALAN": "Dk. Sidosari", "PENGERASAN": null, "SET_LEBAR": 1.3, "SET_LEB": 1.3, "fungsi_1": "Jalan Lingkungan Sekunder" }, "geometry": { "type": "MultiLineString", "coordinates": [ [ [ 460293.703099999576807, 9161030.668500000610948 ], [ 460303.505400000140071, 9161028.680400000885129 ], [ 460316.046699999831617, 9161027.251599999144673 ], [ 460327.159199999645352, 9161026.775399999693036 ], [ 460350.33669999986887, 9161022.012900000438094 ], [ 460375.260499999858439, 9161017.567900000140071 ], [ 460379.181300000287592, 9161016.914799999445677 ] ] ] } },
{ "type": "Feature", "properties": { "OBJECTID": 1751, "Id": 0, "FUNGSI": "Jalan Lingkungan", "Shape_Leng": 104.943324042, "LEBAR": 2.6, "NAMA_JALAN": "Dk. Sidosari", "PENGERASAN": null, "SET_LEBAR": 1.3, "SET_LEB": 1.3, "fungsi_1": "Jalan Lingkungan Sekunder" }, "geometry": { "type": "MultiLineString", "coordinates": [ [ [ 460379.181300000287592, 9161016.914799999445677 ], [ 460390.394700000062585, 9161015.080800000578165 ], [ 460404.814500000327826, 9161012.964099999517202 ], [ 460424.129200000315905, 9161009.6568 ], [ 460437.622899999842048, 9161007.672399999573827 ], [ 460450.852099999785423, 9161005.423499999567866 ], [ 460463.155299999751151, 9161004.3651 ], [ 460475.723000000230968, 9161002.909900000318885 ], [ 460482.999099999666214, 9161001.851600000634789 ] ] ] } },
{ "type": "Feature", "properties": { "OBJECTID": 1752, "Id": 0, "FUNGSI": "Jalan Lingkungan", "Shape_Leng": 42.299761885800002, "LEBAR": 2.3, "NAMA_JALAN": null, "PENGERASAN": null, "SET_LEBAR": 1.275, "SET_LEB": 0.0, "fungsi_1": "Jalan Lingkungan Sekunder" }, "geometry": { "type": "MultiLineString", "coordinates": [ [ [ 460482.999099999666214, 9161001.851600000634789 ], [ 460478.421799999661744, 9160985.394500000402331 ], [ 460476.834300000220537, 9160980.36739999987185 ], [ 460474.241399999707937, 9160971.159900000318885 ], [ 460472.442200000397861, 9160965.021500000730157 ], [ 460471.479399999603629, 9160961.1557 ] ] ] } },
{ "type": "Feature", "properties": { "OBJECTID": 1753, "Id": 0, "FUNGSI": "Jalan Lingkungan", "Shape_Leng": 52.937143503999998, "LEBAR": 2.55, "NAMA_JALAN": null, "PENGERASAN": null, "SET_LEBAR": 1.275, "SET_LEB": 1.27, "fungsi_1": "Jalan Lingkungan Sekunder" }, "geometry": { "type": "MultiLineString", "coordinates": [ [ [ 460482.999099999666214, 9161001.851600000634789 ], [ 460486.499499999918044, 9161012.526699999347329 ], [ 460489.304100001230836, 9161018.75760000012815 ], [ 460491.685399998910725, 9161025.66330000013113 ], [ 460494.384099999442697, 9161037.569499999284744 ], [ 460497.6385000012815, 9161045.983300002291799 ], [ 460500.787100000306964, 9161051.481100000441074 ], [ 460501.564403952099383, 9161052.961280966177583 ] ] ] } },
{ "type": "Feature", "properties": { "OBJECTID": 1754, "Id": 0, "FUNGSI": "Jalan Lingkungan", "Shape_Leng": 81.364339687899999, "LEBAR": 2.3, "NAMA_JALAN": "Dk. Sidosari", "PENGERASAN": null, "SET_LEBAR": 1.25, "SET_LEB": 0.0, "fungsi_1": "Jalan Lingkungan Sekunder" }, "geometry": { "type": "MultiLineString", "coordinates": [ [ [ 460494.384100000374019, 9161037.569499999284744 ], [ 460489.896399999968708, 9161038.637800000607967 ], [ 460481.16509999986738, 9161040.093000000342727 ], [ 460472.433899999596179, 9161041.018999999389052 ], [ 460464.827100000344217, 9161042.474300000816584 ], [ 460457.484899999573827, 9161044.260199999436736 ], [ 460441.345300000160933, 9161046.152000000700355 ], [ 460428.010200000368059, 9161048.162799999117851 ], [ 460414.278300000354648, 9161051.284900000318885 ] ] ] } },
{ "type": "Feature", "properties": { "OBJECTID": 1755, "Id": 0, "FUNGSI": "Jalan Lingkungan", "Shape_Leng": 245.753412414, "LEBAR": 2.5, "NAMA_JALAN": "Dk. Sidosari", "PENGERASAN": null, "SET_LEBAR": 1.8, "SET_LEB": 1.25, "fungsi_1": "Jalan Lingkungan Sekunder" }, "geometry": { "type": "MultiLineString", "coordinates": [ [ [ 460186.243200000375509, 9161004.990900002419949 ], [ 460187.688943749933969, 9161008.977896813303232 ] ], [ [ 460221.149984865216538, 9161074.84186646528542 ], [ 460223.790200000628829, 9161080.830800000578165 ], [ 460224.13847788691055, 9161082.163318462669849 ] ], [ [ 460226.301768163917586, 9161106.572739202529192 ], [ 460226.157229534350336, 9161107.372924197465181 ], [ 460225.087600000202656, 9161110.809699999168515 ], [ 460223.079254007607233, 9161113.874397015199065 ] ], [ [ 460221.259004590217955, 9161116.652062308043242 ], [ 460220.047300000675023, 9161118.5011 ], [ 460219.17654454492731, 9161119.289902305230498 ] ], [ [ 460210.239862606627867, 9161126.383570147678256 ], [ 460203.696000001393259, 9161130.169300001114607 ], [ 460198.052785912470426, 9161133.55522845312953 ] ], [ [ 460186.481552083976567, 9161141.12381923571229 ], [ 460177.026000000536442, 9161148.108000000938773 ], [ 460171.358709855412599, 9161151.932551363483071 ] ], [ [ 460155.73095687024761, 9161169.524752033874393 ], [ 460156.070900001563132, 9161176.458200002089143 ], [ 460157.658400000073016, 9161187.438400000333786 ], [ 460161.891800001263618, 9161198.021800002083182 ], [ 460170.887600000947714, 9161222.363500002771616 ], [ 460182.264700001105666, 9161252.261499999091029 ], [ 460190.599100000225008, 9161277.661500001326203 ], [ 460195.626199999824166, 9161291.155300002545118 ], [ 460199.674399999901652, 9161300.455399999395013 ], [ 460200.243400000967085, 9161302.20299999974668 ] ] ] } },
{ "type": "Feature", "properties": { "OBJECTID": 1760, "Id": 0, "FUNGSI": "Jalan Lingkungan", "Shape_Leng": 219.13155628300001, "LEBAR": 2.55, "NAMA_JALAN": "Dk. Barengan", "PENGERASAN": null, "SET_LEBAR": 1.275, "SET_LEB": 1.27, "fungsi_1": "Jalan Lingkungan Sekunder" }, "geometry": { "type": "MultiLineString", "coordinates": [ [ [ 460472.507699999958277, 9160860.467199999839067 ], [ 460455.64049999974668, 9160863.77449999935925 ], [ 460432.978900000452995, 9160868.27250000089407 ], [ 460416.0455, 9160871.659099999815226 ], [ 460401.546299999579787, 9160875.151599999517202 ], [ 460385.988800000399351, 9160878.644200000911951 ], [ 460361.858799999579787, 9160886.2642 ], [ 460340.480399999767542, 9160892.825799999758601 ], [ 460318.467000000178814, 9160899.810900000855327 ], [ 460294.760300000198185, 9160906.478399999439716 ], [ 460283.832999999634922, 9160909.0713 ], [ 460260.5455, 9160915.247600000351667 ] ] ] } },
{ "type": "Feature", "properties": { "OBJECTID": 1761, "Id": 0, "FUNGSI": "Jalan Lingkungan", "Shape_Leng": 91.150879149100007, "LEBAR": 2.6, "NAMA_JALAN": "Dk, Barengan", "PENGERASAN": null, "SET_LEBAR": 1.3, "SET_LEB": 1.3, "fungsi_1": "Jalan Lingkungan Sekunder" }, "geometry": { "type": "MultiLineString", "coordinates": [ [ [ 460335.638100000098348, 9160894.362299999222159 ], [ 460343.746700000017881, 9160916.19789999909699 ], [ 460352.05460000038147, 9160940.142699999734759 ], [ 460361.182699999772012, 9160968.1886 ], [ 460364.778599999845028, 9160980.701400000602007 ] ] ] } },
{ "type": "Feature", "properties": { "OBJECTID": 1762, "Id": 0, "FUNGSI": "Jalan Lingkungan", "Shape_Leng": 134.48342333, "LEBAR": 2.85, "NAMA_JALAN": "Dk. Barengan", "PENGERASAN": null, "SET_LEBAR": 1.425, "SET_LEB": 1.43, "fungsi_1": "Jalan Lingkungan Sekunder" }, "geometry": { "type": "MultiLineString", "coordinates": [ [ [ 460478.711199999786913, 9160897.530500000342727 ], [ 460470.07660000026226, 9160897.818099999800324 ], [ 460460.65749999973923, 9160898.87639999948442 ], [ 460449.497299999929965, 9160903.003900000825524 ], [ 460441.692099999636412, 9160906.178999999538064 ], [ 460429.521200000308454, 9160909.883099999278784 ], [ 460418.276399999856949, 9160913.190400000661612 ], [ 460410.074300000444055, 9160915.571699999272823 ], [ 460393.405500000342727, 9160920.201899999752641 ], [ 460378.985700000077486, 9160923.906099999323487 ], [ 460366.814799999818206, 9160927.0811 ], [ 460352.686099999584258, 9160930.94400000013411 ], [ 460349.117899999953806, 9160931.6787 ] ] ] } },
{ "type": "Feature", "properties": { "OBJECTID": 1763, "Id": 0, "FUNGSI": "Jalan Lingkungan", "Shape_Leng": 81.787445702599996, "LEBAR": 2.85, "NAMA_JALAN": "Dk. Barengan", "PENGERASAN": null, "SET_LEBAR": 1.425, "SET_LEB": 1.43, "fungsi_1": "Jalan Lingkungan Sekunder" }, "geometry": { "type": "MultiLineString", "coordinates": [ [ [ 460349.117899999953806, 9160931.6787 ], [ 460341.171400000341237, 9160933.9814 ], [ 460330.918800000101328, 9160937.130000000819564 ], [ 460319.277099999599159, 9160940.304999999701977 ], [ 460308.257100000046194, 9160943.308000000193715 ], [ 460294.512000000104308, 9160946.800499999895692 ], [ 460282.737999999895692, 9160949.710899999365211 ], [ 460270.527499999850988, 9160954.142699999734759 ] ] ] } },
{ "type": "Feature", "properties": { "OBJECTID": 1764, "Id": 0, "FUNGSI": "Jalan Lingkungan", "Shape_Leng": 40.232688119000002, "LEBAR": 2.62, "NAMA_JALAN": "Dk. Barengan", "PENGERASAN": null, "SET_LEBAR": 1.31, "SET_LEB": 1.31, "fungsi_1": "Jalan Lingkungan Sekunder" }, "geometry": { "type": "MultiLineString", "coordinates": [ [ [ 460270.527499999850988, 9160954.142699999734759 ], [ 460275.999099999666214, 9160969.425100000575185 ], [ 460279.888500000350177, 9160983.474500000476837 ], [ 460283.357400000095367, 9160992.235200000926852 ] ] ] } },
{ "type": "Feature", "properties": { "OBJECTID": 1765, "Id": 0, "FUNGSI": "Jalan Lingkungan", "Shape_Leng": 276.990081444, "LEBAR": 3.2, "NAMA_JALAN": "Jl. Daleman-Wunut", "PENGERASAN": null, "SET_LEBAR": 1.6, "SET_LEB": 1.6, "fungsi_1": "Jalan Lingkungan Sekunder" }, "geometry": { "type": "MultiLineString", "coordinates": [ [ [ 460257.855499999597669, 9160996.153400000184774 ], [ 460257.509697219124064, 9160994.671056646853685 ] ] ] } },
{ "type": "Feature", "properties": { "OBJECTID": 1774, "Id": 0, "FUNGSI": "Jalan Lingkungan", "Shape_Leng": 183.05582945699999, "LEBAR": 2.7, "NAMA_JALAN": "Dk. Dukuh", "PENGERASAN": null, "SET_LEBAR": 1.35, "SET_LEB": 1.35, "fungsi_1": "Jalan Lingkungan Sekunder" }, "geometry": { "type": "MultiLineString", "coordinates": [ [ [ 460879.822100001387298, 9161014.515100000426173 ], [ 460870.824600000865757, 9161014.927799999713898 ], [ 460854.102900000289083, 9161017.467800000682473 ], [ 460839.392100001685321, 9161019.5844 ], [ 460825.316200000233948, 9161021.701099999248981 ], [ 460811.875300000421703, 9161024.135300001129508 ], [ 460796.635300001129508, 9161026.992799999192357 ], [ 460785.628600001335144, 9161029.003599999472499 ], [ 460770.282700001262128, 9161031.755300000309944 ], [ 460745.835200000554323, 9161035.459500001743436 ], [ 460731.971000000834465, 9161038.1053 ], [ 460717.683500002138317, 9161041.280300000682473 ], [ 460703.184300001710653, 9161043.291200002655387 ], [ 460699.66245515178889, 9161043.998928254470229 ] ] ] } },
{ "type": "Feature", "properties": { "OBJECTID": 1775, "Id": 0, "FUNGSI": "Jalan Lingkungan", "Shape_Leng": 133.037605531, "LEBAR": 2.78, "NAMA_JALAN": "Dk. Dukuh", "PENGERASAN": null, "SET_LEBAR": 1.39, "SET_LEB": 1.39, "fungsi_1": "Jalan Lingkungan Sekunder" }, "geometry": { "type": "MultiLineString", "coordinates": [ [ [ 460822.89159999974072, 9161022.1402000002563 ], [ 460818.807400000281632, 9161004.198899999260902 ], [ 460816.58490000013262, 9160992.451400000602007 ], [ 460813.886199999600649, 9160982.608899999409914 ], [ 460809.123700000345707, 9160971.17879999987781 ], [ 460804.599299999885261, 9160951.890699999406934 ], [ 460799.201799999922514, 9160932.681900000199676 ], [ 460795.854799999855459, 9160922.898900000378489 ], [ 460791.885999999940395, 9160912.315500000491738 ], [ 460788.181800000369549, 9160899.086300000548363 ], [ 460786.503299999982119, 9160894.431800000369549 ] ] ] } },
{ "type": "Feature", "properties": { "OBJECTID": 1776, "Id": 0, "FUNGSI": "Jalan Lingkungan", "Shape_Leng": 121.846547648, "LEBAR": 3.2, "NAMA_JALAN": "Dk. Dukuh", "PENGERASAN": null, "SET_LEBAR": 1.6, "SET_LEB": 1.6, "fungsi_1": "Jalan Lingkungan Sekunder" }, "geometry": { "type": "MultiLineString", "coordinates": [ [ [ 460691.092600000090897, 9160997.068600000813603 ], [ 460700.379700000397861, 9160995.513900000602007 ], [ 460717.418899999931455, 9160992.762299999594688 ], [ 460734.775600000284612, 9160990.222300000488758 ], [ 460759.42949999962002, 9160985.899000000208616 ], [ 460783.083300000056624, 9160981.4539 ], [ 460805.625900000333786, 9160977.326400000602007 ], [ 460810.972000000067055, 9160975.614800000563264 ] ] ] } },
{ "type": "Feature", "properties": { "OBJECTID": 1777, "Id": 0, "FUNGSI": "Jalan Lingkungan", "Shape_Leng": 119.04638417699999, "LEBAR": 2.4, "NAMA_JALAN": "Dk. Dukuh", "PENGERASAN": null, "SET_LEBAR": 1.25, "SET_LEB": 0.0, "fungsi_1": "Jalan Lingkungan Sekunder" }, "geometry": { "type": "MultiLineString", "coordinates": [ [ [ 460681.294099999591708, 9160951.219799999147654 ], [ 460693.802099999971688, 9160949.558399999514222 ], [ 460706.184700000099838, 9160947.653400000184774 ], [ 460717.720499999821186, 9160945.4309 ], [ 460734.865600000135601, 9160942.9967 ], [ 460744.813900000415742, 9160941.409199999645352 ], [ 460764.181400000117719, 9160937.9167 ], [ 460776.987300000153482, 9160935.588300000876188 ], [ 460787.147300000302494, 9160933.577500000596046 ], [ 460796.6722999997437, 9160930.614199999719858 ], [ 460798.360600000247359, 9160930.223200000822544 ] ] ] } },
{ "type": "Feature", "properties": { "OBJECTID": 1815, "Id": 0, "FUNGSI": "Jalan Lingkungan", "Shape_Leng": 98.629454002599999, "LEBAR": 3.0, "NAMA_JALAN": "Dk. Wanut", "PENGERASAN": null, "SET_LEBAR": 1.5, "SET_LEB": 1.5, "fungsi_1": "Jalan Lingkungan Sekunder" }, "geometry": { "type": "MultiLineString", "coordinates": [ [ [ 460490.08490000013262, 9160957.465800000354648 ], [ 460485.948599999770522, 9160935.622300000861287 ], [ 460483.831899999640882, 9160927.89640000090003 ], [ 460480.868599999696016, 9160911.174699999392033 ], [ 460479.06940000038594, 9160899.321399999782443 ], [ 460476.529400000348687, 9160886.621400000527501 ], [ 460474.941899999976158, 9160875.2972 ], [ 460473.354399999603629, 9160865.1371 ], [ 460472.507699999958277, 9160860.467199999839067 ] ] ] } },
{ "type": "Feature", "properties": { "OBJECTID": 1816, "Id": 0, "FUNGSI": "Jalan Lingkungan", "Shape_Leng": 231.78629297699999, "LEBAR": 3.2, "NAMA_JALAN": "Dk. Wanut", "PENGERASAN": null, "SET_LEBAR": 1.6, "SET_LEB": 1.6, "fungsi_1": "Jalan Lingkungan Sekunder" }, "geometry": { "type": "MultiLineString", "coordinates": [ [ [ 460561.435100000351667, 9161132.268200000748038 ], [ 460553.71129999961704, 9161137.084599999710917 ], [ 460544.120199999772012, 9161142.111700000241399 ], [ 460526.988400000147521, 9161150.578400000929832 ], [ 460510.451899999752641, 9161159.11119999922812 ], [ 460497.090400000102818, 9161165.990399999544024 ], [ 460484.853400000371039, 9161172.803400000557303 ], [ 460471.09499999973923, 9161179.417999999597669 ], [ 460456.807500000111759, 9161187.487800000235438 ], [ 460444.041299999691546, 9161197.145099999383092 ], [ 460432.002700000070035, 9161208.38990000076592 ], [ 460418.310499999672174, 9161219.833200000226498 ], [ 460406.007399999536574, 9161230.284299999475479 ], [ 460388.941700000315905, 9161244.333699999377131 ], [ 460372.945000000298023, 9161260.409800000488758 ], [ 460371.316800000146031, 9161261.85359999909997 ] ] ] } },
{ "type": "Feature", "properties": { "OBJECTID": 1817, "Id": 0, "FUNGSI": "Jalan Lingkungan", "Shape_Leng": 149.398926303, "LEBAR": 2.6, "NAMA_JALAN": "Dk. Wunut", "PENGERASAN": null, "SET_LEBAR": 1.3, "SET_LEB": 1.3, "fungsi_1": "Jalan Lingkungan Sekunder" }, "geometry": { "type": "MultiLineString", "coordinates": [ [ [ 460371.316800000146031, 9161261.85359999909997 ], [ 460364.531200000084937, 9161267.870999999344349 ], [ 460347.439100000075996, 9161276.866900000721216 ], [ 460343.63260000012815, 9161279.631799999624491 ], [ 460331.607300000265241, 9161283.560900000855327 ], [ 460316.486299999989569, 9161288.879000000655651 ], [ 460319.105700000189245, 9161302.3728 ], [ 460322.518799999728799, 9161312.770899999886751 ], [ 460325.455699999816716, 9161326.661599999293685 ], [ 460326.487599999643862, 9161334.360999999567866 ], [ 460327.678199999965727, 9161347.457900000736117 ], [ 460330.694500000216067, 9161361.50730000063777 ], [ 460334.901300000026822, 9161374.286699999123812 ] ] ] } },
{ "type": "Feature", "properties": { "OBJECTID": 1818, "Id": 0, "FUNGSI": "Jalan Lingkungan", "Shape_Leng": 235.240035834, "LEBAR": 2.6, "NAMA_JALAN": "Dk. Wunut", "PENGERASAN": null, "SET_LEBAR": 1.3, "SET_LEB": 1.3, "fungsi_1": "Jalan Lingkungan Sekunder" }, "geometry": { "type": "MultiLineString", "coordinates": [ [ [ 460647.484400000423193, 9161348.581299999728799 ], [ 460645.67200000025332, 9161337.627599999308586 ], [ 460644.335799999535084, 9161333.552999999374151 ], [ 460641.47829999960959, 9161329.028599999845028 ], [ 460638.303299999795854, 9161324.901100000366569 ], [ 460636.636400000192225, 9161321.408600000664592 ], [ 460636.517400000244379, 9161317.83669999986887 ], [ 460633.739199999719858, 9161313.828299999237061 ], [ 460626.152300000190735, 9161302.305600000545382 ], [ 460619.378899999894202, 9161291.777799999341369 ], [ 460615.357300000265241, 9161287.54450000077486 ], [ 460611.018099999986589, 9161281.639000000432134 ], [ 460603.715599999763072, 9161257.191400000825524 ], [ 460594.719700000248849, 9161226.129300000146031 ], [ 460578.209699999541044, 9161178.504200000315905 ], [ 460566.99129999987781, 9161144.849099999293685 ], [ 460561.435100000351667, 9161132.268200000748038 ] ] ] } },
{ "type": "Feature", "properties": { "OBJECTID": 1984, "Id": 0, "FUNGSI": "Jalan Lingkungan", "Shape_Leng": 868.16458764799995, "LEBAR": 2.8, "NAMA_JALAN": "Dk. Wunut", "PENGERASAN": null, "SET_LEBAR": 1.675, "SET_LEB": 1.4, "fungsi_1": "Jalan Lingkungan Sekunder" }, "geometry": { "type": "MultiLineString", "coordinates": [ [ [ 460211.643802790902555, 9161340.989745490252972 ], [ 460209.196500000543892, 9161342.000800000503659 ], [ 460193.043600001372397, 9161348.827099999412894 ], [ 460163.992300000973046, 9161360.257100000977516 ], [ 460138.235100002028048, 9161371.488700000569224 ], [ 460113.430300001055002, 9161381.807499999180436 ], [ 460099.261900000274181, 9161388.792500000447035 ], [ 460090.332200000062585, 9161393.158100001513958 ], [ 460073.464900000952184, 9161400.5320999994874 ], [ 460061.526912667439319, 9161405.573693362995982 ] ] ] } },
{ "type": "Feature", "properties": { "OBJECTID": 1991, "Id": 0, "FUNGSI": "Jalan Lokal", "Shape_Leng": 1619.09710477, "LEBAR": 5.25, "NAMA_JALAN": "Jl.Pucangmiliran Wunut", "PENGERASAN": null, "SET_LEBAR": 2.625, "SET_LEB": 2.63, "fungsi_1": "Jalan Lokal Primer" }, "geometry": { "type": "MultiLineString", "coordinates": [ [ [ 461636.207993225194514, 9160746.031654814258218 ], [ 461632.222700000740588, 9160746.016000000759959 ], [ 461599.917000001296401, 9160745.764699999243021 ], [ 461578.247600000351667, 9160745.209000000730157 ], [ 461536.972500001080334, 9160744.097799999639392 ], [ 461510.26280000153929, 9160743.542199999094009 ], [ 461484.049100000411272, 9160742.557900000363588 ], [ 461456.823500000871718, 9160740.891000000759959 ], [ 461426.74030000064522, 9160739.938500000163913 ], [ 461401.498999999836087, 9160738.668500000610948 ], [ 461373.241399999707937, 9160737.636700002476573 ], [ 461353.159500000067055, 9160736.8429000005126 ], [ 461327.203800001181662, 9160735.890400001779199 ], [ 461305.13750000204891, 9160735.017300002276897 ], [ 461276.303199999965727, 9160734.750000001862645 ], [ 461261.023500001057982, 9160735.107200000435114 ], [ 461247.503200002014637, 9160737.581599999219179 ], [ 461232.314399999566376, 9160740.302300002425909 ], [ 461213.899299999698997, 9160744.27110000140965 ], [ 461199.823500001803041, 9160747.393200002610683 ], [ 461184.001299999654293, 9160752.473200000822544 ], [ 461167.861700001172721, 9160757.870699999853969 ], [ 461139.657100000418723, 9160767.025299999862909 ], [ 461112.140399999916553, 9160776.285700002685189 ], [ 461092.825700000859797, 9160782.318299999460578 ], [ 461067.002400000579655, 9160791.949100002646446 ], [ 461039.062300000339746, 9160801.368300000205636 ], [ 461014.614799999631941, 9160809.5175 ], [ 460989.796799999661744, 9160818.725000001490116 ], [ 460964.449700000695884, 9160827.138800002634525 ], [ 460930.900400000624359, 9160837.404600001871586 ], [ 460900.684900000691414, 9160848.517100002616644 ], [ 460878.6716, 9160856.34880000166595 ], [ 460852.583600000478327, 9160867.355499999597669 ], [ 460836.126500000245869, 9160876.721799999475479 ], [ 460820.992300000973046, 9160883.759700002148747 ], [ 460813.531000000424683, 9160886.987600000575185 ], [ 460805.540599999949336, 9160888.998500002548099 ], [ 460796.968100000172853, 9160890.321399999782443 ], [ 460786.503300000913441, 9160894.431800000369549 ], [ 460772.281999998725951, 9160898.202099999412894 ], [ 460762.095499999821186, 9160899.789600001648068 ], [ 460746.74959999974817, 9160901.840199999511242 ], [ 460723.929299999959767, 9160905.279699999839067 ], [ 460710.567800001241267, 9160908.653200000524521 ], [ 460697.470900000073016, 9160913.018799999728799 ], [ 460684.770800000987947, 9160915.598500000312924 ], [ 460673.989099999889731, 9160916.987600000575185 ], [ 460664.662500000558794, 9160917.649000000208616 ], [ 460652.822300001047552, 9160917.715199999511242 ], [ 460642.172800000756979, 9160917.397700000554323 ], [ 460625.874500000849366, 9160917.715199999511242 ], [ 460606.824400001205504, 9160918.138499999418855 ], [ 460592.113600000739098, 9160919.408500000834465 ], [ 460570.629400000907481, 9160926.393500000238419 ], [ 460546.605200000107288, 9160938.564400000497699 ], [ 460529.645300000905991, 9160946.859099999070168 ], [ 460513.836400001309812, 9160952.481499999761581 ], [ 460502.0625, 9160955.061200000345707 ], [ 460484.599899999797344, 9160958.5669 ], [ 460469.849400001578033, 9160961.477400001138449 ], [ 460454.768100000917912, 9160965.446100000292063 ], [ 460442.425300001166761, 9160969.613299999386072 ], [ 460423.930800000205636, 9160972.470800001174212 ], [ 460404.642700001597404, 9160975.80460000038147 ], [ 460389.005800001323223, 9160977.709599999710917 ], [ 460376.385100001469254, 9160979.376499999314547 ], [ 460359.002000001259148, 9160981.3608 ], [ 460343.206300000660121, 9160984.059599999338388 ], [ 460321.37810000218451, 9160987.2346 ], [ 460302.090000000782311, 9160990.012700000777841 ], [ 460283.35740000102669, 9160992.235200000926852 ], [ 460264.673999999649823, 9160995.195299999788404 ], [ 460248.002400001510978, 9160997.537900000810623 ], [ 460235.99030000064522, 9160998.728600000962615 ], [ 460214.559000000357628, 9161001.347899999469519 ], [ 460197.652100000530481, 9161003.411700000986457 ], [ 460185.566936656890903, 9161005.084512872621417 ] ] ] } },
{ "type": "Feature", "properties": { "OBJECTID": 2051, "Id": 0, "FUNGSI": "Jalan Lingkungan", "Shape_Leng": 33.581590300499997, "LEBAR": 3.1, "NAMA_JALAN": "Dk. Boto", "PENGERASAN": null, "SET_LEBAR": 1.55, "SET_LEB": 1.55, "fungsi_1": "Jalan Lingkungan Sekunder" }, "geometry": { "type": "MultiLineString", "coordinates": [ [ [ 461610.580099999904633, 9161202.826099999248981 ], [ 461616.620900000445545, 9161235.859899999573827 ] ] ] } },
{ "type": "Feature", "properties": { "OBJECTID": 2052, "Id": 0, "FUNGSI": "Jalan Lingkungan", "Shape_Leng": 71.516890000700002, "LEBAR": 2.4, "NAMA_JALAN": "Dk. Dukuh", "PENGERASAN": null, "SET_LEBAR": 1.6, "SET_LEB": 0.0, "fungsi_1": "Jalan Lingkungan Sekunder" }, "geometry": { "type": "MultiLineString", "coordinates": [ [ [ 460810.972000000067055, 9160975.614800000563264 ], [ 460880.682000000029802, 9160959.6404 ] ] ] } },
{ "type": "Feature", "properties": { "OBJECTID": 2054, "Id": 0, "FUNGSI": "Jalan Lingkungan", "Shape_Leng": 74.187078812300001, "LEBAR": 3.25, "NAMA_JALAN": "Dk. Wunut", "PENGERASAN": null, "SET_LEBAR": 1.625, "SET_LEB": 1.63, "fungsi_1": "Jalan Lingkungan Sekunder" }, "geometry": { "type": "MultiLineString", "coordinates": [ [ [ 460531.117600000463426, 9161023.829500000923872 ], [ 460526.891800000332296, 9160989.3279 ], [ 460520.196899999864399, 9160959.650000000372529 ], [ 460518.592000000178814, 9160950.790200000628829 ] ] ] } },
{ "type": "Feature", "properties": { "OBJECTID": 2055, "Id": 0, "FUNGSI": "Jalan Lingkungan", "Shape_Leng": 72.160309530399999, "LEBAR": 2.15, "NAMA_JALAN": "Jl. Dk. Wunut", "PENGERASAN": null, "SET_LEBAR": 1.075, "SET_LEB": 0.0, "fungsi_1": "Jalan Lingkungan Sekunder" }, "geometry": { "type": "MultiLineString", "coordinates": [ [ [ 460521.990600000135601, 9160967.601500000804663 ], [ 460548.96239999961108, 9160961.778200000524521 ], [ 460591.389600000344217, 9160948.134400000795722 ] ] ] } },
{ "type": "Feature", "properties": { "OBJECTID": 2056, "Id": 0, "FUNGSI": "Jalan Lingkungan", "Shape_Leng": 194.94970759700001, "LEBAR": 2.1, "NAMA_JALAN": "Dk. Wunut", "PENGERASAN": null, "SET_LEBAR": 1.05, "SET_LEB": 0.0, "fungsi_1": "Jalan Lingkungan Sekunder" }, "geometry": { "type": "MultiLineString", "coordinates": [ [ [ 460607.519199999980628, 9160918.123099999502301 ], [ 460599.73340000025928, 9160887.941500000655651 ], [ 460593.158900000154972, 9160871.416400000452995 ], [ 460585.714200000278652, 9160859.783299999311566 ], [ 460580.472500000149012, 9160850.309000000357628 ], [ 460572.341400000266731, 9160843.462999999523163 ], [ 460564.734899999573827, 9160837.143400000408292 ], [ 460555.289099999703467, 9160833.189799999818206 ], [ 460545.051500000059605, 9160834.496600000187755 ], [ 460527.775299999862909, 9160841.058700000867248 ], [ 460520.053899999707937, 9160846.734300000593066 ], [ 460513.432799999602139, 9160854.93610000051558 ], [ 460473.747399999760091, 9160867.6524 ] ] ] } },
{ "type": "Feature", "properties": { "OBJECTID": 2057, "Id": 0, "FUNGSI": "Jalan Lingkungan", "Shape_Leng": 35.773893313800002, "LEBAR": 2.2, "NAMA_JALAN": "Dk. Wunut", "PENGERASAN": null, "SET_LEBAR": 1.1, "SET_LEB": 0.0, "fungsi_1": "Jalan Lingkungan Sekunder" }, "geometry": { "type": "MultiLineString", "coordinates": [ [ [ 460593.158900000154972, 9160871.416400000452995 ], [ 460618.519199999980628, 9160864.95299999974668 ], [ 460628.10010000038892, 9160864.30320000089705 ] ] ] } },
{ "type": "Feature", "properties": { "OBJECTID": 2059, "Id": 0, "FUNGSI": "Jalan Lingkungan", "Shape_Leng": 101.529909223, "LEBAR": 2.5, "NAMA_JALAN": "Dk. Sidosari", "PENGERASAN": null, "SET_LEBAR": 1.25, "SET_LEB": 1.25, "fungsi_1": "Jalan Lingkungan Sekunder" }, "geometry": { "type": "MultiLineString", "coordinates": [ [ [ 460404.025900000706315, 9161074.493300002068281 ], [ 460454.206400000490248, 9161065.545700000599027 ], [ 460483.109099999070168, 9161060.479499999433756 ], [ 460497.700521591119468, 9161056.048175850883126 ], [ 460501.309820896014571, 9161053.070567585527897 ], [ 460507.190368954092264, 9161050.546184159815311 ], [ 460511.171999999321997, 9161049.496799999848008 ], [ 460520.829300000332296, 9161047.710799999535084 ], [ 460530.883500001393259, 9161045.528000000864267 ], [ 460535.038200001232326, 9161044.707700001075864 ] ] ] } },
{ "type": "Feature", "properties": { "OBJECTID": 2060, "Id": 0, "FUNGSI": "Jalan Lingkungan", "Shape_Leng": 40.155561606799999, "LEBAR": 2.62, "NAMA_JALAN": "Dk. Barengan", "PENGERASAN": null, "SET_LEBAR": 1.31, "SET_LEB": 1.31, "fungsi_1": "Jalan Lingkungan Sekunder" }, "geometry": { "type": "MultiLineString", "coordinates": [ [ [ 460270.527499999850988, 9160954.142699999734759 ], [ 460260.5455, 9160915.247600000351667 ] ] ] } },
{ "type": "Feature", "properties": { "OBJECTID": 2061, "Id": 0, "FUNGSI": "Jalan Lingkungan", "Shape_Leng": 123.526651954, "LEBAR": 3.5, "NAMA_JALAN": "Dk. Wunut", "PENGERASAN": null, "SET_LEBAR": 1.75, "SET_LEB": 1.75, "fungsi_1": "Jalan Lingkungan Sekunder" }, "geometry": { "type": "MultiLineString", "coordinates": [ [ [ 460491.074000000022352, 9161311.176799999549985 ], [ 460533.53760000038892, 9161295.971200000494719 ], [ 460583.526300000026822, 9161280.123999999836087 ], [ 460608.911600000225008, 9161274.58669999986887 ] ] ] } },
{ "type": "Feature", "properties": { "OBJECTID": 2062, "Id": 0, "FUNGSI": "Jalan Lingkungan", "Shape_Leng": 57.7420434466, "LEBAR": 2.45, "NAMA_JALAN": "Dk. Wunut", "PENGERASAN": null, "SET_LEBAR": 1.225, "SET_LEB": 0.0, "fungsi_1": "Jalan Lingkungan Sekunder" }, "geometry": { "type": "MultiLineString", "coordinates": [ [ [ 460491.074000000022352, 9161311.176799999549985 ], [ 460502.08629999961704, 9161335.789000000804663 ], [ 460511.052799999713898, 9161365.2325 ] ] ] } },
{ "type": "Feature", "properties": { "OBJECTID": 2063, "Id": 0, "FUNGSI": "Jalan Lingkungan", "Shape_Leng": 48.253155433400003, "LEBAR": 2.15, "NAMA_JALAN": "DK. Wunut", "PENGERASAN": null, "SET_LEBAR": 1.075, "SET_LEB": 0.0, "fungsi_1": "Jalan Lingkungan Sekunder" }, "geometry": { "type": "MultiLineString", "coordinates": [ [ [ 460537.798700000159442, 9161357.400399999693036 ], [ 460555.786899999715388, 9161402.175300000235438 ] ] ] } },
{ "type": "Feature", "properties": { "OBJECTID": 2064, "Id": 0, "FUNGSI": "Jalan Lingkungan", "Shape_Leng": 31.3585824934, "LEBAR": 2.6, "NAMA_JALAN": "Dk. Wunut", "PENGERASAN": null, "SET_LEBAR": 1.3, "SET_LEB": 1.3, "fungsi_1": "Jalan Lingkungan Sekunder" }, "geometry": { "type": "MultiLineString", "coordinates": [ [ [ 460647.484400000423193, 9161348.581299999728799 ], [ 460646.888799999840558, 9161359.132099999114871 ], [ 460645.074199999682605, 9161363.392000000923872 ], [ 460642.944099999964237, 9161368.283099999651313 ], [ 460638.453200000338256, 9161371.357100000604987 ], [ 460633.412100000306964, 9161373.246899999678135 ] ] ] } },
{ "type": "Feature", "properties": { "OBJECTID": 2065, "Id": 0, "FUNGSI": "Jalan Lingkungan", "Shape_Leng": 45.003132210799997, "LEBAR": 2.2, "NAMA_JALAN": null, "PENGERASAN": null, "SET_LEBAR": 1.1, "SET_LEB": 0.0, "fungsi_1": "Jalan Lingkungan Sekunder" }, "geometry": { "type": "MultiLineString", "coordinates": [ [ [ 460382.168300000019372, 9161375.305299999192357 ], [ 460398.664300000295043, 9161417.176100000739098 ] ] ] } },
{ "type": "Feature", "properties": { "OBJECTID": 2067, "Id": 0, "FUNGSI": "Jalan Lingkungan", "Shape_Leng": 65.056290666899997, "LEBAR": 2.1, "NAMA_JALAN": "Dk. Wunut", "PENGERASAN": null, "SET_LEBAR": 1.05, "SET_LEB": 0.0, "fungsi_1": "Jalan Lingkungan Sekunder" }, "geometry": { "type": "MultiLineString", "coordinates": [ [ [ 460332.692200000397861, 9161374.817900000140071 ], [ 460338.167799999937415, 9161395.873500000685453 ], [ 460341.50069999974221, 9161412.448599999770522 ], [ 460345.350599999539554, 9161438.559800000861287 ] ] ] } },
{ "type": "Feature", "properties": { "OBJECTID": 2068, "Id": 0, "FUNGSI": "Jalan Lingkungan", "Shape_Leng": 49.188035888999998, "LEBAR": 2.5, "NAMA_JALAN": "Dk. Wunut", "PENGERASAN": null, "SET_LEBAR": 1.25, "SET_LEB": 1.25, "fungsi_1": "Jalan Lingkungan Sekunder" }, "geometry": { "type": "MultiLineString", "coordinates": [ [ [ 460239.965599999763072, 9161398.772099999710917 ], [ 460193.684100000187755, 9161415.429999999701977 ] ] ] } },
{ "type": "Feature", "properties": { "OBJECTID": 2069, "Id": 0, "FUNGSI": "Jalan Lingkungan", "Shape_Leng": 37.508589205200003, "LEBAR": 2.4, "NAMA_JALAN": "Dk. Wunut", "PENGERASAN": null, "SET_LEBAR": 1.25, "SET_LEB": 0.0, "fungsi_1": "Jalan Lingkungan Sekunder" }, "geometry": { "type": "MultiLineString", "coordinates": [ [ [ 460193.684100000187755, 9161415.429999999701977 ], [ 460205.728500000201166, 9161450.952199999243021 ] ] ] } },
{ "type": "Feature", "properties": { "OBJECTID": 2070, "Id": 0, "FUNGSI": "Jalan Lingkungan", "Shape_Leng": 75.894489644199993, "LEBAR": 1.65, "NAMA_JALAN": "Dk. Wunut", "PENGERASAN": null, "SET_LEBAR": 0.825, "SET_LEB": 0.0, "fungsi_1": "Jalan Lingkungan Sekunder" }, "geometry": { "type": "MultiLineString", "coordinates": [ [ [ 460205.728500000201166, 9161450.952199999243021 ], [ 460212.88260000012815, 9161448.985200000926852 ], [ 460215.443099999800324, 9161447.4748 ], [ 460217.150600000284612, 9161445.7006 ], [ 460221.35149999987334, 9161444.25730000063777 ], [ 460225.290400000289083, 9161442.156099999323487 ], [ 460250.194299999624491, 9161432.56220000050962 ], [ 460252.924599999561906, 9161431.9858 ], [ 460254.962199999950826, 9161434.447000000625849 ], [ 460266.856300000101328, 9161429.761399999260902 ], [ 460275.205099999904633, 9161427.400800000876188 ] ] ] } },
{ "type": "Feature", "properties": { "OBJECTID": 2071, "Id": 0, "FUNGSI": "Jalan Lingkungan", "Shape_Leng": 37.225749207200003, "LEBAR": 2.1, "NAMA_JALAN": "Dk. Wunut", "PENGERASAN": null, "SET_LEBAR": 1.05, "SET_LEB": 0.0, "fungsi_1": "Jalan Lingkungan Sekunder" }, "geometry": { "type": "MultiLineString", "coordinates": [ [ [ 460261.589999999850988, 9161392.785800000652671 ], [ 460270.880599999800324, 9161414.4594 ], [ 460275.205099999904633, 9161427.400800000876188 ] ] ] } },
{ "type": "Feature", "properties": { "OBJECTID": 2072, "Id": 0, "FUNGSI": "Jalan Lingkungan", "Shape_Leng": 18.0989530614, "LEBAR": 2.1, "NAMA_JALAN": "Dk. Wunut", "PENGERASAN": null, "SET_LEBAR": 1.05, "SET_LEB": 0.0, "fungsi_1": "Jalan Lingkungan Sekunder" }, "geometry": { "type": "MultiLineString", "coordinates": [ [ [ 460275.205099999904633, 9161427.400800000876188 ], [ 460282.27379999961704, 9161444.062300000339746 ] ] ] } },
{ "type": "Feature", "properties": { "OBJECTID": 0, "Id": 0, "FUNGSI": "Jalan Lingkungan", "Shape_Leng": 0.0, "LEBAR": 3.6, "NAMA_JALAN": "Jl. Dk. Margoayu", "PENGERASAN": null, "SET_LEBAR": 1.8, "SET_LEB": 1.8, "fungsi_1": "Jalan Lingkungan Sekunder" }, "geometry": { "type": "MultiLineString", "coordinates": [ [ [ 460458.542857421678491, 9160798.847083168104291 ], [ 460459.757579132914543, 9160803.887219736352563 ] ] ] } },
{ "type": "Feature", "properties": { "OBJECTID": 1742, "Id": 0, "FUNGSI": "Jalan Lingkungan", "Shape_Leng": 138.928306233, "LEBAR": 2.45, "NAMA_JALAN": "Dk. Wunut", "PENGERASAN": null, "SET_LEBAR": 1.225, "SET_LEB": 0.0, "fungsi_1": "Jalan Lingkungan Sekunder" }, "geometry": { "type": "MultiLineString", "coordinates": [ [ [ 460404.025899999774992, 9161074.493300000205636 ], [ 460397.464200000278652, 9161074.281600000336766 ], [ 460395.506299999542534, 9161073.752499999478459 ] ] ] } },
{ "type": "Feature", "properties": { "OBJECTID": 1680, "Id": 0, "FUNGSI": "Jalan Lingkungan", "Shape_Leng": 363.54296889400001, "LEBAR": 3.0, "NAMA_JALAN": "Dk. Dukuh", "PENGERASAN": null, "SET_LEBAR": 1.5, "SET_LEB": 1.5, "fungsi_1": "Jalan Lingkungan Sekunder" }, "geometry": { "type": "MultiLineString", "coordinates": [ [ [ 460699.359400001354516, 9161042.193399999290705 ], [ 460700.043499999679625, 9161046.269100001081824 ], [ 460699.320100001990795, 9161048.241399999707937 ], [ 460697.219200001098216, 9161049.554999999701977 ], [ 460694.085455359891057, 9161051.287419889122248 ], [ 460691.951313341036439, 9161051.904634710401297 ], [ 460688.712019360624254, 9161052.441956110298634 ], [ 460664.64919999986887, 9161053.043800001963973 ], [ 460648.5625, 9161058.362000001594424 ], [ 460638.839100001379848, 9161063.521299999207258 ], [ 460632.290600001811981, 9161067.754700001329184 ], [ 460623.572599999606609, 9161071.9616 ], [ 460615.529199999757111, 9161072.914100000634789 ], [ 460604.734199999831617, 9161070.268200002610683 ], [ 460595.209200001321733, 9161068.257400002330542 ], [ 460592.378200001083314, 9161067.999399999156594 ], [ 460581.695600000210106, 9161071.538200002163649 ], [ 460569.471800000406802, 9161076.419800002127886 ], [ 460562.486800001002848, 9161078.245400000363588 ], [ 460545.897400001063943, 9161080.626700000837445 ] ] ] } },
{ "type": "Feature", "properties": { "OBJECTID": 1740, "Id": 0, "FUNGSI": "Jalan Lingkungan", "Shape_Leng": 102.855815599, "LEBAR": 3.6, "NAMA_JALAN": "Dk. Sidosari", "PENGERASAN": null, "SET_LEBAR": 1.8, "SET_LEB": 1.8, "fungsi_1": "Jalan Lingkungan Sekunder" }, "geometry": { "type": "MultiLineString", "coordinates": [ [ [ 460200.243400000967085, 9161302.20299999974668 ], [ 460206.456578193232417, 9161318.304741265252233 ], [ 460209.998726949095726, 9161335.581914940848947 ], [ 460211.643802790902555, 9161340.989745490252972 ] ] ] } },
{ "type": "Feature", "properties": { "OBJECTID": 2053, "Id": 0, "FUNGSI": "Jalan Lingkungan", "Shape_Leng": 60.1619797866, "LEBAR": 2.7, "NAMA_JALAN": "Dk. Wunut", "PENGERASAN": null, "SET_LEBAR": 1.5, "SET_LEB": 1.35, "fungsi_1": "Jalan Lingkungan Sekunder" }, "geometry": { "type": "MultiLineString", "coordinates": [ [ [ 460472.507699999958277, 9160860.467199999839067 ], [ 460471.88289999961853, 9160855.131999999284744 ], [ 460466.821968262083828, 9160834.684781331568956 ], [ 460464.281963183544576, 9160822.461006883531809 ], [ 460460.710081038065255, 9160808.014727991074324 ], [ 460459.757579132914543, 9160803.887219736352563 ] ] ] } }
]
}
