{
"type": "FeatureCollection",
"name": "kesehatanfix",
"crs": { "type": "name", "properties": { "name": "urn:ogc:def:crs:OGC:1.3:CRS84" } },
"features": [
{ "type": "Feature", "properties": { "OBJECTID": 148, "X": 110.642202232, "Y": -7.5904785735300004, "KODE": "KHAKWN0001", "DESA": "Wunut", "Klasif_Top": "Toponim Sarana Kesehatan", "Jenis": "Kesehatan", "Jenis_Utam": "Fasilitas Umum dan Sosial", "Keg_Objek": "Apotek", "Toponim": "Apotek Fattah Pharmacy Wunut", "KODE_JNS": "KH", "KODE_DS": "WN", "KODE_BGNN": "AK", "KODE_KEG": "KHAK", "FOTO": "KHAKWN0001.png", "ID_DESA": "3310192018", "SUMBER": "Geotagging dan Observasi Kelompok C2" }, "geometry": { "type": "Point", "coordinates": [ 110.642202231974778, -7.59047857323845, 0.0 ] } },
{ "type": "Feature", "properties": { "OBJECTID": 169, "X": 110.64208992899999, "Y": -7.5892813996199999, "KODE": "KHPUWN0001", "DESA": "Wunut", "Klasif_Top": "Toponim Sarana Kesehatan", "Jenis": "Kesehatan", "Jenis_Utam": "Fasilitas Umum dan Sosial", "Keg_Objek": "Puskesmas", "Toponim": "Puskesmas Pembantu (PUSTU)", "KODE_JNS": "KH", "KODE_DS": "WN", "KODE_BGNN": "PU", "KODE_KEG": "KHPU", "FOTO": "KHPUWN0001.png", "ID_DESA": "3310192018", "SUMBER": "Geotagging dan Observasi Kelompok C2" }, "geometry": { "type": "Point", "coordinates": [ 110.642089928695299, -7.589281399870227, 0.0 ] } },
{ "type": "Feature", "properties": { "OBJECTID": 170, "X": 110.63963384500001, "Y": -7.5891278763500001, "KODE": "KHPYWN0001", "DESA": "Wunut", "Klasif_Top": "Toponim Sarana Kesehatan", "Jenis": "Kesehatan", "Jenis_Utam": "Fasilitas Umum dan Sosial", "Keg_Objek": "Posyandu", "Toponim": "Posyandu Dahlia III", "KODE_JNS": "KH", "KODE_DS": "WN", "KODE_BGNN": "PY", "KODE_KEG": "KHPY", "FOTO": "KHPYWN0001.png", "ID_DESA": "3310192018", "SUMBER": "Geotagging dan Observasi Kelompok C2" }, "geometry": { "type": "Point", "coordinates": [ 110.639633844718588, -7.589127876104735, 0.0 ] } },
{ "type": "Feature", "properties": { "OBJECTID": 171, "X": 110.652930312, "Y": -7.5884675338500003, "KODE": "KHKKWN0001", "DESA": "Wunut", "Klasif_Top": "Toponim Sarana Kesehatan", "Jenis": "Kesehatan", "Jenis_Utam": "Fasilitas Umum dan Sosial", "Keg_Objek": "Klinik", "Toponim": "Perawatan Gigi Daroni, S.Ag", "KODE_JNS": "KH", "KODE_DS": "WN", "KODE_BGNN": "KK", "KODE_KEG": "KHKK", "FOTO": "KHKKWN0001.png", "ID_DESA": "3310192018", "SUMBER": "Geotagging dan Observasi Kelompok C2" }, "geometry": { "type": "Point", "coordinates": [ 110.652930312626196, -7.588467534012239, 0.0 ] } }
]
}
