{
"type": "FeatureCollection",
"name": "kesehatan",
"crs": { "type": "name", "properties": { "name": "urn:ogc:def:crs:EPSG::32749" } },
"features": [
{ "type": "Feature", "properties": { "OBJECTID": 148, "X": 110.642202232, "Y": -7.5904785735300004, "KODE": "KHAKWN0001", "DESA": "Wunut", "Klasif_Top": "Toponim Sarana Kesehatan", "Jenis": "Kesehatan", "Jenis_Utam": "Fasilitas Umum dan Sosial", "Keg_Objek": "Apotek", "Toponim": "Apotek Fattah Pharmacy Wunut", "KODE_JNS": "KH", "KODE_DS": "WN", "KODE_BGNN": "AK", "KODE_KEG": "KHAK", "FOTO": "KHAKWN0001.png", "ID_DESA": "3310192018", "SUMBER": "Geotagging dan Observasi Kelompok C2" }, "geometry": { "type": "Point", "coordinates": [ 460532.381699999794364, 9160958.657600000500679, 0.0 ] } },
{ "type": "Feature", "properties": { "OBJECTID": 169, "X": 110.64208992899999, "Y": -7.5892813996199999, "KODE": "KHPUWN0001", "DESA": "Wunut", "Klasif_Top": "Toponim Sarana Kesehatan", "Jenis": "Kesehatan", "Jenis_Utam": "Fasilitas Umum dan Sosial", "Keg_Objek": "Puskesmas", "Toponim": "Puskesmas Pembantu (PUSTU)", "KODE_JNS": "KH", "KODE_DS": "WN", "KODE_BGNN": "PU", "KODE_KEG": "KHPU", "FOTO": "KHPUWN0001.png", "ID_DESA": "3310192018", "SUMBER": "Geotagging dan Observasi Kelompok C2" }, "geometry": { "type": "Point", "coordinates": [ 460519.884499999694526, 9161090.9967, 0.0 ] } },
{ "type": "Feature", "properties": { "OBJECTID": 170, "X": 110.63963384500001, "Y": -7.5891278763500001, "KODE": "KHPYWN0001", "DESA": "Wunut", "Klasif_Top": "Toponim Sarana Kesehatan", "Jenis": "Kesehatan", "Jenis_Utam": "Fasilitas Umum dan Sosial", "Keg_Objek": "Posyandu", "Toponim": "Posyandu Dahlia III", "KODE_JNS": "KH", "KODE_DS": "WN", "KODE_BGNN": "PY", "KODE_KEG": "KHPY", "FOTO": "KHPYWN0001.png", "ID_DESA": "3310192018", "SUMBER": "Geotagging dan Observasi Kelompok C2" }, "geometry": { "type": "Point", "coordinates": [ 460248.942800000309944, 9161107.744699999690056, 0.0 ] } },
{ "type": "Feature", "properties": { "OBJECTID": 171, "X": 110.652930312, "Y": -7.5884675338500003, "KODE": "KHKKWN0001", "DESA": "Wunut", "Klasif_Top": "Toponim Sarana Kesehatan", "Jenis": "Kesehatan", "Jenis_Utam": "Fasilitas Umum dan Sosial", "Keg_Objek": "Klinik", "Toponim": "Perawatan Gigi Daroni, S.Ag", "KODE_JNS": "KH", "KODE_DS": "WN", "KODE_BGNN": "KK", "KODE_KEG": "KHKK", "FOTO": "KHKKWN0001.png", "ID_DESA": "3310192018", "SUMBER": "Geotagging dan Observasi Kelompok C2" }, "geometry": { "type": "Point", "coordinates": [ 461715.601099999621511, 9161181.942299999296665, 0.0 ] } }
]
}
