{
"type": "FeatureCollection",
"name": "kp2bwunut",
"crs": { "type": "name", "properties": { "name": "urn:ogc:def:crs:OGC:1.3:CRS84" } },
"features": [
{ "type": "Feature", "properties": { "KP2B_2": "K02A", "KP2B": "Kawasan Pertanian Pangan Berkelanjutan" }, "geometry": { "type": "MultiPolygon", "coordinates": [ [ [ [ 110.651902516999982, -7.592826065000036, 0.0 ], [ 110.651907427000026, -7.592995570000023, 0.0 ], [ 110.651908649999953, -7.593037779999977, 0.0 ], [ 110.651917455999964, -7.593341779000071, 0.0 ], [ 110.651855924000031, -7.593540365000078, 0.0 ], [ 110.651856480999982, -7.593575438000056, 0.0 ], [ 110.651828051023841, -7.593671173012408, 0.0 ], [ 110.651826012000043, -7.593678038, 0.0 ], [ 110.65182485000004, -7.593681952999981, 0.0 ], [ 110.651761406999938, -7.593822466000054, 0.0 ], [ 110.651747297000014, -7.593853718999974, 0.0 ], [ 110.651745196000022, -7.593858374000019, 0.0 ], [ 110.651741142999953, -7.593867350000036, 0.0 ], [ 110.651745947, -7.593857254, 0.0 ], [ 110.651737285999985, -7.593884559000053, 0.0 ], [ 110.651720316, -7.593881158000039, 0.0 ], [ 110.651706726999947, -7.593878435000076, 0.0 ], [ 110.651692926999957, -7.593878425000065, 0.0 ], [ 110.65158642900002, -7.593878339000065, 0.0 ], [ 110.651517829000028, -7.593878284000056, 0.0 ], [ 110.651482834999982, -7.59387825500006, 0.0 ], [ 110.651436843999988, -7.593878656, 0.0 ], [ 110.651359011000039, -7.593879333000057, 0.0 ], [ 110.65128135, -7.593880009000015, 0.0 ], [ 110.651204068000013, -7.593889960000056, 0.0 ], [ 110.651147772999963, -7.593897210000031, 0.0 ], [ 110.651133592999955, -7.59389803, 0.0 ], [ 110.651119439000027, -7.593896855000088, 0.0 ], [ 110.651065963999955, -7.593888602000031, 0.0 ], [ 110.651058892999984, -7.593887017999989, 0.0 ], [ 110.651052101999952, -7.593884496000043, 0.0 ], [ 110.651029792999978, -7.593874457000014, 0.0 ], [ 110.651020208999981, -7.593870794999965, 0.0 ], [ 110.651014288000027, -7.593869287000023, 0.0 ], [ 110.651010263999964, -7.593868262000023, 0.0 ], [ 110.650973091999987, -7.593861050999973, 0.0 ], [ 110.65096087299996, -7.593859601000017, 0.0 ], [ 110.650952853, -7.593859830000032, 0.0 ], [ 110.650948573, -7.593859953000051, 0.0 ], [ 110.650921515999983, -7.593862724000012, 0.0 ], [ 110.650905261999981, -7.593864390000061, 0.0 ], [ 110.650874924999954, -7.593874452, 0.0 ], [ 110.650836163000037, -7.593887311, 0.0 ], [ 110.650787418, -7.59389487000001, 0.0 ], [ 110.650779061, -7.593895504999968, 0.0 ], [ 110.650770709000028, -7.593894836, 0.0 ], [ 110.650762560999979, -7.593892878000033, 0.0 ], [ 110.650703771, -7.593873800999956, 0.0 ], [ 110.650686732000011, -7.593870856000072, 0.0 ], [ 110.650665763999967, -7.593867231000034, 0.0 ], [ 110.650654115999984, -7.593866140000036, 0.0 ], [ 110.650642439, -7.593866867000011, 0.0 ], [ 110.650631018000027, -7.593869395000027, 0.0 ], [ 110.65057846800002, -7.593885401000025, 0.0 ], [ 110.65055408299996, -7.593892827000016, 0.0 ], [ 110.650476377000018, -7.593916987999969, 0.0 ], [ 110.650461783000054, -7.593920341999984, 0.0 ], [ 110.650446846999969, -7.593921460999988, 0.0 ], [ 110.650383121000033, -7.593921409000076, 0.0 ], [ 110.650372005, -7.59392234400006, 0.0 ], [ 110.6503399, -7.593927808999976, 0.0 ], [ 110.650310353999956, -7.593932839000043, 0.0 ], [ 110.650305329, -7.593933837000043, 0.0 ], [ 110.650282088000012, -7.593938455999981, 0.0 ], [ 110.650262106999961, -7.593942427000038, 0.0 ], [ 110.650252777, -7.59394428100001, 0.0 ], [ 110.650226099, -7.593945921999964, 0.0 ], [ 110.650200457999929, -7.593947501, 0.0 ], [ 110.650191418999981, -7.593947428, 0.0 ], [ 110.650182476999944, -7.593946104999983, 0.0 ], [ 110.650112709999945, -7.593930765000049, 0.0 ], [ 110.650095559000036, -7.593929610000039, 0.0 ], [ 110.650069119999984, -7.593927830999984, 0.0 ], [ 110.650067755999956, -7.593927844999989, 0.0 ], [ 110.650055242, -7.593927975999988, 0.0 ], [ 110.650041555000016, -7.593930268, 0.0 ], [ 110.649986053000035, -7.593944066, 0.0 ], [ 110.649955419, -7.59394537, 0.0 ], [ 110.649947104, -7.593945185, 0.0 ], [ 110.649946531999959, -7.593945172000082, 0.0 ], [ 110.649937745999949, -7.59394382500006, 0.0 ], [ 110.649929209999954, -7.593941355000029, 0.0 ], [ 110.649924248, -7.593939562000061, 0.0 ], [ 110.649885287000046, -7.593925489000059, 0.0 ], [ 110.649872858, -7.593920998000043, 0.0 ], [ 110.649837538, -7.593899815999976, 0.0 ], [ 110.649820428000012, -7.593891332999986, 0.0 ], [ 110.649802181000013, -7.593885684000048, 0.0 ], [ 110.649783264999954, -7.593883011000016, 0.0 ], [ 110.649764163999976, -7.59388338500004, 0.0 ], [ 110.649748146999983, -7.593886289000014, 0.0 ], [ 110.649745366000019, -7.593886794000051, 0.0 ], [ 110.649672916999975, -7.593906017000045, 0.0 ], [ 110.649590481, -7.593927888999989, 0.0 ], [ 110.649577933000018, -7.593931984999977, 0.0 ], [ 110.649565925, -7.593937461999981, 0.0 ], [ 110.649527863999964, -7.593957479000042, 0.0 ], [ 110.649487369999989, -7.593978775000023, 0.0 ], [ 110.649418340999958, -7.594015077000011, 0.0 ], [ 110.649407156, -7.594021671000016, 0.0 ], [ 110.649396668000037, -7.594029322000035, 0.0 ], [ 110.64937509499994, -7.594046729000058, 0.0 ], [ 110.649349369000021, -7.594067487999987, 0.0 ], [ 110.649320441999947, -7.594095058999963, 0.0 ], [ 110.649317172000025, -7.594099410000053, 0.0 ], [ 110.649304267999938, -7.594116588000058, 0.0 ], [ 110.649296355, -7.594117329000039, 0.0 ], [ 110.649296449, -7.594126995000032, 0.0 ], [ 110.649278039999984, -7.594162432000035, 0.0 ], [ 110.649265715000027, -7.594200403999984, 0.0 ], [ 110.64925981, -7.594239881000051, 0.0 ], [ 110.649257893000012, -7.594268968999975, 0.0 ], [ 110.649250509000012, -7.594317968000022, 0.0 ], [ 110.649247367000029, -7.594338817000062, 0.0 ], [ 110.649245045000015, -7.594354233, 0.0 ], [ 110.649244769, -7.594356058000062, 0.0 ], [ 110.649238418, -7.594382988000069, 0.0 ], [ 110.649227752, -7.59440852600006, 0.0 ], [ 110.649224069000056, -7.594414408, 0.0 ], [ 110.649213057000026, -7.59443198800005, 0.0 ], [ 110.649194727000022, -7.594452745000068, 0.0 ], [ 110.649166243000067, -7.594480117000037, 0.0 ], [ 110.64916603900005, -7.594480314000045, 0.0 ], [ 110.649154973000023, -7.594490949000029, 0.0 ], [ 110.64913059899996, -7.594511248000034, 0.0 ], [ 110.64912685, -7.594514370000016, 0.0 ], [ 110.649116067, -7.594523349999962, 0.0 ], [ 110.649051876000016, -7.59456366600002, 0.0 ], [ 110.648980337999959, -7.594608595, 0.0 ], [ 110.648980198999951, -7.594582894000012, 0.0 ], [ 110.648977684, -7.594119931000068, 0.0 ], [ 110.648970786999968, -7.592850134, 0.0 ], [ 110.648970784000056, -7.592849505000034, 0.0 ], [ 110.649040163000024, -7.592849713000034, 0.0 ], [ 110.649113338999953, -7.592849268, 0.0 ], [ 110.649189680999953, -7.592848804000062, 0.0 ], [ 110.649194916999946, -7.592848773000046, 0.0 ], [ 110.649236189, -7.592848522000031, 0.0 ], [ 110.649284039000037, -7.592848231, 0.0 ], [ 110.649369293999982, -7.592847714000047, 0.0 ], [ 110.649473938000028, -7.592847078, 0.0 ], [ 110.649573762999935, -7.592846472000035, 0.0 ], [ 110.649577911000023, -7.592846447000038, 0.0 ], [ 110.649663549, -7.592845926, 0.0 ], [ 110.649664430999977, -7.59284592, 0.0 ], [ 110.649751268999978, -7.592845393000042, 0.0 ], [ 110.649763716000024, -7.592845318000038, 0.0 ], [ 110.649770026000013, -7.592845279000028, 0.0 ], [ 110.649848316, -7.592844802999988, 0.0 ], [ 110.649853362999977, -7.592844773000085, 0.0 ], [ 110.649907451000018, -7.592844443000049, 0.0 ], [ 110.649955541, -7.592844151000027, 0.0 ], [ 110.650057988000043, -7.592843528999981, 0.0 ], [ 110.650150221999937, -7.592842969000011, 0.0 ], [ 110.650255483000038, -7.592842330000051, 0.0 ], [ 110.650349613, -7.592841758, 0.0 ], [ 110.650350511, -7.59284175200009, 0.0 ], [ 110.650448937999968, -7.592841154000042, 0.0 ], [ 110.650454492999984, -7.592841158000044, 0.0 ], [ 110.650561225000018, -7.592841253000056, 0.0 ], [ 110.650655237999985, -7.592841336000069, 0.0 ], [ 110.650761481999979, -7.592841430000074, 0.0 ], [ 110.650837783999989, -7.592840720000018, 0.0 ], [ 110.650889239999984, -7.592840242000065, 0.0 ], [ 110.650942406000027, -7.592839747000014, 0.0 ], [ 110.651022453999985, -7.592839003000039, 0.0 ], [ 110.651101750999985, -7.592838266, 0.0 ], [ 110.65117267799998, -7.592837607000017, 0.0 ], [ 110.651246445000055, -7.592836921000056, 0.0 ], [ 110.651324308000014, -7.592836198, 0.0 ], [ 110.651413814000037, -7.592835366000018, 0.0 ], [ 110.651483197, -7.592834720999959, 0.0 ], [ 110.651565201999958, -7.592833959000063, 0.0 ], [ 110.651652303999967, -7.592833149, 0.0 ], [ 110.651756785, -7.592832178000017, 0.0 ], [ 110.651825692000017, -7.592829286000034, 0.0 ], [ 110.651902516999982, -7.592826065000036, 0.0 ] ] ] ] } },
{ "type": "Feature", "properties": { "KP2B_2": "K02A", "KP2B": "Kawasan Pertanian Pangan Berkelanjutan" }, "geometry": { "type": "MultiPolygon", "coordinates": [ [ [ [ 110.649526637000037, -7.589275424999971, 0.0 ], [ 110.649534519999975, -7.589333003000037, 0.0 ], [ 110.649995905000054, -7.589281929, 0.0 ], [ 110.650311262999949, -7.589247021000019, 0.0 ], [ 110.650267957311669, -7.589408534871556, 0.0 ], [ 110.650271514789267, -7.589458796703049, 0.0 ], [ 110.650278033679314, -7.589485840950599, 0.0 ], [ 110.65028740317365, -7.589524710949375, 0.0 ], [ 110.650296615459425, -7.58956292592261, 0.0 ], [ 110.65033042024524, -7.589638582179239, 0.0 ], [ 110.650335827998418, -7.58965068497214, 0.0 ], [ 110.650372034435023, -7.589731715318656, 0.0 ], [ 110.650386470045873, -7.589758974883934, 0.0 ], [ 110.650401938453399, -7.589788186407627, 0.0 ], [ 110.650402028065002, -7.589788355631807, 0.0 ], [ 110.650404366112895, -7.58979277084322, 0.0 ], [ 110.650375461433356, -7.589943526316197, 0.0 ], [ 110.650375460891922, -7.589944196592215, 0.0 ], [ 110.6503754034362, -7.590015325443116, 0.0 ], [ 110.650400541853941, -7.5900727849981, 0.0 ], [ 110.650400483860068, -7.590144584124735, 0.0 ], [ 110.650391298346648, -7.590161863717252, 0.0 ], [ 110.650389748512879, -7.590164778761016, 0.0 ], [ 110.650368054465602, -7.59020558756731, 0.0 ], [ 110.650366617881687, -7.590207465175856, 0.0 ], [ 110.650310426819658, -7.590280930572564, 0.0 ], [ 110.650281574281976, -7.590367066368569, 0.0 ], [ 110.650225375999938, -7.59053975200005, 0.0 ], [ 110.650220112999946, -7.590537655000055, 0.0 ], [ 110.650211964, -7.590535755000077, 0.0 ], [ 110.650203621, -7.590535096000028, 0.0 ], [ 110.650042556, -7.590534479999971, 0.0 ], [ 110.650029081000042, -7.590033951000037, 0.0 ], [ 110.649989779, -7.590048033000051, 0.0 ], [ 110.649885207999958, -7.590093085000053, 0.0 ], [ 110.649874634999961, -7.590098451000042, 0.0 ], [ 110.649783679, -7.590144600000035, 0.0 ], [ 110.649714873999983, -7.590185128000022, 0.0 ], [ 110.649719054999977, -7.590537994, 0.0 ], [ 110.649719429, -7.590560588, 0.0 ], [ 110.649169698, -7.590572238, 0.0 ], [ 110.649127100000015, -7.590572980000046, 0.0 ], [ 110.649057371000026, -7.590574194999967, 0.0 ], [ 110.648691429000039, -7.590580567000058, 0.0 ], [ 110.64862511799997, -7.590581722000061, 0.0 ], [ 110.648614389999963, -7.590581908999986, 0.0 ], [ 110.648625142999961, -7.590578802, 0.0 ], [ 110.648625305999985, -7.590559109000053, 0.0 ], [ 110.648652742000024, -7.589473715000039, 0.0 ], [ 110.648576300000016, -7.589468259000036, 0.0 ], [ 110.648587594999967, -7.589237243000024, 0.0 ], [ 110.648658992, -7.589226453, 0.0 ], [ 110.648674140000026, -7.589224163, 0.0 ], [ 110.648680642999935, -7.58922318000001, 0.0 ], [ 110.648734283000024, -7.589224596000033, 0.0 ], [ 110.648853208, -7.589227735000032, 0.0 ], [ 110.648976320999978, -7.589230985000029, 0.0 ], [ 110.649065891000021, -7.589233349000051, 0.0 ], [ 110.649260635999966, -7.589238488000026, 0.0 ], [ 110.649487609, -7.589244478, 0.0 ], [ 110.64952252599997, -7.589245399999988, 0.0 ], [ 110.649526637000037, -7.589275424999971, 0.0 ] ] ] ] } },
{ "type": "Feature", "properties": { "KP2B_2": "K02A", "KP2B": "Kawasan Pertanian Pangan Berkelanjutan" }, "geometry": { "type": "MultiPolygon", "coordinates": [ [ [ [ 110.653417544, -7.587523509999968, 0.0 ], [ 110.653498427999949, -7.587584948000093, 0.0 ], [ 110.653498608999968, -7.587585086, 0.0 ], [ 110.653502644000028, -7.587588151, 0.0 ], [ 110.653706374, -7.587754951000023, 0.0 ], [ 110.653740331999984, -7.587798586000089, 0.0 ], [ 110.653780468000022, -7.587870360000071, 0.0 ], [ 110.653919117999948, -7.588057505000021, 0.0 ], [ 110.65394479499993, -7.588086863000043, 0.0 ], [ 110.653974915999939, -7.588111661000051, 0.0 ], [ 110.654008678999986, -7.588131240999984, 0.0 ], [ 110.654045183999983, -7.588145079000062, 0.0 ], [ 110.654083458000045, -7.58815281, 0.0 ], [ 110.654122483999984, -7.58815422400002, 0.0 ], [ 110.654161218999988, -7.588149284000059, 0.0 ], [ 110.654183436999958, -7.588142657000042, 0.0 ], [ 110.654198634999972, -7.588138124000021, 0.0 ], [ 110.654233732000037, -7.58812103900004, 0.0 ], [ 110.654265576000014, -7.588098485000029, 0.0 ], [ 110.65429332, -7.588071064000074, 0.0 ], [ 110.654366102999973, -7.587986398, 0.0 ], [ 110.654430498999972, -7.587909735000039, 0.0 ], [ 110.654439912999962, -7.587896913000046, 0.0 ], [ 110.654447573999974, -7.587882977999962, 0.0 ], [ 110.654453352, -7.587868167000065, 0.0 ], [ 110.65448222, -7.587777006000073, 0.0 ], [ 110.65450197100003, -7.587645664000052, 0.0 ], [ 110.654513832000035, -7.587566792, 0.0 ], [ 110.654517567999989, -7.587550874000014, 0.0 ], [ 110.654523895999972, -7.587535793000015, 0.0 ], [ 110.654532635999985, -7.587521965000031, 0.0 ], [ 110.654538119, -7.587515842000059, 0.0 ], [ 110.654543552, -7.587509772, 0.0 ], [ 110.65455634, -7.587499550000034, 0.0 ], [ 110.654570647000028, -7.587491582, 0.0 ], [ 110.654586078000065, -7.587486088, 0.0 ], [ 110.654595519999958, -7.587484407000032, 0.0 ], [ 110.654602208999975, -7.587483218000023, 0.0 ], [ 110.654618593, -7.587483052, 0.0 ], [ 110.654627732999955, -7.587484489000039, 0.0 ], [ 110.654634778, -7.587485595000034, 0.0 ], [ 110.654650316999962, -7.587490776000021, 0.0 ], [ 110.654664783, -7.587498454000031, 0.0 ], [ 110.654677776000014, -7.587508414000063, 0.0 ], [ 110.65468893699996, -7.587520384000074, 0.0 ], [ 110.654697957999986, -7.587534032000049, 0.0 ], [ 110.654704589, -7.587548982000048, 0.0 ], [ 110.654773466000023, -7.587746548000049, 0.0 ], [ 110.654815741999968, -7.587893100000011, 0.0 ], [ 110.654824387999966, -7.587923073, 0.0 ], [ 110.654840143999948, -7.587965449000034, 0.0 ], [ 110.654862117999983, -7.58800497200003, 0.0 ], [ 110.654865770000015, -7.588009692000051, 0.0 ], [ 110.654889806000057, -7.588040743000052, 0.0 ], [ 110.654920656999948, -7.588070115, 0.0 ], [ 110.654922578000011, -7.588071943999971, 0.0 ], [ 110.654959687999977, -7.588097864000078, 0.0 ], [ 110.65499498799997, -7.588115296, 0.0 ], [ 110.655000283999954, -7.588117912000047, 0.0 ], [ 110.655043444999976, -7.588131629000011, 0.0 ], [ 110.655135441000041, -7.588153339000037, 0.0 ], [ 110.65514248, -7.588155, 0.0 ], [ 110.655159438999988, -7.588159001000063, 0.0 ], [ 110.655162808, -7.58815979700004, 0.0 ], [ 110.655142738414085, -7.588192241167573, 0.0 ], [ 110.655132952346307, -7.58820806224989, 0.0 ], [ 110.65513174782734, -7.588209987096573, 0.0 ], [ 110.655117497829977, -7.588232760681632, 0.0 ], [ 110.65501829606913, -7.588391285208013, 0.0 ], [ 110.654995224107182, -7.588428155642017, 0.0 ], [ 110.654967856896377, -7.588471889158475, 0.0 ], [ 110.654964612504685, -7.588476268258124, 0.0 ], [ 110.654950831778791, -7.588494870392188, 0.0 ], [ 110.654946725536874, -7.588498904171629, 0.0 ], [ 110.654850817290196, -7.588636763947932, 0.0 ], [ 110.654845762307986, -7.58866187948284, 0.0 ], [ 110.654840703682282, -7.588687015819583, 0.0 ], [ 110.654847874893107, -7.588717176728375, 0.0 ], [ 110.654855631379235, -7.588735274929702, 0.0 ], [ 110.654860803576923, -7.588747343111809, 0.0 ], [ 110.654856262808536, -7.588767655857244, 0.0 ], [ 110.654846360639951, -7.588811950484147, 0.0 ], [ 110.654787270633278, -7.588918167308276, 0.0 ], [ 110.654710971355627, -7.588949698374492, 0.0 ], [ 110.65463036679003, -7.588965429728845, 0.0 ], [ 110.654590073337459, -7.588961090220436, 0.0 ], [ 110.654535403122878, -7.588939506571082, 0.0 ], [ 110.654508063313088, -7.588935177347356, 0.0 ], [ 110.654496544445806, -7.588942347662618, 0.0 ], [ 110.654489324212506, -7.588972498044363, 0.0 ], [ 110.654493597393866, -7.589028504369366, 0.0 ], [ 110.654490476833161, -7.589052639086881, 0.0 ], [ 110.654486356527642, -7.589084502448959, 0.0 ], [ 110.654440273012597, -7.589123237848834, 0.0 ], [ 110.654426811594661, -7.589133581612802, 0.0 ], [ 110.654413407322565, -7.589143882907656, 0.0 ], [ 110.654389871608217, -7.589161968906478, 0.0 ], [ 110.654365722889807, -7.589178004690738, 0.0 ], [ 110.65431643678599, -7.589210733986185, 0.0 ], [ 110.654239369411201, -7.589277658761865, 0.0 ], [ 110.654157876803339, -7.589348426178414, 0.0 ], [ 110.654116256424189, -7.589384569012917, 0.0 ], [ 110.654026653786616, -7.589431533772817, 0.0 ], [ 110.653970361684969, -7.589461039037714, 0.0 ], [ 110.653951945177013, -7.589461024379585, 0.0 ], [ 110.653914714187067, -7.589460994744252, 0.0 ], [ 110.653870592995034, -7.589445641854371, 0.0 ], [ 110.653865655938759, -7.589445637923829, 0.0 ], [ 110.653837512179976, -7.589445615516505, 0.0 ], [ 110.653830296970568, -7.58944560977168, 0.0 ], [ 110.653772722032855, -7.589457051797575, 0.0 ], [ 110.653740560548101, -7.589463710859587, 0.0 ], [ 110.653726660870248, -7.589466585325589, 0.0 ], [ 110.653713198828896, -7.589504870826586, 0.0 ], [ 110.653707367734086, -7.589564017867887, 0.0 ], [ 110.653705460289487, -7.589583365724011, 0.0 ], [ 110.653690079083759, -7.589621646077037, 0.0 ], [ 110.65364592264693, -7.589650330580963, 0.0 ], [ 110.653600562427442, -7.589729841169214, 0.0 ], [ 110.65359484861979, -7.589735296521464, 0.0 ], [ 110.653577866246948, -7.589748891142627, 0.0 ], [ 110.653558778666635, -7.589759338941345, 0.0 ], [ 110.653538162696194, -7.589766324686827, 0.0 ], [ 110.653516644932353, -7.589769634498185, 0.0 ], [ 110.653484067305811, -7.589771775851505, 0.0 ], [ 110.653469059513469, -7.589772761615428, 0.0 ], [ 110.653428902401345, -7.589771298596039, 0.0 ], [ 110.653368596680394, -7.589761491254157, 0.0 ], [ 110.65333641192872, -7.58975075835265, 0.0 ], [ 110.653277278162221, -7.589731037990344, 0.0 ], [ 110.653275517209408, -7.589730450433137, 0.0 ], [ 110.653256628890773, -7.589727534455094, 0.0 ], [ 110.653214568434407, -7.589721044180564, 0.0 ], [ 110.653181983864073, -7.589716015988736, 0.0 ], [ 110.653146234623179, -7.589722190014555, 0.0 ], [ 110.653099221772052, -7.589730309797094, 0.0 ], [ 110.653040420348319, -7.589746117040173, 0.0 ], [ 110.652966071891072, -7.589766103581204, 0.0 ], [ 110.652954258513319, -7.589770807796362, 0.0 ], [ 110.652922359581567, -7.589783509444993, 0.0 ], [ 110.652841456931739, -7.589815724861547, 0.0 ], [ 110.652786120760894, -7.589837759091362, 0.0 ], [ 110.652588205967277, -7.589877090307596, 0.0 ], [ 110.652479344060495, -7.589906354356289, 0.0 ], [ 110.652423257893759, -7.589900479650779, 0.0 ], [ 110.652413122626285, -7.589899417738875, 0.0 ], [ 110.65237706587466, -7.589895641330534, 0.0 ], [ 110.652307646000011, -7.58988836999997, 0.0 ], [ 110.652320872000047, -7.589738017999972, 0.0 ], [ 110.652264301999978, -7.589740324999986, 0.0 ], [ 110.652164196999962, -7.589722411, 0.0 ], [ 110.651975893000014, -7.589688717000069, 0.0 ], [ 110.651977364000047, -7.589655520999983, 0.0 ], [ 110.651959303999973, -7.589653928000027, 0.0 ], [ 110.651973766000012, -7.589490605000027, 0.0 ], [ 110.651955785999945, -7.589488176, 0.0 ], [ 110.651955901999955, -7.589486878999982, 0.0 ], [ 110.651857222999965, -7.589482314000051, 0.0 ], [ 110.651767406, -7.589478158000061, 0.0 ], [ 110.651706192999981, -7.589476257999987, 0.0 ], [ 110.651569529000042, -7.589472016999983, 0.0 ], [ 110.651479603999974, -7.589445020000076, 0.0 ], [ 110.651431955000035, -7.589434068000047, 0.0 ], [ 110.651292993, -7.58940212800007, 0.0 ], [ 110.651299807000029, -7.589325808000068, 0.0 ], [ 110.651262448999958, -7.589302045000053, 0.0 ], [ 110.651141582, -7.589225162, 0.0 ], [ 110.651055239000044, -7.589217913000013, 0.0 ], [ 110.651055239000044, -7.589216467000077, 0.0 ], [ 110.651055288999956, -7.588628146000067, 0.0 ], [ 110.651055310999951, -7.588355913000016, 0.0 ], [ 110.651054034000026, -7.588337880000029, 0.0 ], [ 110.65151799799996, -7.588310085000049, 0.0 ], [ 110.651656162000023, -7.588302176, 0.0 ], [ 110.651668976000011, -7.58830144300003, 0.0 ], [ 110.651672935999983, -7.588301209000014, 0.0 ], [ 110.651696086000044, -7.588299842000087, 0.0 ], [ 110.651708541, -7.588298999, 0.0 ], [ 110.65170953, -7.588298932, 0.0 ], [ 110.651710023000035, -7.588298893000011, 0.0 ], [ 110.651727172999941, -7.588297565999983, 0.0 ], [ 110.651930341000053, -7.588280951000031, 0.0 ], [ 110.65195245799994, -7.588279219000068, 0.0 ], [ 110.651962116000021, -7.588278620000024, 0.0 ], [ 110.651973528999989, -7.588278226999989, 0.0 ], [ 110.651985203999985, -7.588278005000055, 0.0 ], [ 110.652001810000016, -7.588277851000034, 0.0 ], [ 110.652002665, -7.588302481000043, 0.0 ], [ 110.652003464999979, -7.588321391000094, 0.0 ], [ 110.652004556999984, -7.588341433999975, 0.0 ], [ 110.65200542999996, -7.588352768000014, 0.0 ], [ 110.652006186999941, -7.588359887000078, 0.0 ], [ 110.652006634999978, -7.588363436000014, 0.0 ], [ 110.652007931, -7.588371918000014, 0.0 ], [ 110.652008582999954, -7.58837543300003, 0.0 ], [ 110.652010063, -7.588382432999982, 0.0 ], [ 110.652011042999987, -7.588386613000067, 0.0 ], [ 110.65201318299998, -7.588394917000044, 0.0 ], [ 110.6520155, -7.588403164000015, 0.0 ], [ 110.652019127000031, -7.588415495999969, 0.0 ], [ 110.652027765000042, -7.588444230000034, 0.0 ], [ 110.652031553, -7.588456512999984, 0.0 ], [ 110.652034194000038, -7.588464661000038, 0.0 ], [ 110.652035627999979, -7.588468862000038, 0.0 ], [ 110.652038332000018, -7.58847634900004, 0.0 ], [ 110.65204088699997, -7.588482907000038, 0.0 ], [ 110.652042597000019, -7.588487002000019, 0.0 ], [ 110.65204582600002, -7.588494278, 0.0 ], [ 110.652050779999982, -7.58850463800007, 0.0 ], [ 110.65205682899996, -7.58851650899998, 0.0 ], [ 110.652069616000034, -7.588540937000051, 0.0 ], [ 110.652073324999989, -7.58854802, 0.0 ], [ 110.652077338000055, -7.588555951000042, 0.0 ], [ 110.652079275999952, -7.588559945000013, 0.0 ], [ 110.652104989000037, -7.588573578999989, 0.0 ], [ 110.652148828000023, -7.58858528500007, 0.0 ], [ 110.65226957299997, -7.588617526999986, 0.0 ], [ 110.652386067000023, -7.588648632999988, 0.0 ], [ 110.652420762000048, -7.588653697000048, 0.0 ], [ 110.652583927000052, -7.588677510000064, 0.0 ], [ 110.652610159, -7.588676811, 0.0 ], [ 110.652728568000029, -7.588673654000023, 0.0 ], [ 110.652759422, -7.588672831000043, 0.0 ], [ 110.652786237, -7.588672116000063, 0.0 ], [ 110.65280476300002, -7.588671623000025, 0.0 ], [ 110.652902899000054, -7.588669004999983, 0.0 ], [ 110.652976101, -7.588667054, 0.0 ], [ 110.653090361000025, -7.588620713000074, 0.0 ], [ 110.653221488999947, -7.588567529000023, 0.0 ], [ 110.653267622999948, -7.588548818, 0.0 ], [ 110.653293437999949, -7.588487905000016, 0.0 ], [ 110.653307727999987, -7.588454185999979, 0.0 ], [ 110.653328462, -7.588405264000011, 0.0 ], [ 110.653329615000018, -7.588387208000028, 0.0 ], [ 110.653330768000018, -7.588369155000048, 0.0 ], [ 110.653340219, -7.588309327999987, 0.0 ], [ 110.653352546999955, -7.588231293, 0.0 ], [ 110.653309466999943, -7.588113985999986, 0.0 ], [ 110.653321391000048, -7.588005728, 0.0 ], [ 110.653323964, -7.58798236600002, 0.0 ], [ 110.653260478999982, -7.587950032, 0.0 ], [ 110.653069819, -7.587852925000051, 0.0 ], [ 110.652957853, -7.587757341999958, 0.0 ], [ 110.652954766, -7.587754707000016, 0.0 ], [ 110.652941562000066, -7.587753264000072, 0.0 ], [ 110.652782216999938, -7.587735862000057, 0.0 ], [ 110.652784300000022, -7.587712779, 0.0 ], [ 110.65279176300001, -7.58763012500001, 0.0 ], [ 110.652671856999945, -7.587601310000011, 0.0 ], [ 110.652592719999973, -7.587582099000024, 0.0 ], [ 110.652489585999973, -7.587577230000073, 0.0 ], [ 110.652484839000024, -7.587585864000075, 0.0 ], [ 110.652434337000017, -7.587677706000032, 0.0 ], [ 110.652283207999943, -7.587703911000061, 0.0 ], [ 110.652204094999973, -7.587653588000087, 0.0 ], [ 110.652011646999952, -7.587744420000043, 0.0 ], [ 110.652001704000014, -7.587621055000058, 0.0 ], [ 110.65199807099998, -7.587575962000058, 0.0 ], [ 110.651994998, -7.587539898, 0.0 ], [ 110.651995789999972, -7.587539852000082, 0.0 ], [ 110.652000699000013, -7.587539563000051, 0.0 ], [ 110.652189239999984, -7.587522481999983, 0.0 ], [ 110.652460777999977, -7.587483211000011, 0.0 ], [ 110.652712305, -7.587458970000062, 0.0 ], [ 110.653135292000016, -7.587418203000051, 0.0 ], [ 110.653166455000019, -7.587417024000042, 0.0 ], [ 110.653188698, -7.587417926000037, 0.0 ], [ 110.653210528000017, -7.587422285000033, 0.0 ], [ 110.653231405999975, -7.587429994999963, 0.0 ], [ 110.653250817999975, -7.587440866000063, 0.0 ], [ 110.653286484, -7.587464688, 0.0 ], [ 110.653293362000042, -7.587468687000052, 0.0 ], [ 110.653297292, -7.587470970000072, 0.0 ], [ 110.653308799999976, -7.587475859000032, 0.0 ], [ 110.653367793999976, -7.587496687000071, 0.0 ], [ 110.653393715, -7.587508168000036, 0.0 ], [ 110.653417544, -7.587523509999968, 0.0 ] ] ] ] } },
{ "type": "Feature", "properties": { "KP2B_2": "K02A", "KP2B": "Kawasan Pertanian Pangan Berkelanjutan" }, "geometry": { "type": "MultiPolygon", "coordinates": [ [ [ [ 110.639825026999972, -7.588004977000022, 0.0 ], [ 110.639921954, -7.588063689000077, 0.0 ], [ 110.640063254999959, -7.587672116000014, 0.0 ], [ 110.640067937, -7.58765922, 0.0 ], [ 110.640081001000013, -7.587661759000045, 0.0 ], [ 110.640090763999936, -7.587663736000037, 0.0 ], [ 110.640102465000012, -7.587666105999967, 0.0 ], [ 110.640109716999987, -7.587667733, 0.0 ], [ 110.640123430999964, -7.58767144900005, 0.0 ], [ 110.64013341, -7.587674380000022, 0.0 ], [ 110.640141224999937, -7.58767684499997, 0.0 ], [ 110.640151440999972, -7.587680289999979, 0.0 ], [ 110.640172533999944, -7.58768790099998, 0.0 ], [ 110.640188336, -7.587693661000025, 0.0 ], [ 110.64019967699997, -7.587697794, 0.0 ], [ 110.640324008999954, -7.587743117000033, 0.0 ], [ 110.640340895000023, -7.587749136000086, 0.0 ], [ 110.640353668000017, -7.587753513, 0.0 ], [ 110.640420756000054, -7.587775907, 0.0 ], [ 110.640461379999948, -7.587789467000044, 0.0 ], [ 110.64050303800002, -7.587803373000041, 0.0 ], [ 110.640571277999982, -7.587826433, 0.0 ], [ 110.640579858999985, -7.587829175000042, 0.0 ], [ 110.640584169, -7.587830456000054, 0.0 ], [ 110.640588498999989, -7.587831639000065, 0.0 ], [ 110.640595102, -7.58783316300001, 0.0 ], [ 110.640599728999945, -7.587833987, 0.0 ], [ 110.640602052000048, -7.587834308000017, 0.0 ], [ 110.640604381999978, -7.587834568000051, 0.0 ], [ 110.640607732999982, -7.587834830000066, 0.0 ], [ 110.640611088999989, -7.587834955, 0.0 ], [ 110.640613423, -7.587834954000083, 0.0 ], [ 110.640615755000027, -7.587834883000065, 0.0 ], [ 110.640610647000045, -7.587849231000014, 0.0 ], [ 110.640610759000054, -7.587849241000012, 0.0 ], [ 110.640552143, -7.588010052, 0.0 ], [ 110.64067570200001, -7.588095229000029, 0.0 ], [ 110.64077016200001, -7.588160345, 0.0 ], [ 110.64084959600001, -7.588215104000094, 0.0 ], [ 110.640744750999957, -7.588496632000026, 0.0 ], [ 110.640843116000013, -7.588444239000038, 0.0 ], [ 110.640844954999977, -7.588443246000036, 0.0 ], [ 110.640896149999961, -7.588415632000078, 0.0 ], [ 110.640881504, -7.588455701000012, 0.0 ], [ 110.640706524999985, -7.588934456, 0.0 ], [ 110.64066357999998, -7.589051955000049, 0.0 ], [ 110.640663109999949, -7.589051800000033, 0.0 ], [ 110.640650630999986, -7.589085792000017, 0.0 ], [ 110.640516476999977, -7.589041496, 0.0 ], [ 110.640359355999948, -7.588986373000042, 0.0 ], [ 110.640190528000019, -7.588927144000035, 0.0 ], [ 110.640077327999975, -7.588887431000029, 0.0 ], [ 110.639980046, -7.588853302000049, 0.0 ], [ 110.639851262, -7.588808121000039, 0.0 ], [ 110.63976743, -7.588778711, 0.0 ], [ 110.639698018999937, -7.588754359000024, 0.0 ], [ 110.63967468899996, -7.588746173999974, 0.0 ], [ 110.639586427999944, -7.58871521100007, 0.0 ], [ 110.639569301999956, -7.588709202000024, 0.0 ], [ 110.639527444000038, -7.588694517000046, 0.0 ], [ 110.63949749300005, -7.588683204, 0.0 ], [ 110.639481118999939, -7.588677019000019, 0.0 ], [ 110.63946833699994, -7.588672190999986, 0.0 ], [ 110.639365151000021, -7.588633213000044, 0.0 ], [ 110.63926852900002, -7.588596716000052, 0.0 ], [ 110.639231737, -7.58858281800005, 0.0 ], [ 110.639192658000056, -7.588568055999986, 0.0 ], [ 110.639104501000034, -7.588534756000077, 0.0 ], [ 110.639072671999983, -7.588522733000056, 0.0 ], [ 110.63901273, -7.588500091000046, 0.0 ], [ 110.63897423, -7.588485548, 0.0 ], [ 110.638915081, -7.588463205000014, 0.0 ], [ 110.638834821000017, -7.588432888, 0.0 ], [ 110.638817847999945, -7.58842695700003, 0.0 ], [ 110.638817744000022, -7.588427294999976, 0.0 ], [ 110.63881604099997, -7.588433293000019, 0.0 ], [ 110.638814884999974, -7.588437365, 0.0 ], [ 110.638812995, -7.588444633999977, 0.0 ], [ 110.63881116200001, -7.588452461, 0.0 ], [ 110.638809783999989, -7.588459295000045, 0.0 ], [ 110.638808186000034, -7.588468549000011, 0.0 ], [ 110.638807912000019, -7.588470133000047, 0.0 ], [ 110.638806726, -7.588478092, 0.0 ], [ 110.638805637, -7.588486487000075, 0.0 ], [ 110.638805351999977, -7.58848901, 0.0 ], [ 110.638799931999969, -7.588537031, 0.0 ], [ 110.638796182000021, -7.588569129999986, 0.0 ], [ 110.638796036782935, -7.588570383707348, 0.0 ], [ 110.637938867413325, -7.588310266806695, 0.0 ], [ 110.637177539736157, -7.588058631682855, 0.0 ], [ 110.63779552, -7.586735539000064, 0.0 ], [ 110.637862295999938, -7.586762943000023, 0.0 ], [ 110.637950636000042, -7.586799196, 0.0 ], [ 110.638024996999988, -7.586829712000033, 0.0 ], [ 110.638102287999985, -7.586861431, 0.0 ], [ 110.638195939, -7.586899863999971, 0.0 ], [ 110.638280471999977, -7.586934554, 0.0 ], [ 110.638369731, -7.586971184000014, 0.0 ], [ 110.638460446000039, -7.587008411, 0.0 ], [ 110.638535771999969, -7.587039323999966, 0.0 ], [ 110.638541707000016, -7.587041758999987, 0.0 ], [ 110.638616060000032, -7.587072272000031, 0.0 ], [ 110.638712831999968, -7.587111985000037, 0.0 ], [ 110.638789535, -7.587143461999969, 0.0 ], [ 110.638864865000016, -7.587174376000037, 0.0 ], [ 110.63895368, -7.587210823000047, 0.0 ], [ 110.639046622000052, -7.587248964000084, 0.0 ], [ 110.639125741999933, -7.587281433000019, 0.0 ], [ 110.639171435999984, -7.587300184000068, 0.0 ], [ 110.639200753000011, -7.587312216, 0.0 ], [ 110.63921787000001, -7.587318194000036, 0.0 ], [ 110.639212476, -7.58733363800008, 0.0 ], [ 110.639209831000045, -7.587341278, 0.0 ], [ 110.639197187999983, -7.587377803, 0.0 ], [ 110.639225717999949, -7.587387402, 0.0 ], [ 110.639243543, -7.587393496000046, 0.0 ], [ 110.639259381999977, -7.587398964999979, 0.0 ], [ 110.639366584999962, -7.587435980000014, 0.0 ], [ 110.639409096000023, -7.587450657, 0.0 ], [ 110.639404152999958, -7.587463317000052, 0.0 ], [ 110.639320532999974, -7.587684805, 0.0 ], [ 110.63939024799997, -7.587780087000068, 0.0 ], [ 110.639444040999976, -7.587853609000028, 0.0 ], [ 110.639485009999987, -7.587898278000075, 0.0 ], [ 110.639487969999976, -7.587901505999988, 0.0 ], [ 110.639489297, -7.587901913000029, 0.0 ], [ 110.639608307999978, -7.587938448000018, 0.0 ], [ 110.639722908000053, -7.587973629, 0.0 ], [ 110.639725676000012, -7.587974478, 0.0 ], [ 110.639822379000023, -7.588004164000048, 0.0 ], [ 110.639825026999972, -7.588004977000022, 0.0 ] ] ] ] } },
{ "type": "Feature", "properties": { "KP2B_2": "K02A", "KP2B": "Kawasan Pertanian Pangan Berkelanjutan" }, "geometry": { "type": "MultiPolygon", "coordinates": [ [ [ [ 110.643855626999951, -7.586140262000017, 0.0 ], [ 110.643896399000042, -7.586144951000048, 0.0 ], [ 110.643937429999966, -7.58614397900006, 0.0 ], [ 110.643977931999942, -7.586137363000034, 0.0 ], [ 110.643992213999979, -7.586132942000022, 0.0 ], [ 110.64399266400001, -7.586132803000011, 0.0 ], [ 110.644018336, -7.586124856000066, 0.0 ], [ 110.644068259999955, -7.586105529999979, 0.0 ], [ 110.644191589999949, -7.586073642, 0.0 ], [ 110.644218410000036, -7.586068081, 0.0 ], [ 110.64424564399998, -7.586065142000013, 0.0 ], [ 110.644331064000028, -7.586060097000033, 0.0 ], [ 110.644386538, -7.586059787, 0.0 ], [ 110.644442692999945, -7.586065487000048, 0.0 ], [ 110.644497918999988, -7.586077138000026, 0.0 ], [ 110.644551580999988, -7.586094606000055, 0.0 ], [ 110.644597899, -7.586115374, 0.0 ], [ 110.64460218, -7.586117292999977, 0.0 ], [ 110.644604567000016, -7.586118521, 0.0 ], [ 110.644655875, -7.586144902000034, 0.0 ], [ 110.644767309999978, -7.586201906000047, 0.0 ], [ 110.644784226000041, -7.586211629000052, 0.0 ], [ 110.64480010900003, -7.586222949000011, 0.0 ], [ 110.644873912, -7.586281184000032, 0.0 ], [ 110.644899512, -7.586299217000024, 0.0 ], [ 110.644926924000046, -7.586314369000027, 0.0 ], [ 110.645032448999984, -7.586365423000074, 0.0 ], [ 110.645080962, -7.586385386000047, 0.0 ], [ 110.645130474000013, -7.586399084000017, 0.0 ], [ 110.645181278999942, -7.58640673700003, 0.0 ], [ 110.645232636000017, -7.586408231999982, 0.0 ], [ 110.645265618, -7.586405213, 0.0 ], [ 110.645284892, -7.586403448000028, 0.0 ], [ 110.64538723500003, -7.586387821000061, 0.0 ], [ 110.645537175, -7.586352044000034, 0.0 ], [ 110.645699111999988, -7.586310293000042, 0.0 ], [ 110.645831056999981, -7.586280483999973, 0.0 ], [ 110.645954748, -7.586264587999988, 0.0 ], [ 110.645972760999982, -7.586263591, 0.0 ], [ 110.645992044999971, -7.586265332999964, 0.0 ], [ 110.646010873000023, -7.586269846999985, 0.0 ], [ 110.646027615999984, -7.586276547000016, 0.0 ], [ 110.646057204999948, -7.58629096000004, 0.0 ], [ 110.646093608000029, -7.58631154900006, 0.0 ], [ 110.646128101999949, -7.586337097000044, 0.0 ], [ 110.646159198000035, -7.58636667300001, 0.0 ], [ 110.646186425999986, -7.58639983, 0.0 ], [ 110.646208775999966, -7.586435126000067, 0.0 ], [ 110.646338316000026, -7.586617083000028, 0.0 ], [ 110.646354164, -7.586639343, 0.0 ], [ 110.646469222000022, -7.586727989999965, 0.0 ], [ 110.646653844000014, -7.586811904999988, 0.0 ], [ 110.646712464999979, -7.586831455, 0.0 ], [ 110.646804912, -7.586862286999972, 0.0 ], [ 110.647139346000046, -7.586871709000054, 0.0 ], [ 110.647358922, -7.586842199, 0.0 ], [ 110.647618281999968, -7.586803418, 0.0 ], [ 110.647709154999944, -7.586789830000018, 0.0 ], [ 110.647898678, -7.58674451, 0.0 ], [ 110.64804502099993, -7.586708730000065, 0.0 ], [ 110.648193761999977, -7.586670556000018, 0.0 ], [ 110.64830413200005, -7.586625173000074, 0.0 ], [ 110.648399104, -7.58658271900002, 0.0 ], [ 110.648414137, -7.586577361000021, 0.0 ], [ 110.648431216, -7.586574135000029, 0.0 ], [ 110.648448590000015, -7.586573597999988, 0.0 ], [ 110.648465835000025, -7.586575761000079, 0.0 ], [ 110.648482535999975, -7.586580573000034, 0.0 ], [ 110.648498285000045, -7.586587917000019, 0.0 ], [ 110.648511519999985, -7.586596823000033, 0.0 ], [ 110.648553578, -7.586630161000047, 0.0 ], [ 110.648643256999961, -7.586721872, 0.0 ], [ 110.648667809000031, -7.586751068, 0.0 ], [ 110.648742883000025, -7.586855286000024, 0.0 ], [ 110.648800919999942, -7.586952604, 0.0 ], [ 110.648819551999978, -7.58698905900007, 0.0 ], [ 110.648830816999933, -7.587020710000022, 0.0 ], [ 110.648845802000011, -7.58711069500002, 0.0 ], [ 110.6488478, -7.58724084400004, 0.0 ], [ 110.648850507000049, -7.58727868500006, 0.0 ], [ 110.648861136999955, -7.587361617, 0.0 ], [ 110.648862054000034, -7.587368778000051, 0.0 ], [ 110.648874162000055, -7.587463247000059, 0.0 ], [ 110.648881625999962, -7.587500904000053, 0.0 ], [ 110.648894141000014, -7.58753720000005, 0.0 ], [ 110.648920163000042, -7.587598710000075, 0.0 ], [ 110.648936277000047, -7.58763035800002, 0.0 ], [ 110.648955956999984, -7.587658378000026, 0.0 ], [ 110.648979392999962, -7.587683357000064, 0.0 ], [ 110.649006118999964, -7.587704794999962, 0.0 ], [ 110.649009504999967, -7.587706802000041, 0.0 ], [ 110.649035603, -7.587722266000069, 0.0 ], [ 110.649067258999949, -7.587735422, 0.0 ], [ 110.649100454000035, -7.587744002000015, 0.0 ], [ 110.649135557, -7.587747949000063, 0.0 ], [ 110.649176333000014, -7.58774641900003, 0.0 ], [ 110.649215164000026, -7.587738725000011, 0.0 ], [ 110.64925229, -7.587725015000041, 0.0 ], [ 110.649286787, -7.587705632000032, 0.0 ], [ 110.649317784, -7.587681061000049, 0.0 ], [ 110.649345482999976, -7.587650856000032, 0.0 ], [ 110.649467226000013, -7.58749493500001, 0.0 ], [ 110.649484707999946, -7.587470185, 0.0 ], [ 110.649499736000038, -7.587443880000046, 0.0 ], [ 110.649570022999981, -7.587305896, 0.0 ], [ 110.64966001999997, -7.587128787, 0.0 ], [ 110.649663286999981, -7.587122359, 0.0 ], [ 110.649670922999988, -7.587107332, 0.0 ], [ 110.649678142000056, -7.587078617000028, 0.0 ], [ 110.649696649999981, -7.587039457000071, 0.0 ], [ 110.649721235999976, -7.586996505999979, 0.0 ], [ 110.649753130000036, -7.586956797000068, 0.0 ], [ 110.649790841000055, -7.586922539999984, 0.0 ], [ 110.649833446000017, -7.586894571000069, 0.0 ], [ 110.649879902999956, -7.586873576000029, 0.0 ], [ 110.649897246000066, -7.58686881300007, 0.0 ], [ 110.649929072000035, -7.586860070999969, 0.0 ], [ 110.649978336000018, -7.586854542000044, 0.0 ], [ 110.650015456999981, -7.586853295000028, 0.0 ], [ 110.650058495999986, -7.586854395000031, 0.0 ], [ 110.650102167999961, -7.586860723000026, 0.0 ], [ 110.650144782999931, -7.58687216, 0.0 ], [ 110.65018474300004, -7.586888148000074, 0.0 ], [ 110.650222156999945, -7.586905751000028, 0.0 ], [ 110.650244019999974, -7.586917984000061, 0.0 ], [ 110.650263946999942, -7.58693315400007, 0.0 ], [ 110.650337142000041, -7.58699748400006, 0.0 ], [ 110.650557121000034, -7.587212393000079, 0.0 ], [ 110.650559481000059, -7.587216038000033, 0.0 ], [ 110.650570193999968, -7.58723258800007, 0.0 ], [ 110.650639346, -7.587312687000022, 0.0 ], [ 110.650696668000037, -7.587396508000043, 0.0 ], [ 110.650708655999964, -7.587409639999972, 0.0 ], [ 110.650719753, -7.587424273000027, 0.0 ], [ 110.650730345999975, -7.587436391999963, 0.0 ], [ 110.650742519, -7.587446931000026, 0.0 ], [ 110.650756037999969, -7.587455687000047, 0.0 ], [ 110.650770641000022, -7.587462490999988, 0.0 ], [ 110.650850309000049, -7.587493087000032, 0.0 ], [ 110.650914981999975, -7.587518241999985, 0.0 ], [ 110.650940903, -7.587526896999988, 0.0 ], [ 110.650967546999979, -7.587532993000044, 0.0 ], [ 110.651216049000027, -7.587577242000072, 0.0 ], [ 110.651257986000033, -7.587582489000057, 0.0 ], [ 110.651280243, -7.587582957, 0.0 ], [ 110.651289825, -7.587583159000034, 0.0 ], [ 110.651290360000047, -7.587583171000017, 0.0 ], [ 110.651300242999966, -7.587583379000042, 0.0 ], [ 110.651336992999987, -7.587582251000036, 0.0 ], [ 110.651334662999972, -7.587618523000022, 0.0 ], [ 110.651331752, -7.587663860000049, 0.0 ], [ 110.65133187, -7.587663857000044, 0.0 ], [ 110.65133173, -7.587664201999978, 0.0 ], [ 110.651330377999983, -7.587670530000064, 0.0 ], [ 110.651328126999971, -7.587688656000059, 0.0 ], [ 110.651312267, -7.587832315000039, 0.0 ], [ 110.65130626200002, -7.587883939000045, 0.0 ], [ 110.651301685, -7.587917419000057, 0.0 ], [ 110.651298965000038, -7.587934071000014, 0.0 ], [ 110.651295779999955, -7.587950585000048, 0.0 ], [ 110.651291913, -7.587966972999979, 0.0 ], [ 110.651287068999949, -7.58798317600009, 0.0 ], [ 110.651280876999962, -7.587998977999978, 0.0 ], [ 110.651274060999938, -7.588012229, 0.0 ], [ 110.651265956999978, -7.588024637999953, 0.0 ], [ 110.651256440999987, -7.588036117000025, 0.0 ], [ 110.651245307999957, -7.588046448999989, 0.0 ], [ 110.651230993000013, -7.588056170999988, 0.0 ], [ 110.651215861000011, -7.588063952000014, 0.0 ], [ 110.651200444999972, -7.588070440000021, 0.0 ], [ 110.651184919000016, -7.58807621500006, 0.0 ], [ 110.651128652999986, -7.588095975, 0.0 ], [ 110.651100397999954, -7.588106843000018, 0.0 ], [ 110.651086550999963, -7.588112799999973, 0.0 ], [ 110.651073058, -7.588119224000067, 0.0 ], [ 110.651060097, -7.588126199000019, 0.0 ], [ 110.651046192, -7.588134795000012, 0.0 ], [ 110.651032470000018, -7.588144212, 0.0 ], [ 110.650964048999953, -7.588194804, 0.0 ], [ 110.65096353, -7.588195173000034, 0.0 ], [ 110.650936331000054, -7.588214532000044, 0.0 ], [ 110.650907958000019, -7.588233451, 0.0 ], [ 110.650893175000036, -7.588242494000053, 0.0 ], [ 110.650878031999937, -7.588250947000029, 0.0 ], [ 110.650862340999979, -7.588258602000042, 0.0 ], [ 110.65084586600004, -7.588265229000063, 0.0 ], [ 110.650829112999986, -7.588270564000056, 0.0 ], [ 110.650812144, -7.588274536000027, 0.0 ], [ 110.650794934, -7.588276925000048, 0.0 ], [ 110.650777617999978, -7.588277286999989, 0.0 ], [ 110.650762655999984, -7.588275534000027, 0.0 ], [ 110.650748274000037, -7.588271818000079, 0.0 ], [ 110.65073456899998, -7.588266006000038, 0.0 ], [ 110.650721800999989, -7.588257768000065, 0.0 ], [ 110.650709684999953, -7.588245809000058, 0.0 ], [ 110.650700122999964, -7.588231914000054, 0.0 ], [ 110.650692914, -7.588216742000046, 0.0 ], [ 110.65068795000002, -7.58820048500003, 0.0 ], [ 110.650685453, -7.588183415000049, 0.0 ], [ 110.650685484, -7.588167808, 0.0 ], [ 110.650687161999954, -7.588152615000065, 0.0 ], [ 110.650689963000019, -7.588137758000079, 0.0 ], [ 110.650691769, -7.58813061300003, 0.0 ], [ 110.650701534, -7.588091981000033, 0.0 ], [ 110.650704005000023, -7.588078958000021, 0.0 ], [ 110.650704865, -7.588067592000056, 0.0 ], [ 110.650704088000026, -7.588059263999979, 0.0 ], [ 110.650702089999953, -7.58805262300006, 0.0 ], [ 110.650699302, -7.588047984000033, 0.0 ], [ 110.650694211000015, -7.588043513000017, 0.0 ], [ 110.650686488, -7.588039718000052, 0.0 ], [ 110.650676202999946, -7.588036934, 0.0 ], [ 110.65066489199998, -7.588035565999967, 0.0 ], [ 110.650652206, -7.588035334999952, 0.0 ], [ 110.650638650000033, -7.588036138000021, 0.0 ], [ 110.650624619999931, -7.588037879000082, 0.0 ], [ 110.650610432, -7.588040506000032, 0.0 ], [ 110.650596354, -7.588044028000052, 0.0 ], [ 110.650580891999965, -7.588049062000028, 0.0 ], [ 110.650565664999945, -7.588055179, 0.0 ], [ 110.650550821000053, -7.588062278000065, 0.0 ], [ 110.650544019000023, -7.588066118000025, 0.0 ], [ 110.650536520000017, -7.588070352000018, 0.0 ], [ 110.650523382, -7.588079038000028, 0.0 ], [ 110.650510518, -7.588088630000017, 0.0 ], [ 110.650497891000015, -7.588098930000073, 0.0 ], [ 110.650485496999977, -7.588109765999979, 0.0 ], [ 110.650484678, -7.588110523000056, 0.0 ], [ 110.650451437, -7.588141245000014, 0.0 ], [ 110.650439413999976, -7.588151784, 0.0 ], [ 110.65042719000003, -7.588161709000029, 0.0 ], [ 110.650414631999965, -7.58817115, 0.0 ], [ 110.65040176899997, -7.588180125000038, 0.0 ], [ 110.650388584999945, -7.58818864400004, 0.0 ], [ 110.650375038999982, -7.588196688999981, 0.0 ], [ 110.650359306000013, -7.588205157000062, 0.0 ], [ 110.650343356000022, -7.588212995, 0.0 ], [ 110.65032719200002, -7.588220368, 0.0 ], [ 110.650294772, -7.58823388100004, 0.0 ], [ 110.650261692000015, -7.588246279, 0.0 ], [ 110.650211902999985, -7.588263673000018, 0.0 ], [ 110.650179229999949, -7.588275438000023, 0.0 ], [ 110.650147166000039, -7.588288139000011, 0.0 ], [ 110.650085102999967, -7.588314807999985, 0.0 ], [ 110.650070523000011, -7.588320669000026, 0.0 ], [ 110.650055641000023, -7.588326065000032, 0.0 ], [ 110.650040332, -7.588330727000066, 0.0 ], [ 110.650023906999976, -7.58833448200002, 0.0 ], [ 110.650007408000022, -7.588337008000051, 0.0 ], [ 110.650004393000046, -7.588337247000075, 0.0 ], [ 110.649990918, -7.588338317000077, 0.0 ], [ 110.649974438999962, -7.588338307000069, 0.0 ], [ 110.64995798899993, -7.588336736000023, 0.0 ], [ 110.649940969000042, -7.588333057, 0.0 ], [ 110.64992458299993, -7.588327154000028, 0.0 ], [ 110.649909258999983, -7.588318819000047, 0.0 ], [ 110.649895548, -7.588308132000051, 0.0 ], [ 110.649873187000026, -7.588286516000042, 0.0 ], [ 110.649862972999983, -7.588277458000015, 0.0 ], [ 110.64985268, -7.588269861, 0.0 ], [ 110.64984217699994, -7.588264046000051, 0.0 ], [ 110.64983050900004, -7.588259901000058, 0.0 ], [ 110.649817481000028, -7.588257214000016, 0.0 ], [ 110.649803282, -7.588255769999987, 0.0 ], [ 110.649788269000013, -7.588255421999953, 0.0 ], [ 110.649783146999951, -7.588255629000069, 0.0 ], [ 110.649772700000057, -7.588256048000015, 0.0 ], [ 110.649758388000024, -7.588257368000029, 0.0 ], [ 110.64974350199995, -7.588259339000023, 0.0 ], [ 110.64972903, -7.588261718000036, 0.0 ], [ 110.64971421300001, -7.588264571, 0.0 ], [ 110.649699415999947, -7.588267821000016, 0.0 ], [ 110.649684724999972, -7.588271459000046, 0.0 ], [ 110.649670223000015, -7.588275519000033, 0.0 ], [ 110.64965464899997, -7.588280483, 0.0 ], [ 110.649639298000039, -7.588286003, 0.0 ], [ 110.649624234999948, -7.588292067999976, 0.0 ], [ 110.649609565999967, -7.588298696, 0.0 ], [ 110.649595341000037, -7.588305983999972, 0.0 ], [ 110.649583260999933, -7.588312972000011, 0.0 ], [ 110.649571184, -7.588320534000011, 0.0 ], [ 110.649534173000035, -7.588344737999973, 0.0 ], [ 110.649520626999987, -7.588353038000045, 0.0 ], [ 110.649506693, -7.588360862000064, 0.0 ], [ 110.649492208000026, -7.588368006000031, 0.0 ], [ 110.649477030000014, -7.588374166000025, 0.0 ], [ 110.649460099000038, -7.588379264000083, 0.0 ], [ 110.64944289499995, -7.588382809000015, 0.0 ], [ 110.649425545999932, -7.588384956000028, 0.0 ], [ 110.649408037, -7.588385759, 0.0 ], [ 110.649390444999966, -7.588385138000043, 0.0 ], [ 110.649374526999978, -7.588383293000057, 0.0 ], [ 110.649359005000022, -7.588380577000016, 0.0 ], [ 110.649343821000016, -7.588377335, 0.0 ], [ 110.649298327999972, -7.58836673800003, 0.0 ], [ 110.649266466, -7.588360158, 0.0 ], [ 110.649250622000025, -7.588357281000036, 0.0 ], [ 110.649234735999954, -7.588354727, 0.0 ], [ 110.64921890799998, -7.588352583, 0.0 ], [ 110.649203144000012, -7.588350948000049, 0.0 ], [ 110.649186494999967, -7.58834984600004, 0.0 ], [ 110.649169687999986, -7.588349272, 0.0 ], [ 110.649152803000021, -7.588349107999985, 0.0 ], [ 110.64911851199993, -7.588349683000038, 0.0 ], [ 110.649085490000047, -7.58835102500006, 0.0 ], [ 110.649002079999974, -7.588355471000068, 0.0 ], [ 110.648981694999975, -7.588356385000056, 0.0 ], [ 110.648968426000039, -7.588356979000015, 0.0 ], [ 110.648917624, -7.588358322000044, 0.0 ], [ 110.6488499, -7.588358981, 0.0 ], [ 110.648799006999965, -7.588358352000037, 0.0 ], [ 110.648780611000035, -7.588357620000062, 0.0 ], [ 110.648762283000039, -7.588356487999972, 0.0 ], [ 110.648743922000023, -7.588354821000019, 0.0 ], [ 110.648725513000016, -7.588352422000084, 0.0 ], [ 110.648707129, -7.58834901300006, 0.0 ], [ 110.648690424999955, -7.588344768000072, 0.0 ], [ 110.648674099000019, -7.588339524999984, 0.0 ], [ 110.64865813400003, -7.588333302, 0.0 ], [ 110.648642531999982, -7.588326020000022, 0.0 ], [ 110.648627413999975, -7.588317546000044, 0.0 ], [ 110.648614049000031, -7.588308604, 0.0 ], [ 110.64860142299996, -7.588298954, 0.0 ], [ 110.648589377000022, -7.588288805000063, 0.0 ], [ 110.64857769299995, -7.588278222999985, 0.0 ], [ 110.648553747, -7.588254836, 0.0 ], [ 110.648516071, -7.588216881999971, 0.0 ], [ 110.648503533999943, -7.588205044000063, 0.0 ], [ 110.648491727000035, -7.588194632, 0.0 ], [ 110.648479623, -7.588184682000064, 0.0 ], [ 110.648467268999966, -7.588175255000074, 0.0 ], [ 110.648454709999982, -7.588166471000064, 0.0 ], [ 110.648441981, -7.588158489000024, 0.0 ], [ 110.648429087, -7.588151501000065, 0.0 ], [ 110.648414901999985, -7.588145202000081, 0.0 ], [ 110.648400252000016, -7.588139983, 0.0 ], [ 110.64838527900001, -7.588135823, 0.0 ], [ 110.648370187000012, -7.588132799000019, 0.0 ], [ 110.648355073, -7.588131052999965, 0.0 ], [ 110.64834082199998, -7.588130692000024, 0.0 ], [ 110.648326270999931, -7.588131421, 0.0 ], [ 110.648311542999949, -7.588133100000044, 0.0 ], [ 110.648296787999982, -7.588135646, 0.0 ], [ 110.648282072, -7.588139036000014, 0.0 ], [ 110.648269479000021, -7.588142624000043, 0.0 ], [ 110.648256795999956, -7.588146743000022, 0.0 ], [ 110.648230817000027, -7.5881561, 0.0 ], [ 110.648174313000055, -7.588177667, 0.0 ], [ 110.648148701999986, -7.588187443000027, 0.0 ], [ 110.648158810000012, -7.588144845000054, 0.0 ], [ 110.648223112000011, -7.58787384800001, 0.0 ], [ 110.648262474999981, -7.587707984000057, 0.0 ], [ 110.648272418, -7.587666083999963, 0.0 ], [ 110.648302716000018, -7.587538420999958, 0.0 ], [ 110.648303743999932, -7.587534064000056, 0.0 ], [ 110.64834462599994, -7.587364831, 0.0 ], [ 110.648367925, -7.587268321, 0.0 ], [ 110.648386184, -7.587192685000046, 0.0 ], [ 110.648390704000022, -7.58717396400001, 0.0 ], [ 110.648395808, -7.587152818000039, 0.0 ], [ 110.648326919999988, -7.587154359000076, 0.0 ], [ 110.648165435000038, -7.587158326000051, 0.0 ], [ 110.648109826999956, -7.587159691999987, 0.0 ], [ 110.648096466000013, -7.587160220000031, 0.0 ], [ 110.648087939000021, -7.58716072300007, 0.0 ], [ 110.64808707899995, -7.587160787000065, 0.0 ], [ 110.648071329999979, -7.587161990000078, 0.0 ], [ 110.648059859, -7.587163094, 0.0 ], [ 110.648052235, -7.58716401800007, 0.0 ], [ 110.648048013, -7.587164629000043, 0.0 ], [ 110.648035390000018, -7.587166775000038, 0.0 ], [ 110.648019876999982, -7.58716977500001, 0.0 ], [ 110.648012352999984, -7.587171346000066, 0.0 ], [ 110.648004301000029, -7.587173149000037, 0.0 ], [ 110.647995725999934, -7.58717519300002, 0.0 ], [ 110.647982889000033, -7.587178370000014, 0.0 ], [ 110.647946039, -7.58718766, 0.0 ], [ 110.647880300999972, -7.587204233000033, 0.0 ], [ 110.647872670000055, -7.587206130000089, 0.0 ], [ 110.647863188999978, -7.587208489000032, 0.0 ], [ 110.647850317999982, -7.587211498000011, 0.0 ], [ 110.647842561999965, -7.587213108000051, 0.0 ], [ 110.647835643, -7.587214383000068, 0.0 ], [ 110.647823963000022, -7.58721627400004, 0.0 ], [ 110.647815724999958, -7.587217397000053, 0.0 ], [ 110.647806913000039, -7.587218367000037, 0.0 ], [ 110.647798084000016, -7.587219186000016, 0.0 ], [ 110.647780400999977, -7.587220646999956, 0.0 ], [ 110.647741215000011, -7.587223744000035, 0.0 ], [ 110.647727332000017, -7.587224840000037, 0.0 ], [ 110.647725502999961, -7.587224959000055, 0.0 ], [ 110.647714059, -7.58722569700002, 0.0 ], [ 110.647711406999946, -7.587225822000031, 0.0 ], [ 110.647710881, -7.587241541000091, 0.0 ], [ 110.647681954, -7.588095423000051, 0.0 ], [ 110.647589426999986, -7.588133495000091, 0.0 ], [ 110.64758793300004, -7.588193938000032, 0.0 ], [ 110.647579029000013, -7.588232569000015, 0.0 ], [ 110.647547388999968, -7.588682951999979, 0.0 ], [ 110.647518878, -7.589088806999987, 0.0 ], [ 110.64751979, -7.589111493000011, 0.0 ], [ 110.647562350999962, -7.589113070000041, 0.0 ], [ 110.647565140000012, -7.589113173000054, 0.0 ], [ 110.647565889999981, -7.589135806999974, 0.0 ], [ 110.647565508999961, -7.589135793000055, 0.0 ], [ 110.647643264, -7.590490176000041, 0.0 ], [ 110.647768699999986, -7.590481563000031, 0.0 ], [ 110.647762596, -7.59061319, 0.0 ], [ 110.64781670000005, -7.590609840000082, 0.0 ], [ 110.647936962999964, -7.590602394, 0.0 ], [ 110.647940181000052, -7.590947564000036, 0.0 ], [ 110.647968734000017, -7.59092248800001, 0.0 ], [ 110.648011972999953, -7.590889078, 0.0 ], [ 110.648018225000015, -7.59112968700001, 0.0 ], [ 110.648048555999949, -7.592296846000031, 0.0 ], [ 110.648049635000049, -7.592325575000017, 0.0 ], [ 110.648047959, -7.592325060000071, 0.0 ], [ 110.647949283, -7.592294729000034, 0.0 ], [ 110.647878368, -7.592272931000019, 0.0 ], [ 110.647848194, -7.592263650000041, 0.0 ], [ 110.647826889, -7.592256727, 0.0 ], [ 110.647818230999988, -7.592253914000046, 0.0 ], [ 110.647569760000039, -7.592173134000011, 0.0 ], [ 110.647521300000022, -7.59215737800004, 0.0 ], [ 110.647521588000046, -7.592186008000011, 0.0 ], [ 110.647521542999954, -7.592231618000062, 0.0 ], [ 110.647520758999988, -7.593042202999982, 0.0 ], [ 110.647478014, -7.59307678, 0.0 ], [ 110.647459499999982, -7.593091756, 0.0 ], [ 110.647409151, -7.593132485000089, 0.0 ], [ 110.647359861999988, -7.593236054000036, 0.0 ], [ 110.647124629999979, -7.593484644, 0.0 ], [ 110.647052671999973, -7.593484585, 0.0 ], [ 110.646957454, -7.593512572, 0.0 ], [ 110.646850824999973, -7.593543913, 0.0 ], [ 110.646742065000041, -7.593575868000081, 0.0 ], [ 110.646740831999935, -7.593576242000027, 0.0 ], [ 110.646672921, -7.59359620200008, 0.0 ], [ 110.646584282999953, -7.593622254000012, 0.0 ], [ 110.646544697000053, -7.593633889, 0.0 ], [ 110.646524853, -7.593639722000043, 0.0 ], [ 110.64649647800006, -7.593639699000028, 0.0 ], [ 110.646473523000026, -7.593639681000034, 0.0 ], [ 110.646365585999973, -7.593639592000028, 0.0 ], [ 110.646366431999951, -7.593474873999982, 0.0 ], [ 110.646371208, -7.592544110000071, 0.0 ], [ 110.646375053999961, -7.591794525000042, 0.0 ], [ 110.64637640399998, -7.591766315000013, 0.0 ], [ 110.646235540000049, -7.591718454999959, 0.0 ], [ 110.646154076999963, -7.591690777999984, 0.0 ], [ 110.646152453000013, -7.59171889, 0.0 ], [ 110.646051902999957, -7.591684724000012, 0.0 ], [ 110.646053456, -7.591898492000023, 0.0 ], [ 110.646064446000011, -7.593411387000071, 0.0 ], [ 110.646029994, -7.593379429, 0.0 ], [ 110.645997057999949, -7.593325553999981, 0.0 ], [ 110.64595818599993, -7.593196881, 0.0 ], [ 110.645934297999986, -7.593077196000038, 0.0 ], [ 110.645856456999951, -7.592939517000022, 0.0 ], [ 110.645828473000023, -7.592913443999988, 0.0 ], [ 110.645778921000016, -7.59286727300007, 0.0 ], [ 110.645775268999984, -7.592865747000036, 0.0 ], [ 110.645687694000017, -7.592829144000036, 0.0 ], [ 110.645578107, -7.592783343000054, 0.0 ], [ 110.645569942000037, -7.592765848000033, 0.0 ], [ 110.645557156999956, -7.592738450999988, 0.0 ], [ 110.645579537000032, -7.591516293000033, 0.0 ], [ 110.645581082, -7.591487837999973, 0.0 ], [ 110.645564135, -7.591481387999973, 0.0 ], [ 110.64548217399998, -7.59145019400007, 0.0 ], [ 110.645291773999944, -7.591377728000015, 0.0 ], [ 110.645259395999929, -7.591365403999979, 0.0 ], [ 110.645261860000048, -7.591337297000052, 0.0 ], [ 110.645261704000035, -7.59131089, 0.0 ], [ 110.645258042, -7.590690477, 0.0 ], [ 110.645260417000017, -7.590688962000045, 0.0 ], [ 110.645260945000061, -7.590666849, 0.0 ], [ 110.645263351999986, -7.590665080000031, 0.0 ], [ 110.64526590600002, -7.590663050000042, 0.0 ], [ 110.645268387999963, -7.590660933000044, 0.0 ], [ 110.645270799999977, -7.590658735000034, 0.0 ], [ 110.645273212, -7.59065638700002, 0.0 ], [ 110.645275539000025, -7.590653955, 0.0 ], [ 110.645277707999938, -7.590651517000062, 0.0 ], [ 110.645279793999933, -7.590649003000032, 0.0 ], [ 110.645281803, -7.590646427000091, 0.0 ], [ 110.645283794, -7.59064370400004, 0.0 ], [ 110.645285695999974, -7.590640918000069, 0.0 ], [ 110.64528745500003, -7.590638156000031, 0.0 ], [ 110.645290751999951, -7.590632486, 0.0 ], [ 110.645293900000027, -7.590626482000027, 0.0 ], [ 110.645297612999983, -7.590618656, 0.0 ], [ 110.645302846999968, -7.590606743000087, 0.0 ], [ 110.645319834000048, -7.590566712000062, 0.0 ], [ 110.645345616999961, -7.590506451000055, 0.0 ], [ 110.645356604999975, -7.590480537000039, 0.0 ], [ 110.645363104999987, -7.590465593000047, 0.0 ], [ 110.64536655, -7.590457200000063, 0.0 ], [ 110.645370092000022, -7.590447792000079, 0.0 ], [ 110.64537161299998, -7.59044336300007, 0.0 ], [ 110.64537289, -7.590439324, 0.0 ], [ 110.64537491599998, -7.590431899, 0.0 ], [ 110.645376633000041, -7.59042436100001, 0.0 ], [ 110.64537805999997, -7.590416856, 0.0 ], [ 110.645379833999939, -7.590405529000042, 0.0 ], [ 110.645381249000067, -7.590393995999973, 0.0 ], [ 110.645382115000046, -7.590385017000046, 0.0 ], [ 110.645382867000023, -7.590376027000012, 0.0 ], [ 110.645388690999965, -7.590299551999983, 0.0 ], [ 110.645396785000017, -7.590194767000014, 0.0 ], [ 110.645397744, -7.590181745, 0.0 ], [ 110.645398578999988, -7.590168716999989, 0.0 ], [ 110.645399172999944, -7.590156152000024, 0.0 ], [ 110.645399651999981, -7.590143581000046, 0.0 ], [ 110.645400694999978, -7.590114002, 0.0 ], [ 110.645401271000026, -7.590097629000056, 0.0 ], [ 110.645401759999984, -7.590080990000014, 0.0 ], [ 110.645401857, -7.590072676000037, 0.0 ], [ 110.645401821, -7.590068525000049, 0.0 ], [ 110.645401640999978, -7.590062874000028, 0.0 ], [ 110.645401148000019, -7.590055765999977, 0.0 ], [ 110.645400391000052, -7.590049438999975, 0.0 ], [ 110.645399943000015, -7.590046659000014, 0.0 ], [ 110.645399225999952, -7.590043042999987, 0.0 ], [ 110.645398231999962, -7.590039035000014, 0.0 ], [ 110.64539698400003, -7.59003474700001, 0.0 ], [ 110.645395414, -7.590030016000068, 0.0 ], [ 110.645393666000018, -7.590025266000022, 0.0 ], [ 110.645391956000054, -7.590020916000028, 0.0 ], [ 110.64538863099996, -7.590013007, 0.0 ], [ 110.645386610999978, -7.590008507999965, 0.0 ], [ 110.645384303999961, -7.590003367, 0.0 ], [ 110.645375386000026, -7.589983604000045, 0.0 ], [ 110.645370871, -7.589972944000056, 0.0 ], [ 110.645368874000013, -7.589967834999976, 0.0 ], [ 110.645367216999972, -7.589963167000046, 0.0 ], [ 110.645365953999956, -7.589958975000053, 0.0 ], [ 110.645364970999964, -7.589955031, 0.0 ], [ 110.645364171999987, -7.589951046000019, 0.0 ], [ 110.6453633, -7.589945035000055, 0.0 ], [ 110.645363066999977, -7.589942773000036, 0.0 ], [ 110.645362881999958, -7.589940977000075, 0.0 ], [ 110.645362391, -7.589933789, 0.0 ], [ 110.645362150999986, -7.589925746000049, 0.0 ], [ 110.645362146, -7.589916854000028, 0.0 ], [ 110.64536235700001, -7.589903503000086, 0.0 ], [ 110.645363399, -7.589854547000014, 0.0 ], [ 110.645363911999965, -7.589836757000067, 0.0 ], [ 110.645364574000013, -7.58982442600002, 0.0 ], [ 110.64536517599997, -7.589816546999988, 0.0 ], [ 110.645365825000027, -7.589809687000035, 0.0 ], [ 110.645366630000012, -7.589802845000017, 0.0 ], [ 110.645367109999953, -7.589799433999986, 0.0 ], [ 110.645368201999958, -7.589792632000047, 0.0 ], [ 110.645369520999978, -7.58978535400007, 0.0 ], [ 110.645371888, -7.589773738000086, 0.0 ], [ 110.645373753999976, -7.589765553000039, 0.0 ], [ 110.645376729000048, -7.589753313000075, 0.0 ], [ 110.645386008000017, -7.589716222000029, 0.0 ], [ 110.645388033, -7.589707848000051, 0.0 ], [ 110.645389952999977, -7.589699455000064, 0.0 ], [ 110.645391673999953, -7.589691026000087, 0.0 ], [ 110.645397232999969, -7.589651002999973, 0.0 ], [ 110.645398918000012, -7.589637029000047, 0.0 ], [ 110.645400369000043, -7.589623846000022, 0.0 ], [ 110.645401143000015, -7.589614903, 0.0 ], [ 110.645401386000046, -7.589609715000025, 0.0 ], [ 110.645401456999963, -7.589606530000017, 0.0 ], [ 110.645401462999956, -7.589600688000067, 0.0 ], [ 110.645401343000032, -7.589594784000016, 0.0 ], [ 110.645400897, -7.589583825, 0.0 ], [ 110.645400228000028, -7.589572569999966, 0.0 ], [ 110.64539952799997, -7.589557700000064, 0.0 ], [ 110.645399226999956, -7.589551309999975, 0.0 ], [ 110.645398497999977, -7.589539876000014, 0.0 ], [ 110.64539804999994, -7.589534424, 0.0 ], [ 110.645397538999987, -7.589529469000044, 0.0 ], [ 110.645396953999935, -7.589525118000036, 0.0 ], [ 110.645396015000046, -7.589519615000023, 0.0 ], [ 110.64539514199997, -7.589515226000016, 0.0 ], [ 110.645393202999983, -7.589506479000097, 0.0 ], [ 110.645390063, -7.589493392999987, 0.0 ], [ 110.645375166, -7.589433241999984, 0.0 ], [ 110.645358165000019, -7.589364599000076, 0.0 ], [ 110.645356158000027, -7.589356091000077, 0.0 ], [ 110.645354391999973, -7.589348113000042, 0.0 ], [ 110.645353315000065, -7.589342839999961, 0.0 ], [ 110.645352870000025, -7.589340666000044, 0.0 ], [ 110.645351298999984, -7.589332177000058, 0.0 ], [ 110.645350028999971, -7.589324165000016, 0.0 ], [ 110.645349028999973, -7.589316632000018, 0.0 ], [ 110.645348053999982, -7.589308054000015, 0.0 ], [ 110.645347251, -7.58929969100004, 0.0 ], [ 110.64534627, -7.589287475, 0.0 ], [ 110.645345384000024, -7.589275250000052, 0.0 ], [ 110.645344266000023, -7.589258945000035, 0.0 ], [ 110.645343506999964, -7.589246712, 0.0 ], [ 110.645325263999965, -7.589245488999986, 0.0 ], [ 110.645325247999963, -7.589245259000064, 0.0 ], [ 110.645325198000037, -7.589244539, 0.0 ], [ 110.644976652999986, -7.589218613000076, 0.0 ], [ 110.644672519999958, -7.589195990999978, 0.0 ], [ 110.644387986000041, -7.589174826, 0.0 ], [ 110.644251141999987, -7.589164648000041, 0.0 ], [ 110.644269757000018, -7.588740408000034, 0.0 ], [ 110.644265753000042, -7.588740871000072, 0.0 ], [ 110.644252675000033, -7.58874342100001, 0.0 ], [ 110.64424019999997, -7.588747085000047, 0.0 ], [ 110.644229144000036, -7.588751596999974, 0.0 ], [ 110.644218091000013, -7.588757201000089, 0.0 ], [ 110.644207034, -7.5887637, 0.0 ], [ 110.644196086999969, -7.588770838000067, 0.0 ], [ 110.64414795899998, -7.588805490000082, 0.0 ], [ 110.644144075000014, -7.588807977000031, 0.0 ], [ 110.644146122, -7.588762195000063, 0.0 ], [ 110.644171438999976, -7.588195788, 0.0 ], [ 110.644077800999952, -7.588171626000045, 0.0 ], [ 110.644046211, -7.588163112000057, 0.0 ], [ 110.644011219999953, -7.588153680999981, 0.0 ], [ 110.643934549, -7.58813301800005, 0.0 ], [ 110.643908527999983, -7.588126004, 0.0 ], [ 110.643885705999949, -7.588821454000073, 0.0 ], [ 110.64388451399995, -7.588857765999975, 0.0 ], [ 110.643840480000037, -7.588860324000013, 0.0 ], [ 110.643803946999938, -7.588861667000021, 0.0 ], [ 110.643768593000033, -7.588861975999957, 0.0 ], [ 110.643767525999948, -7.588861985000055, 0.0 ], [ 110.64373126200006, -7.588861628000022, 0.0 ], [ 110.643677122999932, -7.58886053900002, 0.0 ], [ 110.643648085, -7.588859801000052, 0.0 ], [ 110.643587052999933, -7.588858250000015, 0.0 ], [ 110.643548214, -7.588857066, 0.0 ], [ 110.643514956, -7.588856053000014, 0.0 ], [ 110.643458491999951, -7.588853835, 0.0 ], [ 110.643370822999984, -7.588850392999989, 0.0 ], [ 110.643363209999976, -7.588850052000038, 0.0 ], [ 110.643272181, -7.588845972000057, 0.0 ], [ 110.643208736, -7.588843129, 0.0 ], [ 110.643171151, -7.588841925, 0.0 ], [ 110.643156325, -7.588841451000051, 0.0 ], [ 110.643139296000015, -7.588841347000027, 0.0 ], [ 110.643122446000035, -7.588841652999966, 0.0 ], [ 110.643105960000014, -7.588842532000051, 0.0 ], [ 110.643089968000012, -7.588844187, 0.0 ], [ 110.643074519999985, -7.588846876000042, 0.0 ], [ 110.643067022999986, -7.588848831000028, 0.0 ], [ 110.643060467999973, -7.58885054, 0.0 ], [ 110.643046360000056, -7.588855253000023, 0.0 ], [ 110.643032198000029, -7.588860810000047, 0.0 ], [ 110.643018022000021, -7.58886703600003, 0.0 ], [ 110.643003877, -7.588873794999963, 0.0 ], [ 110.642989809999989, -7.588880993000031, 0.0 ], [ 110.642983468, -7.588884439000041, 0.0 ], [ 110.642975871, -7.588888569000034, 0.0 ], [ 110.642962110000013, -7.588896499999981, 0.0 ], [ 110.642947175000018, -7.588905648000028, 0.0 ], [ 110.642917324999942, -7.588925131000041, 0.0 ], [ 110.642872823, -7.588955667, 0.0 ], [ 110.642862103999988, -7.588963185999987, 0.0 ], [ 110.642769347999959, -7.589028251000038, 0.0 ], [ 110.64275479, -7.589038723000028, 0.0 ], [ 110.642725622999976, -7.589059705000079, 0.0 ], [ 110.642697159000022, -7.589081188000073, 0.0 ], [ 110.642683587999969, -7.589091946999989, 0.0 ], [ 110.642649220999971, -7.589120508000047, 0.0 ], [ 110.642649824000017, -7.589072919, 0.0 ], [ 110.642651100000037, -7.588972231000021, 0.0 ], [ 110.642657550000038, -7.588463115000097, 0.0 ], [ 110.642650089000043, -7.588413413000064, 0.0 ], [ 110.642609255000039, -7.588536921000069, 0.0 ], [ 110.642577002999943, -7.588632059000028, 0.0 ], [ 110.64256706, -7.588661387000067, 0.0 ], [ 110.642527105999989, -7.588779244000047, 0.0 ], [ 110.642507656999982, -7.588836085000038, 0.0 ], [ 110.642483502000019, -7.588907364000087, 0.0 ], [ 110.642444601, -7.588886753999966, 0.0 ], [ 110.642424115, -7.588876108000078, 0.0 ], [ 110.642211758, -7.588767140000023, 0.0 ], [ 110.642063514, -7.588691072000034, 0.0 ], [ 110.642044570000024, -7.588681395000038, 0.0 ], [ 110.642039470999961, -7.588678790000088, 0.0 ], [ 110.642007432999975, -7.588662814000011, 0.0 ], [ 110.641685275999961, -7.588503507999978, 0.0 ], [ 110.64166682000004, -7.588494380000014, 0.0 ], [ 110.641650836999958, -7.588486376999977, 0.0 ], [ 110.641639473, -7.588480449000013, 0.0 ], [ 110.641629258000037, -7.588474854000083, 0.0 ], [ 110.641618254000022, -7.588468624000015, 0.0 ], [ 110.641610691999929, -7.588464197, 0.0 ], [ 110.641580166999972, -7.588445160000023, 0.0 ], [ 110.641461199, -7.58837005700003, 0.0 ], [ 110.641459605000037, -7.588369039000036, 0.0 ], [ 110.641442588999965, -7.588358180000018, 0.0 ], [ 110.641432466000012, -7.588351403, 0.0 ], [ 110.641427730999979, -7.58834804200007, 0.0 ], [ 110.641423733, -7.588345035, 0.0 ], [ 110.641419444, -7.588341687000081, 0.0 ], [ 110.641410655999977, -7.588334588000032, 0.0 ], [ 110.64139471, -7.588321264999987, 0.0 ], [ 110.641360887000033, -7.588293153999978, 0.0 ], [ 110.641357640000038, -7.588290406, 0.0 ], [ 110.641345138999981, -7.588279826000031, 0.0 ], [ 110.641343951999971, -7.588278821000039, 0.0 ], [ 110.641341224000016, -7.588276493000023, 0.0 ], [ 110.641286580999932, -7.58822984599998, 0.0 ], [ 110.641293796, -7.58821218800002, 0.0 ], [ 110.641294069000011, -7.58821242200004, 0.0 ], [ 110.641403670999935, -7.587898123999979, 0.0 ], [ 110.641299468000014, -7.587836516000022, 0.0 ], [ 110.641105725999978, -7.587722671000029, 0.0 ], [ 110.641057792000012, -7.587694504, 0.0 ], [ 110.641010566, -7.587666754000021, 0.0 ], [ 110.641203517999983, -7.587128518999973, 0.0 ], [ 110.641263918, -7.587137575000018, 0.0 ], [ 110.641290557, -7.58714157, 0.0 ], [ 110.641294601000055, -7.587141810000018, 0.0 ], [ 110.641316170999986, -7.587143094000028, 0.0 ], [ 110.641494425, -7.587153704000016, 0.0 ], [ 110.641546245000015, -7.58716350400003, 0.0 ], [ 110.64162152900002, -7.587177741000057, 0.0 ], [ 110.641653068999972, -7.587182944000034, 0.0 ], [ 110.641728527999987, -7.587195387, 0.0 ], [ 110.641869798000045, -7.587218684999969, 0.0 ], [ 110.641880425000039, -7.587220234000017, 0.0 ], [ 110.641880179000012, -7.587221136000012, 0.0 ], [ 110.64187793100001, -7.587228517000086, 0.0 ], [ 110.641876702, -7.587232169000035, 0.0 ], [ 110.641874464999987, -7.587238211, 0.0 ], [ 110.641873240999971, -7.587241186000061, 0.0 ], [ 110.641883773000046, -7.587245712000084, 0.0 ], [ 110.641883829999969, -7.587245605000073, 0.0 ], [ 110.641990996000033, -7.587294917999976, 0.0 ], [ 110.642038764, -7.587316898000022, 0.0 ], [ 110.642212519999987, -7.58738946300007, 0.0 ], [ 110.642256958000019, -7.587408023000015, 0.0 ], [ 110.642312423999982, -7.587408069000013, 0.0 ], [ 110.642352900999967, -7.587408102000019, 0.0 ], [ 110.642376886, -7.587408122000018, 0.0 ], [ 110.642556706999954, -7.587494429000055, 0.0 ], [ 110.64263684, -7.587531698000032, 0.0 ], [ 110.642659806999959, -7.587542380000022, 0.0 ], [ 110.642736576, -7.587523295999963, 0.0 ], [ 110.642892309, -7.587577005000054, 0.0 ], [ 110.642904317999935, -7.587581147000042, 0.0 ], [ 110.64292605600005, -7.587587827999965, 0.0 ], [ 110.64292581600003, -7.587588420000025, 0.0 ], [ 110.642923791999948, -7.58759339699998, 0.0 ], [ 110.64292314399998, -7.587595080000028, 0.0 ], [ 110.642919553000041, -7.587604412, 0.0 ], [ 110.642915193000036, -7.587616571000045, 0.0 ], [ 110.642910850000035, -7.587629329000023, 0.0 ], [ 110.642896211999968, -7.587673058, 0.0 ], [ 110.642880497, -7.587720002000061, 0.0 ], [ 110.642876339000011, -7.587732427000022, 0.0 ], [ 110.642865481, -7.587764865000049, 0.0 ], [ 110.642846963999986, -7.587820179, 0.0 ], [ 110.642868516, -7.587827252000058, 0.0 ], [ 110.642868481999983, -7.587827353000076, 0.0 ], [ 110.642915928, -7.587841626, 0.0 ], [ 110.64302756, -7.58787520700003, 0.0 ], [ 110.643115546, -7.587901676, 0.0 ], [ 110.643185083999981, -7.587922595000041, 0.0 ], [ 110.643214799000049, -7.587931533000069, 0.0 ], [ 110.643254570999957, -7.587943497000093, 0.0 ], [ 110.643299064, -7.58795688200004, 0.0 ], [ 110.643314796999974, -7.587961616, 0.0 ], [ 110.643373084, -7.587979149000025, 0.0 ], [ 110.643456791, -7.586874832000034, 0.0 ], [ 110.643457521999963, -7.586849893, 0.0 ], [ 110.643408737000016, -7.586870470000026, 0.0 ], [ 110.643398177000023, -7.586874925000042, 0.0 ], [ 110.643345169999989, -7.586896965, 0.0 ], [ 110.643337054000028, -7.586900449000023, 0.0 ], [ 110.643333029999965, -7.586902252, 0.0 ], [ 110.643329942999983, -7.586903701000027, 0.0 ], [ 110.643329047, -7.586904120999975, 0.0 ], [ 110.643325122000022, -7.586906084000054, 0.0 ], [ 110.643322252000047, -7.586907629, 0.0 ], [ 110.643322109999957, -7.586907706, 0.0 ], [ 110.643319158999972, -7.586909416000051, 0.0 ], [ 110.643316331, -7.586911192000032, 0.0 ], [ 110.643313534000043, -7.586913118000011, 0.0 ], [ 110.643310828, -7.586915157000089, 0.0 ], [ 110.643308271000052, -7.586917274, 0.0 ], [ 110.643305773000023, -7.58691955, 0.0 ], [ 110.643303387, -7.586921942000035, 0.0 ], [ 110.64330116, -7.586924398000046, 0.0 ], [ 110.64329901, -7.586927009000012, 0.0 ], [ 110.64329698, -7.586929716999961, 0.0 ], [ 110.643295099000028, -7.586932465, 0.0 ], [ 110.643293296999971, -7.586935347999978, 0.0 ], [ 110.643291596, -7.586938303000053, 0.0 ], [ 110.643290014999963, -7.586941258000027, 0.0 ], [ 110.643288085999984, -7.586945136, 0.0 ], [ 110.643275078999963, -7.586920275000072, 0.0 ], [ 110.643203124000053, -7.586763205000037, 0.0 ], [ 110.643153247000015, -7.586600858000019, 0.0 ], [ 110.643225149000017, -7.58648658099998, 0.0 ], [ 110.643076967000013, -7.586369734000084, 0.0 ], [ 110.642964052, -7.586280696000083, 0.0 ], [ 110.642960276000039, -7.586277719000017, 0.0 ], [ 110.642928502999979, -7.586252665000069, 0.0 ], [ 110.642928637, -7.58625261399998, 0.0 ], [ 110.642921858999969, -7.586247261999988, 0.0 ], [ 110.642889824999983, -7.586221500000063, 0.0 ], [ 110.642900547999972, -7.586217682000014, 0.0 ], [ 110.642931741999988, -7.586200423, 0.0 ], [ 110.642959705999985, -7.58617833000006, 0.0 ], [ 110.643046218999956, -7.586097748000054, 0.0 ], [ 110.643306462999988, -7.585855345000064, 0.0 ], [ 110.643324589999978, -7.585840781000011, 0.0 ], [ 110.643460228, -7.585747237000082, 0.0 ], [ 110.643487828, -7.585731159, 0.0 ], [ 110.643510095999957, -7.585722403, 0.0 ], [ 110.643517560000049, -7.585719467000016, 0.0 ], [ 110.643548730999967, -7.58571243500005, 0.0 ], [ 110.643580612999941, -7.585710224000052, 0.0 ], [ 110.643612459, -7.585712889, 0.0 ], [ 110.643637129, -7.585716866999981, 0.0 ], [ 110.643666271, -7.585724239000047, 0.0 ], [ 110.643693693999964, -7.585736537, 0.0 ], [ 110.643718567999983, -7.585753388000056, 0.0 ], [ 110.643740138999988, -7.585774285000011, 0.0 ], [ 110.643757756000028, -7.585798592999979, 0.0 ], [ 110.643770884999952, -7.585825581, 0.0 ], [ 110.64377913200002, -7.585854429999978, 0.0 ], [ 110.643782244, -7.585884267999963, 0.0 ], [ 110.643784789999955, -7.586029347000078, 0.0 ], [ 110.643785384, -7.586037701000055, 0.0 ], [ 110.643786870999946, -7.586045942000021, 0.0 ], [ 110.643794101000012, -7.586076542000072, 0.0 ], [ 110.643799031999976, -7.586097409000023, 0.0 ], [ 110.643801387, -7.586104807, 0.0 ], [ 110.643804847000013, -7.586111759000049, 0.0 ], [ 110.643809331999947, -7.586118102000036, 0.0 ], [ 110.643814733999946, -7.58612368600005, 0.0 ], [ 110.643820929000015, -7.586128381000012, 0.0 ], [ 110.643827769999959, -7.586132077000047, 0.0 ], [ 110.643835094999943, -7.586134688000082, 0.0 ], [ 110.643855626999951, -7.586140262000017, 0.0 ] ] ] ] } },
{ "type": "Feature", "properties": { "KP2B_2": "K02A", "KP2B": "Kawasan Pertanian Pangan Berkelanjutan" }, "geometry": { "type": "MultiPolygon", "coordinates": [ [ [ [ 110.638911107000027, -7.58556841500004, 0.0 ], [ 110.638635137000023, -7.586123908, 0.0 ], [ 110.638538528000012, -7.58608555700002, 0.0 ], [ 110.638421634000025, -7.586039155, 0.0 ], [ 110.638348479000015, -7.586010115000077, 0.0 ], [ 110.638237596999986, -7.585966097999982, 0.0 ], [ 110.63815957700001, -7.585935128, 0.0 ], [ 110.638070611999936, -7.585899811, 0.0 ], [ 110.637973868000017, -7.585861407000025, 0.0 ], [ 110.637882790999939, -7.585825253000062, 0.0 ], [ 110.637787730999975, -7.585787516000054, 0.0 ], [ 110.637675207, -7.585742849, 0.0 ], [ 110.637588112999978, -7.585708275000059, 0.0 ], [ 110.637491948000019, -7.58567010000001, 0.0 ], [ 110.637424564000042, -7.585643351000014, 0.0 ], [ 110.637359392999983, -7.585617481, 0.0 ], [ 110.637261592999963, -7.585578657, 0.0 ], [ 110.637153735000012, -7.585535841, 0.0 ], [ 110.637063209, -7.585499905000052, 0.0 ], [ 110.637002662999947, -7.585475871000026, 0.0 ], [ 110.636998660999978, -7.585475123000038, 0.0 ], [ 110.637366183020262, -7.5846175056136, 0.0 ], [ 110.63736619664553, -7.58461747306098, 0.0 ], [ 110.637384276568611, -7.584575282476445, 0.0 ], [ 110.637398753000042, -7.584541504000074, 0.0 ], [ 110.637429129999973, -7.584561279000021, 0.0 ], [ 110.637455477000017, -7.584582717000012, 0.0 ], [ 110.637456495000023, -7.584583545, 0.0 ], [ 110.637474145999974, -7.584599534000076, 0.0 ], [ 110.637512435000033, -7.584634214, 0.0 ], [ 110.637581849, -7.584697646000012, 0.0 ], [ 110.637606907000034, -7.584717425000057, 0.0 ], [ 110.637633424, -7.584732738000087, 0.0 ], [ 110.637663092000054, -7.584744567, 0.0 ], [ 110.637740183999952, -7.584769027999976, 0.0 ], [ 110.63777014800003, -7.584775380000066, 0.0 ], [ 110.637896063000056, -7.584802066000051, 0.0 ], [ 110.638003388999977, -7.584813084000073, 0.0 ], [ 110.638042961999957, -7.584817145999966, 0.0 ], [ 110.638241943999986, -7.584828552000021, 0.0 ], [ 110.638244670999953, -7.584828708000021, 0.0 ], [ 110.638350004999964, -7.584834745000086, 0.0 ], [ 110.638371382999949, -7.584837057, 0.0 ], [ 110.638473229999946, -7.584853311000018, 0.0 ], [ 110.63849238100002, -7.584857423, 0.0 ], [ 110.638510984999954, -7.584863541000069, 0.0 ], [ 110.638654507000027, -7.584919370000073, 0.0 ], [ 110.63875673400004, -7.584981937000013, 0.0 ], [ 110.638784821999963, -7.585001389, 0.0 ], [ 110.638811303000026, -7.585024555000071, 0.0 ], [ 110.638834304999975, -7.585049792000032, 0.0 ], [ 110.63889284900003, -7.585121809000037, 0.0 ], [ 110.638918153, -7.58515293800003, 0.0 ], [ 110.639047059, -7.585294450000012, 0.0 ], [ 110.639029864, -7.585329367999972, 0.0 ], [ 110.639008246999978, -7.58537288000003, 0.0 ], [ 110.638911107000027, -7.58556841500004, 0.0 ] ] ] ] } }
]
}
