{
"type": "FeatureCollection",
"name": "lsdwunut",
"crs": { "type": "name", "properties": { "name": "urn:ogc:def:crs:OGC:1.3:CRS84" } },
"features": [
{ "type": "Feature", "properties": { "LSD": "Lahan Sawah yang Dilindungi di Luar Kawasan Hutan", "KESIMPULAN": "Dipertahankan" }, "geometry": { "type": "MultiPolygon", "coordinates": [ [ [ [ 110.649848610354312, -7.5869873507635, 0.0 ], [ 110.649862900354421, -7.586977045800584, 0.0 ], [ 110.649869628303904, -7.586975307232028, 0.0 ], [ 110.649848610354312, -7.5869873507635, 0.0 ] ] ] ] } },
{ "type": "Feature", "properties": { "LSD": "Lahan Sawah yang Dilindungi di Luar Kawasan Hutan", "KESIMPULAN": "Dipertahankan" }, "geometry": { "type": "MultiPolygon", "coordinates": [ [ [ [ 110.6491266008412, -7.594126333729707, 0.0 ], [ 110.649121850364409, -7.594126478240768, 0.0 ], [ 110.649054891984989, -7.594124325593798, 0.0 ], [ 110.649054026855964, -7.592852894202397, 0.0 ], [ 110.649115417568666, -7.592854322318553, 0.0 ], [ 110.649115417536507, -7.593184116298992, 0.0 ], [ 110.649191082511877, -7.593182687584219, 0.0 ], [ 110.649189680642834, -7.592848803875093, 0.0 ], [ 110.649194916926092, -7.592848773728894, 0.0 ], [ 110.64923618893053, -7.59284852210796, 0.0 ], [ 110.64928403892624, -7.592848231468558, 0.0 ], [ 110.649369293545206, -7.592847714110827, 0.0 ], [ 110.649473938555332, -7.592847078502665, 0.0 ], [ 110.649573762485304, -7.592846472450324, 0.0 ], [ 110.649577910899581, -7.592846446849651, 0.0 ], [ 110.649593062542735, -7.593605964344163, 0.0 ], [ 110.649669206731602, -7.593598350579849, 0.0 ], [ 110.649663548995775, -7.592845926125158, 0.0 ], [ 110.649664431077881, -7.592845920504353, 0.0 ], [ 110.649751268551398, -7.592845393493008, 0.0 ], [ 110.64976371560607, -7.59284531849632, 0.0 ], [ 110.649770025257496, -7.592845279258122, 0.0 ], [ 110.649848315694058, -7.59284480323072, 0.0 ], [ 110.64986146704689, -7.593868656712082, 0.0 ], [ 110.649842431620613, -7.593859139008742, 0.0 ], [ 110.649783420583077, -7.593855331210131, 0.0 ], [ 110.649733927845418, -7.593866753854187, 0.0 ], [ 110.649681846358945, -7.593875468877569, 0.0 ], [ 110.649606180234457, -7.59389831032779, 0.0 ], [ 110.649560494590204, -7.593922581625384, 0.0 ], [ 110.649491966523485, -7.593941141215139, 0.0 ], [ 110.649441997855078, -7.593978260075562, 0.0 ], [ 110.649384890232682, -7.594003958573893, 0.0 ], [ 110.649280669581941, -7.594092474843445, 0.0 ], [ 110.649196437570382, -7.594062493171164, 0.0 ], [ 110.649196692140222, -7.594124191348397, 0.0 ], [ 110.6491266008412, -7.594126333729707, 0.0 ] ] ] ] } },
{ "type": "Feature", "properties": { "LSD": "Lahan Sawah yang Dilindungi di Luar Kawasan Hutan", "KESIMPULAN": "Dipertahankan" }, "geometry": { "type": "MultiPolygon", "coordinates": [ [ [ [ 110.6491266008412, -7.594126333729707, 0.0 ], [ 110.649129655721751, -7.594420549439595, 0.0 ], [ 110.649129659708905, -7.59442569274948, 0.0 ], [ 110.649119340571104, -7.594426551885571, 0.0 ], [ 110.649055096698504, -7.594425123264573, 0.0 ], [ 110.649054891984989, -7.594124325593798, 0.0 ], [ 110.649121850364409, -7.594126478240768, 0.0 ], [ 110.6491266008412, -7.594126333729707, 0.0 ] ] ] ] } },
{ "type": "Feature", "properties": { "LSD": "Lahan Sawah yang Dilindungi di Luar Kawasan Hutan", "KESIMPULAN": "Dipertahankan" }, "geometry": { "type": "MultiPolygon", "coordinates": [ [ [ [ 110.650792757379477, -7.593533982168877, 0.0 ], [ 110.650778565986286, -7.593535308602942, 0.0 ], [ 110.650768254039022, -7.593536272713625, 0.0 ], [ 110.650676582638823, -7.593539073709091, 0.0 ], [ 110.650654404102639, -7.593539752387663, 0.0 ], [ 110.650572715549387, -7.593537125002854, 0.0 ], [ 110.650540561747562, -7.593536090565244, 0.0 ], [ 110.650468488827471, -7.593529233951718, 0.0 ], [ 110.650468459819891, -7.593529231214688, 0.0 ], [ 110.650444012161316, -7.593556853887176, 0.0 ], [ 110.65037421006997, -7.59362639158349, 0.0 ], [ 110.650363406100595, -7.593637153443073, 0.0 ], [ 110.650277907910876, -7.593712242418709, 0.0 ], [ 110.650276621611084, -7.593713235490879, 0.0 ], [ 110.650192750817467, -7.593778040047769, 0.0 ], [ 110.650191086245741, -7.593779326795957, 0.0 ], [ 110.650187864589512, -7.593755479192637, 0.0 ], [ 110.650168832455137, -7.593330442692249, 0.0 ], [ 110.650151665019976, -7.592947014565074, 0.0 ], [ 110.65030963803251, -7.592942035490924, 0.0 ], [ 110.650349612923463, -7.592938228718807, 0.0 ], [ 110.650349612922, -7.592841757779439, 0.0 ], [ 110.650350511321406, -7.592841753074923, 0.0 ], [ 110.650429225124398, -7.592841274569805, 0.0 ], [ 110.650441805104819, -7.59345761504079, 0.0 ], [ 110.650554702928673, -7.593475715562218, 0.0 ], [ 110.650536876809539, -7.593083534419813, 0.0 ], [ 110.650614122898418, -7.59307750072649, 0.0 ], [ 110.650617701431614, -7.592841303118664, 0.0 ], [ 110.650655238205815, -7.592841336008844, 0.0 ], [ 110.65076148179952, -7.592841430447987, 0.0 ], [ 110.650770966246085, -7.592841341282348, 0.0 ], [ 110.650792757379477, -7.593533982168877, 0.0 ] ] ] ] } },
{ "type": "Feature", "properties": { "LSD": "Lahan Sawah yang Dilindungi di Luar Kawasan Hutan", "KESIMPULAN": "Dipertahankan" }, "geometry": { "type": "MultiPolygon", "coordinates": [ [ [ [ 110.650792757379477, -7.593533982168877, 0.0 ], [ 110.65080361492025, -7.593879127103087, 0.0 ], [ 110.650757928330094, -7.593877698272778, 0.0 ], [ 110.650696537522691, -7.59385485591403, 0.0 ], [ 110.650665129695668, -7.593850573822285, 0.0 ], [ 110.650580896738163, -7.593867704424836, 0.0 ], [ 110.650468110283882, -7.593893404423746, 0.0 ], [ 110.650386733047782, -7.593904825011693, 0.0 ], [ 110.650339620443873, -7.59390339679909, 0.0 ], [ 110.650265379207767, -7.593911961994731, 0.0 ], [ 110.650211129026644, -7.593927667556697, 0.0 ], [ 110.650191086245741, -7.593779326795957, 0.0 ], [ 110.650192750817467, -7.593778040047769, 0.0 ], [ 110.650276621611084, -7.593713235490879, 0.0 ], [ 110.650277907910876, -7.593712242418709, 0.0 ], [ 110.650363406100595, -7.593637153443073, 0.0 ], [ 110.65037421006997, -7.59362639158349, 0.0 ], [ 110.650444012161316, -7.593556853887176, 0.0 ], [ 110.650468459819891, -7.593529231214688, 0.0 ], [ 110.650468488827471, -7.593529233951718, 0.0 ], [ 110.650540561747562, -7.593536090565244, 0.0 ], [ 110.650572715549387, -7.593537125002854, 0.0 ], [ 110.650654404102639, -7.593539752387663, 0.0 ], [ 110.650676582638823, -7.593539073709091, 0.0 ], [ 110.650768254039022, -7.593536272713625, 0.0 ], [ 110.650778565986286, -7.593535308602942, 0.0 ], [ 110.650792757379477, -7.593533982168877, 0.0 ] ] ] ] } },
{ "type": "Feature", "properties": { "LSD": "Lahan Sawah yang Dilindungi di Luar Kawasan Hutan", "KESIMPULAN": "Dipertahankan" }, "geometry": { "type": "MultiPolygon", "coordinates": [ [ [ [ 110.650972744249927, -7.593511348234592, 0.0 ], [ 110.650954618988209, -7.593514198405935, 0.0 ], [ 110.650910731575834, -7.593521096575849, 0.0 ], [ 110.650881659166018, -7.593525668365968, 0.0 ], [ 110.650864107821619, -7.593527310507225, 0.0 ], [ 110.650844850096988, -7.592840654390702, 0.0 ], [ 110.650889239877657, -7.592840242297465, 0.0 ], [ 110.650942406081271, -7.592839746793482, 0.0 ], [ 110.650953090813559, -7.592839648637812, 0.0 ], [ 110.650972744249927, -7.593511348234592, 0.0 ] ] ] ] } },
{ "type": "Feature", "properties": { "LSD": "Lahan Sawah yang Dilindungi di Luar Kawasan Hutan", "KESIMPULAN": "Dipertahankan" }, "geometry": { "type": "MultiPolygon", "coordinates": [ [ [ [ 110.650983032823561, -7.593862979288059, 0.0 ], [ 110.650973092170247, -7.593861051834656, 0.0 ], [ 110.650960872955253, -7.593859601061039, 0.0 ], [ 110.65095285246278, -7.593859829802962, 0.0 ], [ 110.650948572508781, -7.593859953002757, 0.0 ], [ 110.650929770779982, -7.593861879076893, 0.0 ], [ 110.650916638940416, -7.593858960378389, 0.0 ], [ 110.65087380892885, -7.593873236954399, 0.0 ], [ 110.650864107821619, -7.593527310507225, 0.0 ], [ 110.650881659166018, -7.593525668365968, 0.0 ], [ 110.650910731575834, -7.593521096575849, 0.0 ], [ 110.650954618988209, -7.593514198405935, 0.0 ], [ 110.650972744249927, -7.593511348234592, 0.0 ], [ 110.650983032823561, -7.593862979288059, 0.0 ] ] ] ] } },
{ "type": "Feature", "properties": { "LSD": "Lahan Sawah yang Dilindungi di Luar Kawasan Hutan", "KESIMPULAN": "Dipertahankan" }, "geometry": { "type": "MultiPolygon", "coordinates": [ [ [ [ 110.651662176415442, -7.593234512867577, 0.0 ], [ 110.651626144763114, -7.59325890339038, 0.0 ], [ 110.651574457455141, -7.593289347313322, 0.0 ], [ 110.65152805786785, -7.593316677463871, 0.0 ], [ 110.65150707521957, -7.593327323548876, 0.0 ], [ 110.651490055326789, -7.592834657678682, 0.0 ], [ 110.651565202021089, -7.592833959013409, 0.0 ], [ 110.651648002814014, -7.592833189583351, 0.0 ], [ 110.651662176415442, -7.593234512867577, 0.0 ] ] ] ] } },
{ "type": "Feature", "properties": { "LSD": "Lahan Sawah yang Dilindungi di Luar Kawasan Hutan", "KESIMPULAN": "Dipertahankan" }, "geometry": { "type": "MultiPolygon", "coordinates": [ [ [ [ 110.65150707521957, -7.593327323548876, 0.0 ], [ 110.65152805786785, -7.593316677463871, 0.0 ], [ 110.651574457455141, -7.593289347313322, 0.0 ], [ 110.651626144763114, -7.59325890339038, 0.0 ], [ 110.651662176415442, -7.593234512867577, 0.0 ], [ 110.651671998941282, -7.593512630254405, 0.0 ], [ 110.651514002953519, -7.593527857517004, 0.0 ], [ 110.65150707521957, -7.593327323548876, 0.0 ] ] ] ] } },
{ "type": "Feature", "properties": { "LSD": "Lahan Sawah yang Dilindungi di Luar Kawasan Hutan", "KESIMPULAN": "Dipertahankan" }, "geometry": { "type": "MultiPolygon", "coordinates": [ [ [ [ 110.647477894981151, -7.593076504741616, 0.0 ], [ 110.647436992103835, -7.592981980722608, 0.0 ], [ 110.647418689412262, -7.59293112801054, 0.0 ], [ 110.647492899788347, -7.592922442964888, 0.0 ], [ 110.647495735959225, -7.593057614895746, 0.0 ], [ 110.647482098661939, -7.593072071303908, 0.0 ], [ 110.647477894981151, -7.593076504741616, 0.0 ] ] ] ] } },
{ "type": "Feature", "properties": { "LSD": "Lahan Sawah yang Dilindungi di Luar Kawasan Hutan", "KESIMPULAN": "Dipertahankan" }, "geometry": { "type": "MultiPolygon", "coordinates": [ [ [ [ 110.646372962447344, -7.593452508353306, 0.0 ], [ 110.646372276075994, -7.593454859640327, 0.0 ], [ 110.646381497438696, -7.592587636729466, 0.0 ], [ 110.646398455880856, -7.592663627807332, 0.0 ], [ 110.646416182451929, -7.592775893110791, 0.0 ], [ 110.646426807263012, -7.592889049050389, 0.0 ], [ 110.646430293505759, -7.593002647841192, 0.0 ], [ 110.646426623411571, -7.59311623899977, 0.0 ], [ 110.646415811843426, -7.593229377496233, 0.0 ], [ 110.646397901769802, -7.593341615609483, 0.0 ], [ 110.646372962447344, -7.593452508353306, 0.0 ] ] ], [ [ [ 110.647492899788347, -7.592922442964888, 0.0 ], [ 110.647418689412262, -7.59293112801054, 0.0 ], [ 110.647398494497196, -7.592875018291461, 0.0 ], [ 110.647366806018837, -7.592765853360966, 0.0 ], [ 110.647342049602017, -7.592654919314513, 0.0 ], [ 110.647324322793196, -7.592542653132815, 0.0 ], [ 110.6473141947464, -7.592434807350733, 0.0 ], [ 110.647313695937569, -7.592429497201496, 0.0 ], [ 110.647310211272597, -7.592315899310341, 0.0 ], [ 110.647313882025188, -7.592202308129881, 0.0 ], [ 110.647314811917724, -7.592192581287788, 0.0 ], [ 110.647319510773627, -7.592143407097266, 0.0 ], [ 110.647477659486498, -7.592196122679282, 0.0 ], [ 110.647492899788347, -7.592922442964888, 0.0 ] ] ] ] } },
{ "type": "Feature", "properties": { "LSD": "Lahan Sawah yang Dilindungi di Luar Kawasan Hutan", "KESIMPULAN": "Dipertahankan" }, "geometry": { "type": "MultiPolygon", "coordinates": [ [ [ [ 110.647477894981151, -7.593076504741616, 0.0 ], [ 110.647476376104109, -7.593078105478357, 0.0 ], [ 110.647459500341711, -7.59309175601282, 0.0 ], [ 110.64740915063517, -7.593132485316363, 0.0 ], [ 110.647393391293761, -7.593165598278422, 0.0 ], [ 110.647306969462548, -7.593256717350263, 0.0 ], [ 110.647202255818897, -7.593360320708523, 0.0 ], [ 110.647202565129334, -7.593292292010592, 0.0 ], [ 110.647213406314023, -7.593234860596217, 0.0 ], [ 110.647202637409109, -7.593202542919281, 0.0 ], [ 110.647195468433182, -7.59317022816481, 0.0 ], [ 110.64720988925869, -7.593134338945883, 0.0 ], [ 110.647231499547331, -7.593105636833422, 0.0 ], [ 110.647310671078813, -7.593084160901779, 0.0 ], [ 110.647321584494577, -7.592936981294288, 0.0 ], [ 110.647368358143808, -7.592937019251221, 0.0 ], [ 110.647418689412262, -7.59293112801054, 0.0 ], [ 110.647436992103835, -7.592981980722608, 0.0 ], [ 110.647477894981151, -7.593076504741616, 0.0 ] ] ] ] } },
{ "type": "Feature", "properties": { "LSD": "Lahan Sawah yang Dilindungi di Luar Kawasan Hutan", "KESIMPULAN": "Dipertahankan" }, "geometry": { "type": "MultiPolygon", "coordinates": [ [ [ [ 110.647319510773627, -7.592143407097266, 0.0 ], [ 110.647314811917724, -7.592192581287788, 0.0 ], [ 110.647313882025188, -7.592202308129881, 0.0 ], [ 110.647310211272597, -7.592315899310341, 0.0 ], [ 110.647313695937569, -7.592429497201496, 0.0 ], [ 110.6473141947464, -7.592434807350733, 0.0 ], [ 110.647324322793196, -7.592542653132815, 0.0 ], [ 110.647342049602017, -7.592654919314513, 0.0 ], [ 110.647366806018837, -7.592765853360966, 0.0 ], [ 110.647398494497196, -7.592875018291461, 0.0 ], [ 110.647418689412262, -7.59293112801054, 0.0 ], [ 110.647368358143808, -7.592937019251221, 0.0 ], [ 110.647321584494577, -7.592936981294288, 0.0 ], [ 110.647310671078813, -7.593084160901779, 0.0 ], [ 110.647231499547331, -7.593105636833422, 0.0 ], [ 110.64720988925869, -7.593134338945883, 0.0 ], [ 110.647195468433182, -7.59317022816481, 0.0 ], [ 110.647202637409109, -7.593202542919281, 0.0 ], [ 110.647213406314023, -7.593234860596217, 0.0 ], [ 110.647202565129334, -7.593292292010592, 0.0 ], [ 110.647202255818897, -7.593360320708523, 0.0 ], [ 110.647157603665548, -7.593404498250549, 0.0 ], [ 110.647114771919647, -7.593433051059775, 0.0 ], [ 110.64708431437704, -7.593439714612154, 0.0 ], [ 110.647055762154594, -7.593444472905727, 0.0 ], [ 110.646985329532356, -7.593467316338771, 0.0 ], [ 110.646894909555996, -7.59349967663498, 0.0 ], [ 110.646731202434154, -7.593556782977054, 0.0 ], [ 110.646595336703385, -7.59360921182656, 0.0 ], [ 110.646528948510337, -7.593622773205071, 0.0 ], [ 110.646467559070089, -7.593626341487361, 0.0 ], [ 110.646414735224909, -7.593624915440883, 0.0 ], [ 110.646370573156076, -7.593615064166274, 0.0 ], [ 110.646372276075994, -7.593454859640327, 0.0 ], [ 110.646372962447344, -7.593452508353306, 0.0 ], [ 110.646397901769802, -7.593341615609483, 0.0 ], [ 110.646415811843426, -7.593229377496233, 0.0 ], [ 110.646426623411571, -7.59311623899977, 0.0 ], [ 110.646430293505759, -7.593002647841192, 0.0 ], [ 110.646426807263012, -7.592889049050389, 0.0 ], [ 110.646416182451929, -7.592775893110791, 0.0 ], [ 110.646398455880856, -7.592663627807332, 0.0 ], [ 110.646381497438696, -7.592587636729466, 0.0 ], [ 110.646389603220427, -7.591825190317643, 0.0 ], [ 110.647084406725043, -7.592065039989291, 0.0 ], [ 110.647319510773627, -7.592143407097266, 0.0 ] ] ] ] } },
{ "type": "Feature", "properties": { "LSD": "Lahan Sawah yang Dilindungi di Luar Kawasan Hutan", "KESIMPULAN": "Dipertahankan" }, "geometry": { "type": "MultiPolygon", "coordinates": [ [ [ [ 110.645783937679298, -7.591616884437332, 0.0 ], [ 110.645834534817809, -7.591661466911821, 0.0 ], [ 110.645859422565806, -7.591683396442138, 0.0 ], [ 110.645939897535342, -7.591763825475912, 0.0 ], [ 110.645966643206663, -7.591794146271111, 0.0 ], [ 110.646015153145271, -7.591849138465746, 0.0 ], [ 110.646046945961672, -7.591890103659588, 0.0 ], [ 110.646056777813513, -7.593403553254332, 0.0 ], [ 110.646031792699787, -7.593363103773933, 0.0 ], [ 110.646013947114923, -7.5933155150206, 0.0 ], [ 110.645978454457023, -7.593204869766645, 0.0 ], [ 110.6459546589995, -7.593176315257891, 0.0 ], [ 110.645952278315121, -7.593145383836069, 0.0 ], [ 110.645953469088425, -7.593104932158687, 0.0 ], [ 110.64595108951282, -7.593070430455261, 0.0 ], [ 110.645933243715589, -7.593043064856625, 0.0 ], [ 110.645903500867306, -7.593021650587257, 0.0 ], [ 110.645884464331601, -7.592985958483394, 0.0 ], [ 110.645877325484648, -7.592949078442039, 0.0 ], [ 110.645853531794103, -7.592921712516319, 0.0 ], [ 110.645824977383555, -7.592901487797087, 0.0 ], [ 110.645819028579709, -7.59286936578462, 0.0 ], [ 110.64579880252451, -7.592836051690124, 0.0 ], [ 110.645729798651402, -7.592814637972239, 0.0 ], [ 110.645684590194477, -7.592774187364575, 0.0 ], [ 110.645647708062825, -7.592756340254144, 0.0 ], [ 110.64559536005568, -7.592739683587816, 0.0 ], [ 110.645557952353329, -7.592695004198262, 0.0 ], [ 110.64557890253748, -7.591550922604671, 0.0 ], [ 110.645783937679298, -7.591616884437332, 0.0 ] ] ] ] } },
{ "type": "Feature", "properties": { "LSD": "Lahan Sawah yang Dilindungi di Luar Kawasan Hutan", "KESIMPULAN": "Dipertahankan" }, "geometry": { "type": "MultiPolygon", "coordinates": [ [ [ [ 110.646046945961672, -7.591890103659588, 0.0 ], [ 110.646015153145271, -7.591849138465746, 0.0 ], [ 110.645966643206663, -7.591794146271111, 0.0 ], [ 110.645939897535342, -7.591763825475912, 0.0 ], [ 110.645859422565806, -7.591683396442138, 0.0 ], [ 110.645834534817809, -7.591661466911821, 0.0 ], [ 110.645783937679298, -7.591616884437332, 0.0 ], [ 110.64593439651992, -7.591665288611298, 0.0 ], [ 110.646045724406065, -7.59170221914021, 0.0 ], [ 110.646046945961672, -7.591890103659588, 0.0 ] ] ] ] } },
{ "type": "Feature", "properties": { "LSD": "Lahan Sawah yang Dilindungi di Luar Kawasan Hutan", "KESIMPULAN": "Dipertahankan" }, "geometry": { "type": "MultiPolygon", "coordinates": [ [ [ [ 110.653721533032467, -7.589450091170042, 0.0 ], [ 110.65370620389497, -7.589452758257931, 0.0 ], [ 110.653706418839363, -7.58944810991152, 0.0 ], [ 110.653721533032467, -7.589450091170042, 0.0 ] ] ] ] } },
{ "type": "Feature", "properties": { "LSD": "Lahan Sawah yang Dilindungi di Luar Kawasan Hutan", "KESIMPULAN": "Dipertahankan" }, "geometry": { "type": "MultiPolygon", "coordinates": [ [ [ [ 110.653815694034563, -7.589431203930975, 0.0 ], [ 110.65378604329662, -7.589437220951161, 0.0 ], [ 110.653791528407794, -7.589433199136486, 0.0 ], [ 110.653815694034563, -7.589431203930975, 0.0 ] ] ] ] } },
{ "type": "Feature", "properties": { "LSD": "Lahan Sawah yang Dilindungi di Luar Kawasan Hutan", "KESIMPULAN": "Dipertahankan" }, "geometry": { "type": "MultiPolygon", "coordinates": [ [ [ [ 110.653856048955134, -7.589427870205753, 0.0 ], [ 110.653866973844785, -7.58943343559639, 0.0 ], [ 110.653834680211219, -7.589429636978424, 0.0 ], [ 110.653856048955134, -7.589427870205753, 0.0 ] ] ] ] } },
{ "type": "Feature", "properties": { "LSD": "Lahan Sawah yang Dilindungi di Luar Kawasan Hutan", "KESIMPULAN": "Dipertahankan" }, "geometry": { "type": "MultiPolygon", "coordinates": [ [ [ [ 110.645434002197163, -7.591387022804699, 0.0 ], [ 110.645269639564361, -7.591318930310802, 0.0 ], [ 110.645269830505299, -7.591313817011686, 0.0 ], [ 110.645286014007482, -7.591319645609239, 0.0 ], [ 110.645390510433728, -7.591364866407972, 0.0 ], [ 110.645434002197163, -7.591387022804699, 0.0 ] ] ] ] } },
{ "type": "Feature", "properties": { "LSD": "Lahan Sawah yang Dilindungi di Luar Kawasan Hutan", "KESIMPULAN": "Dipertahankan" }, "geometry": { "type": "MultiPolygon", "coordinates": [ [ [ [ 110.647475005367539, -7.591597121625335, 0.0 ], [ 110.647492725613489, -7.592102497055343, 0.0 ], [ 110.647331365181714, -7.592047353758939, 0.0 ], [ 110.647342601276449, -7.591976931420929, 0.0 ], [ 110.647367539343875, -7.591866038597892, 0.0 ], [ 110.647380279315257, -7.591822415858752, 0.0 ], [ 110.647399406537687, -7.591756925228241, 0.0 ], [ 110.647438077396046, -7.591650024490919, 0.0 ], [ 110.647473964334196, -7.591567458574835, 0.0 ], [ 110.647475005367539, -7.591597121625335, 0.0 ] ] ], [ [ [ 110.648018224214596, -7.591129687393431, 0.0 ], [ 110.648048441219657, -7.592292408533811, 0.0 ], [ 110.647576632728729, -7.592131171690954, 0.0 ], [ 110.647563903642876, -7.591597121353901, 0.0 ], [ 110.647559313781684, -7.5914045430469, 0.0 ], [ 110.647562524269077, -7.591398499596528, 0.0 ], [ 110.647593250447315, -7.591346757662898, 0.0 ], [ 110.647633930620728, -7.591287134256918, 0.0 ], [ 110.647657350303405, -7.591252811765391, 0.0 ], [ 110.647727233225424, -7.591163066779919, 0.0 ], [ 110.647733687457048, -7.5911557749556, 0.0 ], [ 110.64780262605268, -7.591077876163839, 0.0 ], [ 110.647827511097745, -7.591053086158033, 0.0 ], [ 110.647883233879867, -7.590997578883988, 0.0 ], [ 110.647940180555281, -7.590947564154227, 0.0 ], [ 110.647947984277309, -7.590940710319984, 0.0 ], [ 110.647968733720745, -7.590922487652379, 0.0 ], [ 110.648009316474329, -7.590891130605556, 0.0 ], [ 110.648018224214596, -7.591129687393431, 0.0 ] ] ] ] } },
{ "type": "Feature", "properties": { "LSD": "Lahan Sawah yang Dilindungi di Luar Kawasan Hutan", "KESIMPULAN": "Dipertahankan" }, "geometry": { "type": "MultiPolygon", "coordinates": [ [ [ [ 110.647009097627659, -7.591597121599317, 0.0 ], [ 110.647000441872123, -7.591597121806035, 0.0 ], [ 110.646981895379454, -7.591158477521, 0.0 ], [ 110.646990830337785, -7.591158484777451, 0.0 ], [ 110.647009097627659, -7.591597121599317, 0.0 ] ] ], [ [ [ 110.646905706316119, -7.591597121742993, 0.0 ], [ 110.646918595206301, -7.591906556438262, 0.0 ], [ 110.646911275019377, -7.59190406115304, 0.0 ], [ 110.646868501368132, -7.591158384508434, 0.0 ], [ 110.646887430133646, -7.59115840169511, 0.0 ], [ 110.646905706316119, -7.591597121742993, 0.0 ] ] ], [ [ [ 110.645466115294184, -7.59138993001019, 0.0 ], [ 110.645464335780815, -7.591397619093797, 0.0 ], [ 110.645436201649588, -7.591387934582202, 0.0 ], [ 110.645434002197163, -7.591387022804699, 0.0 ], [ 110.645390510433728, -7.591364866407972, 0.0 ], [ 110.645286014007482, -7.591319645609239, 0.0 ], [ 110.645269830505299, -7.591313817011686, 0.0 ], [ 110.645269928743232, -7.591311202020516, 0.0 ], [ 110.645274399050223, -7.591191630604278, 0.0 ], [ 110.645274106084912, -7.591144256054539, 0.0 ], [ 110.645273933210504, -7.591116268951198, 0.0 ], [ 110.645271773152103, -7.590766466339493, 0.0 ], [ 110.645271444171854, -7.590713258277782, 0.0 ], [ 110.645281913978124, -7.590693270706376, 0.0 ], [ 110.645315226007938, -7.59066566822488, 0.0 ], [ 110.645329904865818, -7.590642428589303, 0.0 ], [ 110.645330983766499, -7.590642298308977, 0.0 ], [ 110.645485419781338, -7.590631396842771, 0.0 ], [ 110.64547389559344, -7.591084172909039, 0.0 ], [ 110.645466115294184, -7.59138993001019, 0.0 ] ] ] ] } },
{ "type": "Feature", "properties": { "LSD": "Lahan Sawah yang Dilindungi di Luar Kawasan Hutan", "KESIMPULAN": "Dipertahankan" }, "geometry": { "type": "MultiPolygon", "coordinates": [ [ [ [ 110.647936962969837, -7.590602393736245, 0.0 ], [ 110.647937348948034, -7.590643887853642, 0.0 ], [ 110.647937481556625, -7.59065806507129, 0.0 ], [ 110.647937481536772, -7.590658089494285, 0.0 ], [ 110.647937983503056, -7.590711903761743, 0.0 ], [ 110.647939007408624, -7.590821724956806, 0.0 ], [ 110.647940180555281, -7.590947564154227, 0.0 ], [ 110.647883233879867, -7.590997578883988, 0.0 ], [ 110.647827511097745, -7.591053086158033, 0.0 ], [ 110.64780262605268, -7.591077876163839, 0.0 ], [ 110.647733687457048, -7.5911557749556, 0.0 ], [ 110.647727233225424, -7.591163066779919, 0.0 ], [ 110.647657350303405, -7.591252811765391, 0.0 ], [ 110.647633930620728, -7.591287134256918, 0.0 ], [ 110.647593250447315, -7.591346757662898, 0.0 ], [ 110.647562524269077, -7.591398499596528, 0.0 ], [ 110.647555481787307, -7.590496202683709, 0.0 ], [ 110.647465132737622, -7.590502407947331, 0.0 ], [ 110.647465440658124, -7.590525042907358, 0.0 ], [ 110.647437481973412, -7.590527013874601, 0.0 ], [ 110.647473964334196, -7.591567458574835, 0.0 ], [ 110.647438077396046, -7.591650024490919, 0.0 ], [ 110.647399406537687, -7.591756925228241, 0.0 ], [ 110.647380279315257, -7.591822415858752, 0.0 ], [ 110.647367539343875, -7.591866038597892, 0.0 ], [ 110.647342601276449, -7.591976931420929, 0.0 ], [ 110.647331365181714, -7.592047353758939, 0.0 ], [ 110.647219002091191, -7.592008954616082, 0.0 ], [ 110.647119188485505, -7.591974931022265, 0.0 ], [ 110.647111032901378, -7.591651736444142, 0.0 ], [ 110.647011382721317, -7.591651973929848, 0.0 ], [ 110.647009097627659, -7.591597121599317, 0.0 ], [ 110.646990830337785, -7.591158484777451, 0.0 ], [ 110.646981895379454, -7.591158477521, 0.0 ], [ 110.646980378969957, -7.591122608829012, 0.0 ], [ 110.646964109928405, -7.590559273317171, 0.0 ], [ 110.646874880075075, -7.590559273206209, 0.0 ], [ 110.646886207587443, -7.591129036095992, 0.0 ], [ 110.646887430133646, -7.59115840169511, 0.0 ], [ 110.646868501368132, -7.591158384508434, 0.0 ], [ 110.646911275019377, -7.59190406115304, 0.0 ], [ 110.64682947508409, -7.5918761795915, 0.0 ], [ 110.646405790669064, -7.591727494245256, 0.0 ], [ 110.646380214325433, -7.590578977563394, 0.0 ], [ 110.646234473763229, -7.590587901829863, 0.0 ], [ 110.646281505420461, -7.591683880352136, 0.0 ], [ 110.645986452263031, -7.591579183810499, 0.0 ], [ 110.645980504133604, -7.591260337433622, 0.0 ], [ 110.645849633679248, -7.591257956770431, 0.0 ], [ 110.645812750523973, -7.591260335550368, 0.0 ], [ 110.645811561653204, -7.591539922899595, 0.0 ], [ 110.645581347602743, -7.591437903039675, 0.0 ], [ 110.645464335780815, -7.591397619093797, 0.0 ], [ 110.645466115294184, -7.59138993001019, 0.0 ], [ 110.64547389559344, -7.591084172909039, 0.0 ], [ 110.645485419781338, -7.590631396842771, 0.0 ], [ 110.645330983766499, -7.590642298308977, 0.0 ], [ 110.645329904865818, -7.590642428589303, 0.0 ], [ 110.645349490897672, -7.590611416488639, 0.0 ], [ 110.645378043777058, -7.590544792094994, 0.0 ], [ 110.645401838151059, -7.59048483039526, 0.0 ], [ 110.645415037004156, -7.59040798827218, 0.0 ], [ 110.645417891770251, -7.590347075988428, 0.0 ], [ 110.645421700486693, -7.590240474452496, 0.0 ], [ 110.645430265781769, -7.590160526825643, 0.0 ], [ 110.645436849436877, -7.59006499027217, 0.0 ], [ 110.645428520027835, -7.590034057612001, 0.0 ], [ 110.645410673520416, -7.589990037308748, 0.0 ], [ 110.645398776077243, -7.589956725469074, 0.0 ], [ 110.645391638286796, -7.58991865321477, 0.0 ], [ 110.64539520776222, -7.589848458053985, 0.0 ], [ 110.645403535116429, -7.589756849599889, 0.0 ], [ 110.645422571806932, -7.589675947159573, 0.0 ], [ 110.64543208901442, -7.589623601025712, 0.0 ], [ 110.645432088653337, -7.58956649368727, 0.0 ], [ 110.645420271806387, -7.589497884326803, 0.0 ], [ 110.645385054969466, -7.589339889359015, 0.0 ], [ 110.645370778664329, -7.589251373234706, 0.0 ], [ 110.645376488231292, -7.589157147571506, 0.0 ], [ 110.645392669603098, -7.589051497764182, 0.0 ], [ 110.645407898817709, -7.589045787058311, 0.0 ], [ 110.645421222326888, -7.58904578706945, 0.0 ], [ 110.645496414749914, -7.589051497336764, 0.0 ], [ 110.646007789942402, -7.589075119468503, 0.0 ], [ 110.64648209601107, -7.589089393933688, 0.0 ], [ 110.646499941016032, -7.589104266682769, 0.0 ], [ 110.646587377385686, -7.590555439428957, 0.0 ], [ 110.646780113035476, -7.590545922756212, 0.0 ], [ 110.64670476247187, -7.589107617201699, 0.0 ], [ 110.647107162097598, -7.589124329127363, 0.0 ], [ 110.647112252499142, -7.589418836870038, 0.0 ], [ 110.647204644561654, -7.589415002360079, 0.0 ], [ 110.647188772091667, -7.589127717793706, 0.0 ], [ 110.647565944343626, -7.589143381248586, 0.0 ], [ 110.647571102869918, -7.589233233196755, 0.0 ], [ 110.647606197131765, -7.589844533636054, 0.0 ], [ 110.647608351363473, -7.589882056375913, 0.0 ], [ 110.647608986901005, -7.589893133182474, 0.0 ], [ 110.647616016320256, -7.590015563333353, 0.0 ], [ 110.647628308852092, -7.590229683571218, 0.0 ], [ 110.647643264248245, -7.590490176232061, 0.0 ], [ 110.647657963862201, -7.590489166902751, 0.0 ], [ 110.647666444199231, -7.590488584910106, 0.0 ], [ 110.647689253351714, -7.5904870177094, 0.0 ], [ 110.647765239130806, -7.590481800295533, 0.0 ], [ 110.647768699623455, -7.590481562487509, 0.0 ], [ 110.647767745506272, -7.590502137655444, 0.0 ], [ 110.647762595671452, -7.590613190375828, 0.0 ], [ 110.647816699469828, -7.59060984031769, 0.0 ], [ 110.647936962969837, -7.590602393736245, 0.0 ] ], [ [ 110.645771762259884, -7.589685752266452, 0.0 ], [ 110.645768112558116, -7.589685680546462, 0.0 ], [ 110.645801156747552, -7.59061666392117, 0.0 ], [ 110.645909202669245, -7.590609244129474, 0.0 ], [ 110.645867975900913, -7.589721288343633, 0.0 ], [ 110.645771762259884, -7.589685752266452, 0.0 ] ] ] ] } },
{ "type": "Feature", "properties": { "LSD": "Lahan Sawah yang Dilindungi di Luar Kawasan Hutan", "KESIMPULAN": "Dipertahankan" }, "geometry": { "type": "MultiPolygon", "coordinates": [ [ [ [ 110.643768592279002, -7.588861976387173, 0.0 ], [ 110.64376752617386, -7.588861985463856, 0.0 ], [ 110.643745795544604, -7.58886177137065, 0.0 ], [ 110.643884696158821, -7.588852229022653, 0.0 ], [ 110.643884513921194, -7.588857765660356, 0.0 ], [ 110.643840479987546, -7.588860324763769, 0.0 ], [ 110.643803946906928, -7.588861667047982, 0.0 ], [ 110.643768592279002, -7.588861976387173, 0.0 ] ] ], [ [ [ 110.642754790652873, -7.589038723378495, 0.0 ], [ 110.642747123069469, -7.589044237582604, 0.0 ], [ 110.642760092445059, -7.589033951679899, 0.0 ], [ 110.642834332273125, -7.588966851209776, 0.0 ], [ 110.642915709955844, -7.588915455154721, 0.0 ], [ 110.643028576094665, -7.588857930338638, 0.0 ], [ 110.643084493623959, -7.58884365350589, 0.0 ], [ 110.643098690430634, -7.588843285245973, 0.0 ], [ 110.643089967812443, -7.588844187164639, 0.0 ], [ 110.643074519872314, -7.588846876392141, 0.0 ], [ 110.643073426343463, -7.588847161334125, 0.0 ], [ 110.643067022941935, -7.588848831314999, 0.0 ], [ 110.643060468114498, -7.588850540971926, 0.0 ], [ 110.643059477895207, -7.588850870321911, 0.0 ], [ 110.643046359286942, -7.588855252980095, 0.0 ], [ 110.643032198089358, -7.588860809799958, 0.0 ], [ 110.64301802183472, -7.588867035978347, 0.0 ], [ 110.643003875962833, -7.588873794964554, 0.0 ], [ 110.642989810410484, -7.588880993630408, 0.0 ], [ 110.642983468095338, -7.588884439303343, 0.0 ], [ 110.642975870556327, -7.588888569598792, 0.0 ], [ 110.642962109905184, -7.58889650029976, 0.0 ], [ 110.642947175179273, -7.588905648472866, 0.0 ], [ 110.642917324690629, -7.588925131610262, 0.0 ], [ 110.642909626480488, -7.588930413321437, 0.0 ], [ 110.642872822554608, -7.588955667238436, 0.0 ], [ 110.642865135130904, -7.588961059313423, 0.0 ], [ 110.642862103700296, -7.588963186147892, 0.0 ], [ 110.642810940373593, -7.588999074886539, 0.0 ], [ 110.642769347543435, -7.589028251536849, 0.0 ], [ 110.642754790652873, -7.589038723378495, 0.0 ] ] ], [ [ [ 110.643533814053711, -7.58885332998973, 0.0 ], [ 110.643578725919923, -7.588857996325269, 0.0 ], [ 110.643437829258971, -7.588853023338685, 0.0 ], [ 110.643437144839112, -7.588852996545309, 0.0 ], [ 110.643370823202446, -7.588850393113733, 0.0 ], [ 110.643363209407056, -7.588850052183003, 0.0 ], [ 110.64327218108933, -7.588845972135477, 0.0 ], [ 110.643246806003219, -7.588844835093932, 0.0 ], [ 110.643208735215481, -7.588843129522192, 0.0 ], [ 110.643171150829772, -7.588841925470277, 0.0 ], [ 110.643162134565102, -7.58884163765844, 0.0 ], [ 110.643267711305342, -7.588838895745721, 0.0 ], [ 110.643533814053711, -7.58885332998973, 0.0 ] ] ] ] } },
{ "type": "Feature", "properties": { "LSD": "Lahan Sawah yang Dilindungi di Luar Kawasan Hutan", "KESIMPULAN": "Dipertahankan" }, "geometry": { "type": "MultiPolygon", "coordinates": [ [ [ [ 110.645315217443766, -7.5892058721605, 0.0 ], [ 110.645319373454726, -7.589244105708661, 0.0 ], [ 110.645242407808581, -7.589238381298703, 0.0 ], [ 110.645241454070032, -7.589086899943482, 0.0 ], [ 110.64532711444626, -7.589072620855622, 0.0 ], [ 110.645314027502465, -7.589152333229538, 0.0 ], [ 110.645315217443766, -7.5892058721605, 0.0 ] ] ], [ [ [ 110.644714404320979, -7.588764482011603, 0.0 ], [ 110.644756043978745, -7.588791845385595, 0.0 ], [ 110.644803633440318, -7.588816829206634, 0.0 ], [ 110.644839327424279, -7.588838242973591, 0.0 ], [ 110.6448714492725, -7.588865607608058, 0.0 ], [ 110.644902381732592, -7.588877505169666, 0.0 ], [ 110.644940452901722, -7.588910818495837, 0.0 ], [ 110.64497495550475, -7.58896673556985, 0.0 ], [ 110.644990421900076, -7.589016705019963, 0.0 ], [ 110.644992801683756, -7.589077380059929, 0.0 ], [ 110.644991610572745, -7.589122590607615, 0.0 ], [ 110.644992801520161, -7.589173748747035, 0.0 ], [ 110.645087979699383, -7.589191596455121, 0.0 ], [ 110.645090711025802, -7.589227097986874, 0.0 ], [ 110.644990453097236, -7.589219639480233, 0.0 ], [ 110.644976652674913, -7.589218613299669, 0.0 ], [ 110.64478656419773, -7.589204474507605, 0.0 ], [ 110.644767815242091, -7.589203079741405, 0.0 ], [ 110.644700212761848, -7.589198051253225, 0.0 ], [ 110.644681719437273, -7.589196675687932, 0.0 ], [ 110.644672519459903, -7.589195990656803, 0.0 ], [ 110.644670150798248, -7.589195815046239, 0.0 ], [ 110.644521691134884, -7.589184771176437, 0.0 ], [ 110.644404106562774, -7.589176024753927, 0.0 ], [ 110.644398317711619, -7.589175593973466, 0.0 ], [ 110.644387986433244, -7.589174826601059, 0.0 ], [ 110.644251141655616, -7.589164647849232, 0.0 ], [ 110.644258656241433, -7.588993392605761, 0.0 ], [ 110.644260373672623, -7.588954255682762, 0.0 ], [ 110.644262845895014, -7.588897907485993, 0.0 ], [ 110.644264539318513, -7.588859301517538, 0.0 ], [ 110.644269084654653, -7.588755703725319, 0.0 ], [ 110.644269216753926, -7.588752706134846, 0.0 ], [ 110.644313881584694, -7.588762340918283, 0.0 ], [ 110.644402396403649, -7.588767098917886, 0.0 ], [ 110.644454744498432, -7.588764244433959, 0.0 ], [ 110.644500430172968, -7.588752822873841, 0.0 ], [ 110.644542309948449, -7.588732835670188, 0.0 ], [ 110.644568960507996, -7.588690955707934, 0.0 ], [ 110.644588947767303, -7.588661450050976, 0.0 ], [ 110.644643198024326, -7.588632898661694, 0.0 ], [ 110.644694594820109, -7.588613861767652, 0.0 ], [ 110.644694594867289, -7.588662403862799, 0.0 ], [ 110.644691741458288, -7.588720461364657, 0.0 ], [ 110.644691798287752, -7.588740687283972, 0.0 ], [ 110.644714404320979, -7.588764482011603, 0.0 ] ] ] ] } },
{ "type": "Feature", "properties": { "LSD": "Lahan Sawah yang Dilindungi di Luar Kawasan Hutan", "KESIMPULAN": "Dipertahankan" }, "geometry": { "type": "MultiPolygon", "coordinates": [ [ [ [ 110.65125055353937, -7.589294478045247, 0.0 ], [ 110.651176202196709, -7.589247184261162, 0.0 ], [ 110.651165548857037, -7.589238810374164, 0.0 ], [ 110.651160981819459, -7.58923750324379, 0.0 ], [ 110.651141581684925, -7.589225162189373, 0.0 ], [ 110.651097295323439, -7.589221444202533, 0.0 ], [ 110.651073849932672, -7.589217280708941, 0.0 ], [ 110.651067386332997, -7.589218304907055, 0.0 ], [ 110.651055279861566, -7.588730767213122, 0.0 ], [ 110.651055289149909, -7.588628146175045, 0.0 ], [ 110.651055309224816, -7.588374928223317, 0.0 ], [ 110.651566519290611, -7.588339901252407, 0.0 ], [ 110.651553195083281, -7.58845792165527, 0.0 ], [ 110.651526098558023, -7.588877839473644, 0.0 ], [ 110.651556080422608, -7.588949221264036, 0.0 ], [ 110.651690628972958, -7.588894242473113, 0.0 ], [ 110.651721308488391, -7.588921073586341, 0.0 ], [ 110.651757781815675, -7.588903870091116, 0.0 ], [ 110.651813482222366, -7.588836902426049, 0.0 ], [ 110.651895997917904, -7.58883122365693, 0.0 ], [ 110.651934350720339, -7.58885997494082, 0.0 ], [ 110.652048632072038, -7.588946447958739, 0.0 ], [ 110.652071679727229, -7.58882962390638, 0.0 ], [ 110.652086850279332, -7.588814455774684, 0.0 ], [ 110.652150839429808, -7.588822761956663, 0.0 ], [ 110.652173630149278, -7.588836121496328, 0.0 ], [ 110.652185020404318, -7.588852540171697, 0.0 ], [ 110.652303616411899, -7.588864085809545, 0.0 ], [ 110.6523357995829, -7.588871025976117, 0.0 ], [ 110.652370063092647, -7.588905291749287, 0.0 ], [ 110.652475831243251, -7.588931821921969, 0.0 ], [ 110.652562918301825, -7.588944672003012, 0.0 ], [ 110.652724246583062, -7.588927539231022, 0.0 ], [ 110.652738524093579, -7.589131697339511, 0.0 ], [ 110.652924121710711, -7.589130269798769, 0.0 ], [ 110.652917420083384, -7.588966864405583, 0.0 ], [ 110.652907701490562, -7.588729943271551, 0.0 ], [ 110.653063557545607, -7.588663319506485, 0.0 ], [ 110.653119475729696, -7.588647853684336, 0.0 ], [ 110.653170634099695, -7.588666887473946, 0.0 ], [ 110.653233689262251, -7.588681166444868, 0.0 ], [ 110.653277709561976, -7.588675217906003, 0.0 ], [ 110.653305073815403, -7.588647853362754, 0.0 ], [ 110.653337195820001, -7.588591935751094, 0.0 ], [ 110.653374554588893, -7.588576073375075, 0.0 ], [ 110.65344831688121, -7.588568935516278, 0.0 ], [ 110.653503044839155, -7.588551088805839, 0.0 ], [ 110.653558961911642, -7.588516586525476, 0.0 ], [ 110.65361844877107, -7.588486843241295, 0.0 ], [ 110.653670795125294, -7.588471377214542, 0.0 ], [ 110.653736231726796, -7.588463048609471, 0.0 ], [ 110.653777871139937, -7.588464239599285, 0.0 ], [ 110.653814753327651, -7.588480893816111, 0.0 ], [ 110.653887326563961, -7.588536813405965, 0.0 ], [ 110.653930158022021, -7.588564175970806, 0.0 ], [ 110.653984884363453, -7.58858916087183, 0.0 ], [ 110.654075224778026, -7.58860002683102, 0.0 ], [ 110.654154938016774, -7.588607164780967, 0.0 ], [ 110.654221562206772, -7.588598837952566, 0.0 ], [ 110.654272720808322, -7.588588128878016, 0.0 ], [ 110.654304842367154, -7.588590508978893, 0.0 ], [ 110.654358381550182, -7.588604786554124, 0.0 ], [ 110.654390503500579, -7.588621440557683, 0.0 ], [ 110.654417866427877, -7.588653565032264, 0.0 ], [ 110.654445230527017, -7.588678548029099, 0.0 ], [ 110.654485682910661, -7.588690445249402, 0.0 ], [ 110.654529703069599, -7.588688067773792, 0.0 ], [ 110.654573722624136, -7.588677358419063, 0.0 ], [ 110.65460346622605, -7.58865713353969, 0.0 ], [ 110.654643915570858, -7.588627389462936, 0.0 ], [ 110.654690317517179, -7.588616683797326, 0.0 ], [ 110.654739094995662, -7.588595267344663, 0.0 ], [ 110.65478430478727, -7.588585750214544, 0.0 ], [ 110.65480571974696, -7.588596457270646, 0.0 ], [ 110.654827133338344, -7.588620251455126, 0.0 ], [ 110.654855688425769, -7.58862620077985, 0.0 ], [ 110.654868776124786, -7.58860359452996, 0.0 ], [ 110.654881852201314, -7.588592154121894, 0.0 ], [ 110.654850816382876, -7.588636764851784, 0.0 ], [ 110.654845761401347, -7.588661879482152, 0.0 ], [ 110.654843446711808, -7.588665637888123, 0.0 ], [ 110.6548251530659, -7.588732143582007, 0.0 ], [ 110.654854071329893, -7.588733991029533, 0.0 ], [ 110.654855630471928, -7.588735275833536, 0.0 ], [ 110.654860802670299, -7.588747343111089, 0.0 ], [ 110.654856262807755, -7.588767656761815, 0.0 ], [ 110.654846360640633, -7.588811949579591, 0.0 ], [ 110.654787270633236, -7.588918167308292, 0.0 ], [ 110.654710972262151, -7.58894969837521, 0.0 ], [ 110.654630366789945, -7.588965429728861, 0.0 ], [ 110.654590072430878, -7.588961090219716, 0.0 ], [ 110.654535404029346, -7.588939506571855, 0.0 ], [ 110.654508062406521, -7.5889351773466, 0.0 ], [ 110.65449654444653, -7.588942346758067, 0.0 ], [ 110.654489324211767, -7.588972498948952, 0.0 ], [ 110.654493597393838, -7.589028504369364, 0.0 ], [ 110.654490476833146, -7.589052639086897, 0.0 ], [ 110.654486356527627, -7.589084502448944, 0.0 ], [ 110.654479891229016, -7.589089936411963, 0.0 ], [ 110.654471735254774, -7.589093055174617, 0.0 ], [ 110.654465647068108, -7.589101910471406, 0.0 ], [ 110.654453763327012, -7.589111899094696, 0.0 ], [ 110.654397971629507, -7.589109710046035, 0.0 ], [ 110.654377744141058, -7.589126367664906, 0.0 ], [ 110.654356331014085, -7.589164437916184, 0.0 ], [ 110.65432658848097, -7.589203700081841, 0.0 ], [ 110.654325177817611, -7.589204930062243, 0.0 ], [ 110.654316437691733, -7.589210734891426, 0.0 ], [ 110.654262157067237, -7.589257870195675, 0.0 ], [ 110.654181618249112, -7.589308873412497, 0.0 ], [ 110.654177502217209, -7.589311525917646, 0.0 ], [ 110.654289148092843, -7.589230920994596, 0.0 ], [ 110.654336129732727, -7.589184599807218, 0.0 ], [ 110.654365939662497, -7.589133590213617, 0.0 ], [ 110.654367539781575, -7.58911420954445, 0.0 ], [ 110.654364139109518, -7.589108800304356, 0.0 ], [ 110.654262050555218, -7.589115060080133, 0.0 ], [ 110.654098309087743, -7.589110540932987, 0.0 ], [ 110.653935199776654, -7.58911360060504, 0.0 ], [ 110.653778100106479, -7.589124419767411, 0.0 ], [ 110.653642519944228, -7.589133101361647, 0.0 ], [ 110.653497460185434, -7.589146100044903, 0.0 ], [ 110.653496559503807, -7.58913763991151, 0.0 ], [ 110.653445268569186, -7.58914369031755, 0.0 ], [ 110.653439528135678, -7.589462090650601, 0.0 ], [ 110.653366458544596, -7.589466650161654, 0.0 ], [ 110.653268140396136, -7.589487419987735, 0.0 ], [ 110.653238389708633, -7.589493710971046, 0.0 ], [ 110.653159449991151, -7.589524570276605, 0.0 ], [ 110.65311686836813, -7.589532689978995, 0.0 ], [ 110.653098538789905, -7.589536190461646, 0.0 ], [ 110.652915980393487, -7.589579770127257, 0.0 ], [ 110.652729419705651, -7.589634459901817, 0.0 ], [ 110.652646725138439, -7.589673063640489, 0.0 ], [ 110.652587825445977, -7.589685925506775, 0.0 ], [ 110.652525009128823, -7.589711624417326, 0.0 ], [ 110.652403656660439, -7.589723047843687, 0.0 ], [ 110.652278020914281, -7.58971733550606, 0.0 ], [ 110.652122404163947, -7.589698776147547, 0.0 ], [ 110.652009617354054, -7.589674506179019, 0.0 ], [ 110.65199819580603, -7.58964738023651, 0.0 ], [ 110.651972497947455, -7.589641669099693, 0.0 ], [ 110.651979636572335, -7.58957456665857, 0.0 ], [ 110.651966452837598, -7.589573201079009, 0.0 ], [ 110.65197376528414, -7.589490605530004, 0.0 ], [ 110.651955785863464, -7.589488175970824, 0.0 ], [ 110.651955901130663, -7.589486879833363, 0.0 ], [ 110.651857222551214, -7.589482314225246, 0.0 ], [ 110.651767405148178, -7.5894781591247, 0.0 ], [ 110.65170619295192, -7.589476258463828, 0.0 ], [ 110.651569528865934, -7.589472016944613, 0.0 ], [ 110.651479603851129, -7.589445020738855, 0.0 ], [ 110.651431954557793, -7.589434068158843, 0.0 ], [ 110.651313270476379, -7.589406788348985, 0.0 ], [ 110.651357628655546, -7.589335998947019, 0.0 ], [ 110.651271950414184, -7.589298300677733, 0.0 ], [ 110.65125055353937, -7.589294478045247, 0.0 ] ] ] ] } },
{ "type": "Feature", "properties": { "LSD": "Lahan Sawah yang Dilindungi di Luar Kawasan Hutan", "KESIMPULAN": "Dipertahankan" }, "geometry": { "type": "MultiPolygon", "coordinates": [ [ [ [ 110.652038604602382, -7.5885473911176, 0.0 ], [ 110.651962463425164, -7.588556908530128, 0.0 ], [ 110.651884417502828, -7.588516933392584, 0.0 ], [ 110.651808272459718, -7.588463633834278, 0.0 ], [ 110.651724516643938, -7.588414140874013, 0.0 ], [ 110.651718805766805, -7.588324672927693, 0.0 ], [ 110.651981498567238, -7.588309445185556, 0.0 ], [ 110.651987208657843, -7.588362744429316, 0.0 ], [ 110.651989112787973, -7.588414141057727, 0.0 ], [ 110.652042412550557, -7.588532161429532, 0.0 ], [ 110.652038604602382, -7.5885473911176, 0.0 ] ] ] ] } },
{ "type": "Feature", "properties": { "LSD": "Lahan Sawah yang Dilindungi di Luar Kawasan Hutan", "KESIMPULAN": "Dipertahankan" }, "geometry": { "type": "MultiPolygon", "coordinates": [ [ [ [ 110.649395060260659, -7.588334900311093, 0.0 ], [ 110.649393348292989, -7.588335407291461, 0.0 ], [ 110.649334814207521, -7.588311135163559, 0.0 ], [ 110.649313398766623, -7.588291148903691, 0.0 ], [ 110.649300698871627, -7.588286804026477, 0.0 ], [ 110.649322220107223, -7.588285859839694, 0.0 ], [ 110.649329299988736, -7.588290626230147, 0.0 ], [ 110.649395060260659, -7.588334900311093, 0.0 ] ] ] ] } },
{ "type": "Feature", "properties": { "LSD": "Lahan Sawah yang Dilindungi di Luar Kawasan Hutan", "KESIMPULAN": "Dipertahankan" }, "geometry": { "type": "MultiPolygon", "coordinates": [ [ [ [ 110.649949397371714, -7.58828196090117, 0.0 ], [ 110.649942002322774, -7.58828352887627, 0.0 ], [ 110.649934387463261, -7.588265444278783, 0.0 ], [ 110.649932484912014, -7.588235940635347, 0.0 ], [ 110.649930502249674, -7.588232637407814, 0.0 ], [ 110.649931938174916, -7.588232689218991, 0.0 ], [ 110.649949397371714, -7.58828196090117, 0.0 ] ] ] ] } },
{ "type": "Feature", "properties": { "LSD": "Lahan Sawah yang Dilindungi di Luar Kawasan Hutan", "KESIMPULAN": "Dipertahankan" }, "geometry": { "type": "MultiPolygon", "coordinates": [ [ [ [ 110.646651896344054, -7.588181290579285, 0.0 ], [ 110.646754688261566, -7.588192714517566, 0.0 ], [ 110.646848916181938, -7.588188429284541, 0.0 ], [ 110.646916016794265, -7.588188429501613, 0.0 ], [ 110.646974550570889, -7.588198423527471, 0.0 ], [ 110.647077344087123, -7.588231259143012, 0.0 ], [ 110.647160149592324, -7.588256958753773, 0.0 ], [ 110.647338449483428, -7.588292849652675, 0.0 ], [ 110.647574852570798, -7.58829201283856, 0.0 ], [ 110.647574552661126, -7.588296274864869, 0.0 ], [ 110.647547388713278, -7.588682952480425, 0.0 ], [ 110.647545920316603, -7.588703853777218, 0.0 ], [ 110.64754527370809, -7.588713058018016, 0.0 ], [ 110.647531818737818, -7.588904586907174, 0.0 ], [ 110.647523215621916, -7.589027047809062, 0.0 ], [ 110.647518971838295, -7.589087462396667, 0.0 ], [ 110.647016130380109, -7.589067562169643, 0.0 ], [ 110.64688272572603, -7.589059794966385, 0.0 ], [ 110.646893295784892, -7.588342160288251, 0.0 ], [ 110.646750528298483, -7.588313607794157, 0.0 ], [ 110.646731783866031, -7.589051007607096, 0.0 ], [ 110.646321330106744, -7.589027110228339, 0.0 ], [ 110.64550672762941, -7.588992813622896, 0.0 ], [ 110.645137674046254, -7.588985676839702, 0.0 ], [ 110.64506343506568, -7.588981392869758, 0.0 ], [ 110.645037737448263, -7.588967830686891, 0.0 ], [ 110.644998476751383, -7.588933566613689, 0.0 ], [ 110.644967066465824, -7.588888592671948, 0.0 ], [ 110.644932802170231, -7.588847191202989, 0.0 ], [ 110.644872912238398, -7.588802861559254, 0.0 ], [ 110.644843643586114, -7.588782875005586, 0.0 ], [ 110.644797959155255, -7.588760745714964, 0.0 ], [ 110.644767263760301, -7.588735048433128, 0.0 ], [ 110.644745848508222, -7.588702925529086, 0.0 ], [ 110.644733712477603, -7.588652242384078, 0.0 ], [ 110.644741566007411, -7.588622260054414, 0.0 ], [ 110.644753700881949, -7.588593707707337, 0.0 ], [ 110.644785823903277, -7.588566582796637, 0.0 ], [ 110.644815091795081, -7.588546593402917, 0.0 ], [ 110.644832938425751, -7.588515185512609, 0.0 ], [ 110.644842930900481, -7.588478067075808, 0.0 ], [ 110.6448557802252, -7.588407395560387, 0.0 ], [ 110.644870057099254, -7.588384553611927, 0.0 ], [ 110.644892185084331, -7.58836670670143, 0.0 ], [ 110.644930019689397, -7.588342436699233, 0.0 ], [ 110.644951433311761, -7.588324591011258, 0.0 ], [ 110.644983477166548, -7.588351957382107, 0.0 ], [ 110.645033446859514, -7.588376228520941, 0.0 ], [ 110.645111968598897, -7.588393361587845, 0.0 ], [ 110.645294712412891, -7.588419059885472, 0.0 ], [ 110.645383226954905, -7.58841192096057, 0.0 ], [ 110.645440334604061, -7.588417630956368, 0.0 ], [ 110.645438907045346, -7.588470456773933, 0.0 ], [ 110.645458895472188, -7.588514714007428, 0.0 ], [ 110.645467459002944, -7.588547549140339, 0.0 ], [ 110.645498869097665, -7.588551832495453, 0.0 ], [ 110.645590983386057, -7.58851168107021, 0.0 ], [ 110.645692348261846, -7.588484554629739, 0.0 ], [ 110.645789431392103, -7.588453145221973, 0.0 ], [ 110.645880801969653, -7.588428874419572, 0.0 ], [ 110.645956468830377, -7.588417453600088, 0.0 ], [ 110.646043556975755, -7.588417452136159, 0.0 ], [ 110.646124934772558, -7.588437441221916, 0.0 ], [ 110.646196318558282, -7.588468849419219, 0.0 ], [ 110.64632353149274, -7.588539637645793, 0.0 ], [ 110.646404908429901, -7.588539637797008, 0.0 ], [ 110.64647343677899, -7.588505375561214, 0.0 ], [ 110.646529115363677, -7.58844826734685, 0.0 ], [ 110.646573373538587, -7.58837973886537, 0.0 ], [ 110.646599072525177, -7.588298361451432, 0.0 ], [ 110.646607637811684, -7.588226976311986, 0.0 ], [ 110.646627626595304, -7.588189856904804, 0.0 ], [ 110.646651896344054, -7.588181290579285, 0.0 ] ] ] ] } },
{ "type": "Feature", "properties": { "LSD": "Lahan Sawah yang Dilindungi di Luar Kawasan Hutan", "KESIMPULAN": "Dipertahankan" }, "geometry": { "type": "MultiPolygon", "coordinates": [ [ [ [ 110.650792428229337, -7.588244663650393, 0.0 ], [ 110.650763801538488, -7.588248926449066, 0.0 ], [ 110.650743575556447, -7.588229892805654, 0.0 ], [ 110.65072454035267, -7.58820014745377, 0.0 ], [ 110.65072335032302, -7.588153749979566, 0.0 ], [ 110.650744765681694, -7.588112108729676, 0.0 ], [ 110.650762611544693, -7.58807998507024, 0.0 ], [ 110.650766181033006, -7.588050242496727, 0.0 ], [ 110.650757851272019, -7.588019308110995, 0.0 ], [ 110.650738816660493, -7.587996704234885, 0.0 ], [ 110.650723989223181, -7.587991080456159, 0.0 ], [ 110.65079885999161, -7.588009980692731, 0.0 ], [ 110.650810599399748, -7.588039629727211, 0.0 ], [ 110.650800503797214, -7.588153546005358, 0.0 ], [ 110.650792428229337, -7.588244663650393, 0.0 ] ] ] ] } },
{ "type": "Feature", "properties": { "LSD": "Lahan Sawah yang Dilindungi di Luar Kawasan Hutan", "KESIMPULAN": "Dipertahankan" }, "geometry": { "type": "MultiPolygon", "coordinates": [ [ [ [ 110.644502838772624, -7.5886955302652, 0.0 ], [ 110.644470479007808, -7.588718371887293, 0.0 ], [ 110.644403853926832, -7.58870885303515, 0.0 ], [ 110.644268700773438, -7.588695529633043, 0.0 ], [ 110.64421920777032, -7.588701240305218, 0.0 ], [ 110.644171619021094, -7.588731697563541, 0.0 ], [ 110.644146575295395, -7.588752045859525, 0.0 ], [ 110.644168083339039, -7.58827086500213, 0.0 ], [ 110.6441690013271, -7.588250324191126, 0.0 ], [ 110.64438672125975, -7.58832243078632, 0.0 ], [ 110.644569464051401, -7.588354789630774, 0.0 ], [ 110.644666546765521, -7.588368116199378, 0.0 ], [ 110.644748398378638, -7.588379537971742, 0.0 ], [ 110.644773146590495, -7.588396669677154, 0.0 ], [ 110.64476362649178, -7.588448065106392, 0.0 ], [ 110.644765532230267, -7.588497559447556, 0.0 ], [ 110.644719845415921, -7.588541339719599, 0.0 ], [ 110.644670352971801, -7.588571798193303, 0.0 ], [ 110.644601824981507, -7.58860986922357, 0.0 ], [ 110.644533294603576, -7.588657457978881, 0.0 ], [ 110.644502838772624, -7.5886955302652, 0.0 ] ] ], [ [ [ 110.643898903412094, -7.588419274043862, 0.0 ], [ 110.643886005400333, -7.588812326513763, 0.0 ], [ 110.643779990162841, -7.588816946980556, 0.0 ], [ 110.643644362177625, -7.588812186425721, 0.0 ], [ 110.643446866237639, -7.588805049485862, 0.0 ], [ 110.64329695956134, -7.588795530908919, 0.0 ], [ 110.643124448983016, -7.588799338641308, 0.0 ], [ 110.643051637972874, -7.58879933857425, 0.0 ], [ 110.642984536043642, -7.588825036187559, 0.0 ], [ 110.642888883097839, -7.588866438758568, 0.0 ], [ 110.642807981694062, -7.588924019648565, 0.0 ], [ 110.642742307362894, -7.5889697063659, 0.0 ], [ 110.642712326629024, -7.589009682093905, 0.0 ], [ 110.642668068425863, -7.58903680862948, 0.0 ], [ 110.642655219679583, -7.589038235408723, 0.0 ], [ 110.642670924298557, -7.588507140165186, 0.0 ], [ 110.642687818965939, -7.588412319508665, 0.0 ], [ 110.642744925517121, -7.588228149107497, 0.0 ], [ 110.642844843057389, -7.587958859873049, 0.0 ], [ 110.643084693231629, -7.587980274971499, 0.0 ], [ 110.643253157451042, -7.587993124031279, 0.0 ], [ 110.643505858459548, -7.588050231460258, 0.0 ], [ 110.64373999670984, -7.588114477670566, 0.0 ], [ 110.643907259961196, -7.58816465471237, 0.0 ], [ 110.643906287367287, -7.588194257319448, 0.0 ], [ 110.643898903412094, -7.588419274043862, 0.0 ] ] ] ] } },
{ "type": "Feature", "properties": { "LSD": "Lahan Sawah yang Dilindungi di Luar Kawasan Hutan", "KESIMPULAN": "Dipertahankan" }, "geometry": { "type": "MultiPolygon", "coordinates": [ [ [ [ 110.65488093221245, -7.588276963218988, 0.0 ], [ 110.655014181396439, -7.588367221631479, 0.0 ], [ 110.65484857121676, -7.588597668116549, 0.0 ], [ 110.654795270984835, -7.58855541917506, 0.0 ], [ 110.654755296336205, -7.588545817224032, 0.0 ], [ 110.654677250288472, -7.588572702905202, 0.0 ], [ 110.654557324632094, -7.58864375647806, 0.0 ], [ 110.654519253598238, -7.588645677359579, 0.0 ], [ 110.654484989497945, -7.588643756895811, 0.0 ], [ 110.654450724128637, -7.588620712309894, 0.0 ], [ 110.654410749122093, -7.588589986208608, 0.0 ], [ 110.65436506462764, -7.58856502121137, 0.0 ], [ 110.654330800669783, -7.588551578489541, 0.0 ], [ 110.654285115285234, -7.588551578350531, 0.0 ], [ 110.654205164485703, -7.588559260496631, 0.0 ], [ 110.654121407446581, -7.588563101565175, 0.0 ], [ 110.654064300838499, -7.588559260614522, 0.0 ], [ 110.654020517881037, -7.588543897157459, 0.0 ], [ 110.653953894164772, -7.588507408588143, 0.0 ], [ 110.653919629814041, -7.588478604648912, 0.0 ], [ 110.653883461723794, -7.588449798287236, 0.0 ], [ 110.653826354320302, -7.588415231316577, 0.0 ], [ 110.653727369935709, -7.588405629326441, 0.0 ], [ 110.653611252213238, -7.588436355093423, 0.0 ], [ 110.6536185522165, -7.588103749913249, 0.0 ], [ 110.653763610098807, -7.588237749810189, 0.0 ], [ 110.653897285599612, -7.588229861754825, 0.0 ], [ 110.65397102617105, -7.588257759085679, 0.0 ], [ 110.654073818016144, -7.588292326201227, 0.0 ], [ 110.65425085134234, -7.588282724019899, 0.0 ], [ 110.654290825530026, -7.588276963020228, 0.0 ], [ 110.65434602876087, -7.588246237496167, 0.0 ], [ 110.654500217885442, -7.588061880163244, 0.0 ], [ 110.654625853412824, -7.587852558740961, 0.0 ], [ 110.654663924939371, -7.587854478596332, 0.0 ], [ 110.654724838834412, -7.587925532882243, 0.0 ], [ 110.654753393250957, -7.587975463582069, 0.0 ], [ 110.65477813909628, -7.58804267643645, 0.0 ], [ 110.65481240312549, -7.588161739721069, 0.0 ], [ 110.65488093221245, -7.588276963218988, 0.0 ] ] ] ] } },
{ "type": "Feature", "properties": { "LSD": "Lahan Sawah yang Dilindungi di Luar Kawasan Hutan", "KESIMPULAN": "Dipertahankan" }, "geometry": { "type": "MultiPolygon", "coordinates": [ [ [ [ 110.651206529929695, -7.587638035767093, 0.0 ], [ 110.651220106036945, -7.587648526849702, 0.0 ], [ 110.651100300446828, -7.587615259746348, 0.0 ], [ 110.651082550470619, -7.587607199473293, 0.0 ], [ 110.651140856059413, -7.587618048466896, 0.0 ], [ 110.651206529929695, -7.587638035767093, 0.0 ] ] ] ] } },
{ "type": "Feature", "properties": { "LSD": "Lahan Sawah yang Dilindungi di Luar Kawasan Hutan", "KESIMPULAN": "Dipertahankan" }, "geometry": { "type": "MultiPolygon", "coordinates": [ [ [ [ 110.646052054815314, -7.587490572986536, 0.0 ], [ 110.645988173595995, -7.588335208220992, 0.0 ], [ 110.645902902019728, -7.588307700887311, 0.0 ], [ 110.645814384557482, -7.588296278424708, 0.0 ], [ 110.64575585023988, -7.588309128808461, 0.0 ], [ 110.64569588895931, -7.588351958630281, 0.0 ], [ 110.645615938013378, -7.588371947487069, 0.0 ], [ 110.645528850671369, -7.58836766217494, 0.0 ], [ 110.645451755553864, -7.588351958640116, 0.0 ], [ 110.645364667102484, -7.588329116325815, 0.0 ], [ 110.645291856329109, -7.588313412639156, 0.0 ], [ 110.64523617747362, -7.588287713100442, 0.0 ], [ 110.645209050655069, -7.588254875481522, 0.0 ], [ 110.645224755576109, -7.588230606391283, 0.0 ], [ 110.645267584832652, -7.588203479322225, 0.0 ], [ 110.645320094526326, -7.588161525424481, 0.0 ], [ 110.64537125259109, -7.58813059152933, 0.0 ], [ 110.645470000201129, -7.588074674598888, 0.0 ], [ 110.645533055566816, -7.588030653314997, 0.0 ], [ 110.645613957649729, -7.587961650061513, 0.0 ], [ 110.645696048222234, -7.587908111147494, 0.0 ], [ 110.645741893303352, -7.587875672218241, 0.0 ], [ 110.645772826649093, -7.58783879062101, 0.0 ], [ 110.645787102249983, -7.587801909925965, 0.0 ], [ 110.645809707811736, -7.587769785839567, 0.0 ], [ 110.645834692644755, -7.587744802446871, 0.0 ], [ 110.645915593723075, -7.587675795512705, 0.0 ], [ 110.645970321896385, -7.587607982978866, 0.0 ], [ 110.646030997837528, -7.58752470013082, 0.0 ], [ 110.646052054815314, -7.587490572986536, 0.0 ] ] ] ] } },
{ "type": "Feature", "properties": { "LSD": "Lahan Sawah yang Dilindungi di Luar Kawasan Hutan", "KESIMPULAN": "Dipertahankan" }, "geometry": { "type": "MultiPolygon", "coordinates": [ [ [ [ 110.639395223465428, -7.587486970091502, 0.0 ], [ 110.639320532721385, -7.587684805007602, 0.0 ], [ 110.639328327366144, -7.587695458995979, 0.0 ], [ 110.639301386734417, -7.587772710118323, 0.0 ], [ 110.639400238602093, -7.587793742512274, 0.0 ], [ 110.639444040043372, -7.587853608850629, 0.0 ], [ 110.639470522413447, -7.587882482511808, 0.0 ], [ 110.63947728855608, -7.587892635425802, 0.0 ], [ 110.639486026543153, -7.587899387036424, 0.0 ], [ 110.639487969313734, -7.587901506211661, 0.0 ], [ 110.639489296153897, -7.587901913457121, 0.0 ], [ 110.639508698200459, -7.587916905363815, 0.0 ], [ 110.639719994544535, -7.587989716290783, 0.0 ], [ 110.639725675841632, -7.587974477427056, 0.0 ], [ 110.639822378418458, -7.588004163639712, 0.0 ], [ 110.639821358136601, -7.588006848420189, 0.0 ], [ 110.639836197807099, -7.588011743502595, 0.0 ], [ 110.639921953504427, -7.588063689881173, 0.0 ], [ 110.639929581517904, -7.588042552210378, 0.0 ], [ 110.639959843611393, -7.588052535520382, 0.0 ], [ 110.640092171153242, -7.587703230603326, 0.0 ], [ 110.640322502565255, -7.587767951268533, 0.0 ], [ 110.640510955592063, -7.587826961109658, 0.0 ], [ 110.640585195230273, -7.587857418260525, 0.0 ], [ 110.640607410140433, -7.587858428013982, 0.0 ], [ 110.640604744272821, -7.587865740047915, 0.0 ], [ 110.640552142857942, -7.5880100518965, 0.0 ], [ 110.640600207487466, -7.588043185698238, 0.0 ], [ 110.640675701133731, -7.588095229283801, 0.0 ], [ 110.640691041955535, -7.588105804456822, 0.0 ], [ 110.640770161540814, -7.588160344883002, 0.0 ], [ 110.640798146861741, -7.588179636846593, 0.0 ], [ 110.640849595535315, -7.588215104457707, 0.0 ], [ 110.640744750361051, -7.588496632260451, 0.0 ], [ 110.640806542365567, -7.588463718587496, 0.0 ], [ 110.640843115840383, -7.588444239341513, 0.0 ], [ 110.640844955136828, -7.588443245849508, 0.0 ], [ 110.64089614975866, -7.588415632246981, 0.0 ], [ 110.640881503929947, -7.588455701918005, 0.0 ], [ 110.640801242110427, -7.588675303347698, 0.0 ], [ 110.64078419571824, -7.58872194443699, 0.0 ], [ 110.640706525146612, -7.588934456266554, 0.0 ], [ 110.640676232121422, -7.589017339184251, 0.0 ], [ 110.640562788792579, -7.588986790837476, 0.0 ], [ 110.640146383491754, -7.588854728633621, 0.0 ], [ 110.639854900484053, -7.588772639489193, 0.0 ], [ 110.639589500586908, -7.588687424826386, 0.0 ], [ 110.639331089891442, -7.588591771805458, 0.0 ], [ 110.638992731352076, -7.588463280220989, 0.0 ], [ 110.638857102580076, -7.588384758011684, 0.0 ], [ 110.639158144146251, -7.58749502841115, 0.0 ], [ 110.639190980748026, -7.587436493825162, 0.0 ], [ 110.639290916627601, -7.587516442652953, 0.0 ], [ 110.63933232068824, -7.587453862752839, 0.0 ], [ 110.639395223465428, -7.587486970091502, 0.0 ] ] ] ] } },
{ "type": "Feature", "properties": { "LSD": "Lahan Sawah yang Dilindungi di Luar Kawasan Hutan", "KESIMPULAN": "Dipertahankan" }, "geometry": { "type": "MultiPolygon", "coordinates": [ [ [ [ 110.641975900352378, -7.587327152503831, 0.0 ], [ 110.642082977574916, -7.587376408680641, 0.0 ], [ 110.642277283027539, -7.587462139538887, 0.0 ], [ 110.642341528512318, -7.587477843006979, 0.0 ], [ 110.642385786466193, -7.587474989348202, 0.0 ], [ 110.642432900569972, -7.587483555337469, 0.0 ], [ 110.642488580139457, -7.587513535582747, 0.0 ], [ 110.642555680793819, -7.587550655822935, 0.0 ], [ 110.642602794002684, -7.587559222698099, 0.0 ], [ 110.642642768822682, -7.587554939913303, 0.0 ], [ 110.642694166441345, -7.587539235637546, 0.0 ], [ 110.64273842259, -7.587536379227906, 0.0 ], [ 110.642779826759096, -7.587547801599547, 0.0 ], [ 110.642841216311396, -7.587574927190239, 0.0 ], [ 110.642854065031429, -7.587602052710466, 0.0 ], [ 110.642818571797534, -7.587780392031916, 0.0 ], [ 110.642799536162286, -7.587867244516346, 0.0 ], [ 110.642776931610001, -7.587951713276362, 0.0 ], [ 110.642504007442241, -7.588754386317427, 0.0 ], [ 110.642497089931425, -7.58875178365003, 0.0 ], [ 110.642794460579339, -7.587883539539619, 0.0 ], [ 110.642781599848604, -7.587867670301321, 0.0 ], [ 110.642797820338657, -7.587798800790202, 0.0 ], [ 110.642821388636989, -7.587620800835242, 0.0 ], [ 110.642720458705469, -7.587580120551794, 0.0 ], [ 110.6427062195324, -7.587578050083757, 0.0 ], [ 110.642597899433468, -7.587582460334272, 0.0 ], [ 110.642501219651052, -7.587559050561255, 0.0 ], [ 110.642295978822332, -7.587492661063568, 0.0 ], [ 110.642182719383698, -7.587453819429125, 0.0 ], [ 110.642015269725633, -7.587396160913885, 0.0 ], [ 110.641832710054345, -7.587329510366193, 0.0 ], [ 110.641771288838626, -7.587369269276961, 0.0 ], [ 110.641773171328637, -7.587364272252232, 0.0 ], [ 110.641819571208316, -7.587334291881636, 0.0 ], [ 110.641845982792816, -7.587322870098388, 0.0 ], [ 110.6418873858225, -7.587309306911266, 0.0 ], [ 110.641922362983024, -7.587311447850187, 0.0 ], [ 110.641975900352378, -7.587327152503831, 0.0 ] ] ] ] } },
{ "type": "Feature", "properties": { "LSD": "Lahan Sawah yang Dilindungi di Luar Kawasan Hutan", "KESIMPULAN": "Dipertahankan" }, "geometry": { "type": "MultiPolygon", "coordinates": [ [ [ [ 110.641654911870589, -7.587316207132409, 0.0 ], [ 110.641684581919932, -7.587335035485536, 0.0 ], [ 110.641621417564053, -7.587319845696443, 0.0 ], [ 110.641617649817903, -7.587318939844812, 0.0 ], [ 110.64147090013023, -7.587252701285191, 0.0 ], [ 110.64141348976311, -7.587236240786705, 0.0 ], [ 110.641282449985653, -7.587211119037837, 0.0 ], [ 110.641239960924736, -7.587202784689695, 0.0 ], [ 110.641254785682989, -7.587164394908502, 0.0 ], [ 110.641298945578669, -7.58717153661953, 0.0 ], [ 110.64142648305608, -7.587205799629696, 0.0 ], [ 110.641502626635827, -7.587238161378035, 0.0 ], [ 110.641654911870589, -7.587316207132409, 0.0 ] ] ] ] } },
{ "type": "Feature", "properties": { "LSD": "Lahan Sawah yang Dilindungi di Luar Kawasan Hutan", "KESIMPULAN": "Dipertahankan" }, "geometry": { "type": "MultiPolygon", "coordinates": [ [ [ [ 110.646593501362673, -7.58710278230795, 0.0 ], [ 110.646658222783657, -7.587114203360573, 0.0 ], [ 110.646740075530758, -7.587135143397115, 0.0 ], [ 110.64683144866882, -7.587161794377467, 0.0 ], [ 110.646909494218676, -7.587184636286663, 0.0 ], [ 110.646966601226765, -7.587199865625983, 0.0 ], [ 110.64709414050904, -7.587216996508547, 0.0 ], [ 110.647343627913855, -7.587237460049217, 0.0 ], [ 110.647541598336105, -7.587254591827014, 0.0 ], [ 110.64765200642735, -7.587256495834141, 0.0 ], [ 110.647710723423941, -7.587246186232381, 0.0 ], [ 110.647710159610995, -7.587262829613014, 0.0 ], [ 110.647706662484737, -7.587366060181007, 0.0 ], [ 110.647681995827242, -7.588094179119024, 0.0 ], [ 110.647661888161352, -7.588101490637771, 0.0 ], [ 110.647627385060531, -7.588109312419512, 0.0 ], [ 110.64757170551978, -7.588122162651104, 0.0 ], [ 110.647527449109845, -7.588146434017545, 0.0 ], [ 110.647488901720365, -7.588167847086674, 0.0 ], [ 110.647437505690462, -7.588164991343485, 0.0 ], [ 110.647388963306042, -7.588147859486979, 0.0 ], [ 110.64736326582576, -7.588120735427372, 0.0 ], [ 110.647324718955346, -7.58807362110544, 0.0 ], [ 110.647241912276627, -7.58802936364889, 0.0 ], [ 110.647166245450691, -7.588000809640537, 0.0 ], [ 110.647032045421994, -7.587979394811432, 0.0 ], [ 110.64694638335142, -7.587979394016937, 0.0 ], [ 110.646863578583051, -7.587985104180603, 0.0 ], [ 110.646747936310263, -7.58795940588353, 0.0 ], [ 110.646656565475951, -7.587950840578751, 0.0 ], [ 110.646576616583687, -7.587955123809553, 0.0 ], [ 110.646525219810783, -7.587996526086894, 0.0 ], [ 110.64649238231857, -7.588035073288939, 0.0 ], [ 110.646483816504556, -7.588079332593443, 0.0 ], [ 110.646482388429263, -7.588140721854479, 0.0 ], [ 110.646490954358882, -7.588200683709553, 0.0 ], [ 110.646483816862343, -7.588272068197622, 0.0 ], [ 110.646465258454541, -7.588334886297861, 0.0 ], [ 110.646423855240556, -7.58839199344903, 0.0 ], [ 110.646346909448766, -7.588377656977129, 0.0 ], [ 110.64628551822986, -7.588377657697098, 0.0 ], [ 110.646214135084065, -7.588367662169354, 0.0 ], [ 110.646155600140375, -7.588359095429676, 0.0 ], [ 110.646093773959606, -7.588352227473672, 0.0 ], [ 110.646135583128185, -7.58765652481368, 0.0 ], [ 110.646219541483447, -7.587644626750987, 0.0 ], [ 110.646228120258598, -7.58743363423098, 0.0 ], [ 110.646228343220798, -7.587428144660584, 0.0 ], [ 110.646235630525595, -7.587248881111141, 0.0 ], [ 110.646292738056843, -7.587217947415238, 0.0 ], [ 110.646323671952715, -7.587185825548908, 0.0 ], [ 110.646336757585772, -7.5871418051059, 0.0 ], [ 110.646343895907265, -7.587104924011328, 0.0 ], [ 110.64640885632447, -7.587112300119528, 0.0 ], [ 110.646505938708884, -7.587104685790176, 0.0 ], [ 110.646593501362673, -7.58710278230795, 0.0 ] ] ] ] } },
{ "type": "Feature", "properties": { "LSD": "Lahan Sawah yang Dilindungi di Luar Kawasan Hutan", "KESIMPULAN": "Dipertahankan" }, "geometry": { "type": "MultiPolygon", "coordinates": [ [ [ [ 110.648893660996251, -7.588276872780717, 0.0 ], [ 110.648782301576261, -7.58828401115926, 0.0 ], [ 110.648698068395021, -7.588282584471258, 0.0 ], [ 110.648640962822384, -7.588259739891528, 0.0 ], [ 110.648612410451051, -7.588212626516481, 0.0 ], [ 110.648586711383004, -7.588168369321159, 0.0 ], [ 110.648539597524291, -7.588121255413809, 0.0 ], [ 110.648426811024521, -7.588078425757883, 0.0 ], [ 110.648318307186898, -7.58806557653646, 0.0 ], [ 110.648264056118563, -7.588044160703197, 0.0 ], [ 110.648252634261979, -7.587999903278843, 0.0 ], [ 110.6482697665366, -7.587905676832574, 0.0 ], [ 110.648278331511179, -7.587859990997959, 0.0 ], [ 110.648276904196265, -7.587821444885886, 0.0 ], [ 110.648328301814558, -7.587590161528089, 0.0 ], [ 110.648450591892939, -7.587084261479729, 0.0 ], [ 110.648458918172437, -7.587072363342658, 0.0 ], [ 110.648483905511767, -7.5870842612708, 0.0 ], [ 110.648505319340799, -7.587112813716574, 0.0 ], [ 110.648513647289178, -7.587140178757493, 0.0 ], [ 110.648532683693475, -7.58717825064186, 0.0 ], [ 110.648550826384692, -7.587217273396671, 0.0 ], [ 110.648595084643432, -7.587258676337103, 0.0 ], [ 110.648616499531428, -7.587368605391643, 0.0 ], [ 110.648665041472086, -7.58748567612566, 0.0 ], [ 110.648697877724729, -7.587581330552611, 0.0 ], [ 110.648716437540088, -7.587662708589725, 0.0 ], [ 110.648736424512691, -7.587716960130764, 0.0 ], [ 110.648847647261078, -7.587773085421528, 0.0 ], [ 110.648849429938878, -7.587775929882008, 0.0 ], [ 110.648858240423237, -7.587778430858605, 0.0 ], [ 110.648878121859312, -7.587788463065873, 0.0 ], [ 110.648892806958131, -7.58779629481359, 0.0 ], [ 110.648918220154044, -7.58784094976603, 0.0 ], [ 110.648971319762239, -7.587881571036262, 0.0 ], [ 110.649029879650413, -7.587883980100864, 0.0 ], [ 110.649012394795477, -7.588153888352636, 0.0 ], [ 110.649007627436802, -7.588227490977538, 0.0 ], [ 110.649004769610059, -7.588271589416336, 0.0 ], [ 110.649008882727813, -7.588272555184489, 0.0 ], [ 110.649006448626281, -7.588272590306505, 0.0 ], [ 110.648893660996251, -7.588276872780717, 0.0 ] ] ] ] } },
{ "type": "Feature", "properties": { "LSD": "Lahan Sawah yang Dilindungi di Luar Kawasan Hutan", "KESIMPULAN": "Dipertahankan" }, "geometry": { "type": "MultiPolygon", "coordinates": [ [ [ [ 110.650274627492948, -7.587071193174236, 0.0 ], [ 110.650279299827133, -7.587074542886444, 0.0 ], [ 110.650267651031001, -7.587067468027184, 0.0 ], [ 110.650274627492948, -7.587071193174236, 0.0 ] ] ] ] } },
{ "type": "Feature", "properties": { "LSD": "Lahan Sawah yang Dilindungi di Luar Kawasan Hutan", "KESIMPULAN": "Dipertahankan" }, "geometry": { "type": "MultiPolygon", "coordinates": [ [ [ [ 110.646082077044426, -7.587062174265706, 0.0 ], [ 110.646051409954651, -7.587444374966775, 0.0 ], [ 110.646000777585812, -7.587517720399053, 0.0 ], [ 110.645955092388789, -7.587585298783582, 0.0 ], [ 110.64590369647766, -7.587650020446797, 0.0 ], [ 110.645850396842206, -7.587694753479195, 0.0 ], [ 110.645799952435624, -7.587729968376375, 0.0 ], [ 110.645777108654542, -7.587758523794264, 0.0 ], [ 110.645749507819616, -7.587804207629412, 0.0 ], [ 110.645725713577505, -7.587836570451355, 0.0 ], [ 110.645692400752949, -7.58786988163225, 0.0 ], [ 110.645660991818843, -7.587890820938026, 0.0 ], [ 110.64564005271157, -7.587899387208676, 0.0 ], [ 110.645657740104753, -7.587313643610176, 0.0 ], [ 110.645726743979026, -7.587319591203206, 0.0 ], [ 110.645738640700642, -7.587155408568152, 0.0 ], [ 110.645657739794558, -7.587142322477528, 0.0 ], [ 110.645667256498527, -7.587032866268395, 0.0 ], [ 110.64575369593183, -7.587028742258725, 0.0 ], [ 110.645826268752216, -7.587035879518846, 0.0 ], [ 110.645965467417241, -7.587051346794349, 0.0 ], [ 110.646082077044426, -7.587062174265706, 0.0 ] ] ] ] } },
{ "type": "Feature", "properties": { "LSD": "Lahan Sawah yang Dilindungi di Luar Kawasan Hutan", "KESIMPULAN": "Dipertahankan" }, "geometry": { "type": "MultiPolygon", "coordinates": [ [ [ [ 110.649375876953059, -7.587738160677308, 0.0 ], [ 110.649375317183683, -7.587738693914302, 0.0 ], [ 110.649380664349806, -7.587711369764161, 0.0 ], [ 110.649436343775918, -7.587657115934628, 0.0 ], [ 110.649449854608335, -7.58764964162082, 0.0 ], [ 110.649409841789733, -7.587700887768849, 0.0 ], [ 110.649409572268809, -7.587701230378469, 0.0 ], [ 110.649408197484732, -7.587702922599917, 0.0 ], [ 110.649406329161778, -7.587705082983728, 0.0 ], [ 110.649406077818583, -7.587705367716401, 0.0 ], [ 110.649405673139242, -7.587705813336505, 0.0 ], [ 110.64937797733819, -7.587736016762753, 0.0 ], [ 110.649375876953059, -7.587738160677308, 0.0 ] ] ], [ [ [ 110.649811878509254, -7.587013830123577, 0.0 ], [ 110.64981166888596, -7.587014092276205, 0.0 ], [ 110.649811742448975, -7.587013927706133, 0.0 ], [ 110.649811878509254, -7.587013830123577, 0.0 ] ] ] ] } },
{ "type": "Feature", "properties": { "LSD": "Lahan Sawah yang Dilindungi di Luar Kawasan Hutan", "KESIMPULAN": "Dipertahankan" }, "geometry": { "type": "MultiPolygon", "coordinates": [ [ [ [ 110.649847926423945, -7.586987842291675, 0.0 ], [ 110.649848610354312, -7.5869873507635, 0.0 ], [ 110.649869628303904, -7.586975307232028, 0.0 ], [ 110.649870876874374, -7.586974983501432, 0.0 ], [ 110.649847926423945, -7.586987842291675, 0.0 ] ] ] ] } },
{ "type": "Feature", "properties": { "LSD": "Lahan Sawah yang Dilindungi di Luar Kawasan Hutan", "KESIMPULAN": "Dipertahankan" }, "geometry": { "type": "MultiPolygon", "coordinates": [ [ [ [ 110.649375317183683, -7.587738693914302, 0.0 ], [ 110.649375876953059, -7.587738160677308, 0.0 ], [ 110.64937797733819, -7.587736016762753, 0.0 ], [ 110.649405673139242, -7.587705813336505, 0.0 ], [ 110.649406077818583, -7.587705367716401, 0.0 ], [ 110.649406329161778, -7.587705082983728, 0.0 ], [ 110.649408197484732, -7.587702922599917, 0.0 ], [ 110.649409572268809, -7.587701230378469, 0.0 ], [ 110.649409841789733, -7.587700887768849, 0.0 ], [ 110.649449854608335, -7.58764964162082, 0.0 ], [ 110.649503444457679, -7.587619996366922, 0.0 ], [ 110.649564833265345, -7.587565745311968, 0.0 ], [ 110.649640421263371, -7.587457699045572, 0.0 ], [ 110.649665405291003, -7.5874065375543, 0.0 ], [ 110.649693960172144, -7.587336344353876, 0.0 ], [ 110.649714185560086, -7.587269720154051, 0.0 ], [ 110.649742737885802, -7.587214991246311, 0.0 ], [ 110.649773670559725, -7.587165024029899, 0.0 ], [ 110.64978913829539, -7.587119814084463, 0.0 ], [ 110.649787948698389, -7.587066277849837, 0.0 ], [ 110.64981166888596, -7.587014092276205, 0.0 ], [ 110.649811878509254, -7.587013830123577, 0.0 ], [ 110.649847926423945, -7.586987842291675, 0.0 ], [ 110.649870876874374, -7.586974983501432, 0.0 ], [ 110.649931905368533, -7.586959200175315, 0.0 ], [ 110.649976634334024, -7.58696795972061, 0.0 ], [ 110.649950749589436, -7.586968260909202, 0.0 ], [ 110.64990641890833, -7.586981540298822, 0.0 ], [ 110.649832060166048, -7.587038230505544, 0.0 ], [ 110.649815079826197, -7.587123289475328, 0.0 ], [ 110.649732348089202, -7.587286600240104, 0.0 ], [ 110.64956820972715, -7.587676019806728, 0.0 ], [ 110.649358785204043, -7.587798324327166, 0.0 ], [ 110.649367814392349, -7.587777042870092, 0.0 ], [ 110.649375317183683, -7.587738693914302, 0.0 ] ] ] ] } },
{ "type": "Feature", "properties": { "LSD": "Lahan Sawah yang Dilindungi di Luar Kawasan Hutan", "KESIMPULAN": "Dipertahankan" }, "geometry": { "type": "MultiPolygon", "coordinates": [ [ [ [ 110.647942330555111, -7.586938470023635, 0.0 ], [ 110.647993199952012, -7.587154058851969, 0.0 ], [ 110.647874702224797, -7.587174045883917, 0.0 ], [ 110.647729080622071, -7.587199743991363, 0.0 ], [ 110.647640564110304, -7.587194034182279, 0.0 ], [ 110.647549193155172, -7.587186896461104, 0.0 ], [ 110.647482091787722, -7.587186895443621, 0.0 ], [ 110.647195128592372, -7.587171192113259, 0.0 ], [ 110.647032017267762, -7.587166581301013, 0.0 ], [ 110.646912091529231, -7.587142310587588, 0.0 ], [ 110.646852129044575, -7.587118039691631, 0.0 ], [ 110.646713645627301, -7.587078065230476, 0.0 ], [ 110.646733631745548, -7.587025241809637, 0.0 ], [ 110.646887821996359, -7.587029523465963, 0.0 ], [ 110.646969199694453, -7.58703380747806, 0.0 ], [ 110.647070564175124, -7.587026667771212, 0.0 ], [ 110.647159437036464, -7.587035561117352, 0.0 ], [ 110.647263658458328, -7.587051265540047, 0.0 ], [ 110.647420701299623, -7.587026995191128, 0.0 ], [ 110.647517783944195, -7.587031278264337, 0.0 ], [ 110.647580810276622, -7.587021382840007, 0.0 ], [ 110.647618059215404, -7.587019119972408, 0.0 ], [ 110.647720418548388, -7.587011509645639, 0.0 ], [ 110.647811312418483, -7.586968752516595, 0.0 ], [ 110.647856142544455, -7.586955612144919, 0.0 ], [ 110.647866020589163, -7.586948477765693, 0.0 ], [ 110.647942330555111, -7.586938470023635, 0.0 ] ] ] ] } },
{ "type": "Feature", "properties": { "LSD": "Lahan Sawah yang Dilindungi di Luar Kawasan Hutan", "KESIMPULAN": "Dipertahankan" }, "geometry": { "type": "MultiPolygon", "coordinates": [ [ [ [ 110.648420670309662, -7.586859034393243, 0.0 ], [ 110.648396400137898, -7.586983242938252, 0.0 ], [ 110.648363563716842, -7.587124583185383, 0.0 ], [ 110.648199379418145, -7.587121727687701, 0.0 ], [ 110.648052329682756, -7.587118871522025, 0.0 ], [ 110.648016638119586, -7.586910431028822, 0.0 ], [ 110.648018770014659, -7.586907444099809, 0.0 ], [ 110.648055030541727, -7.586911090765963, 0.0 ], [ 110.648190459914588, -7.586887460256155, 0.0 ], [ 110.648416839512663, -7.586860960715372, 0.0 ], [ 110.648417052875516, -7.586858326819431, 0.0 ], [ 110.648420670309662, -7.586859034393243, 0.0 ] ] ] ] } },
{ "type": "Feature", "properties": { "LSD": "Lahan Sawah yang Dilindungi di Luar Kawasan Hutan", "KESIMPULAN": "Dipertahankan" }, "geometry": { "type": "MultiPolygon", "coordinates": [ [ [ [ 110.645119650575779, -7.587114942421569, 0.0 ], [ 110.645096295611367, -7.587563626620985, 0.0 ], [ 110.644909191308784, -7.587582619716895, 0.0 ], [ 110.644922875641257, -7.587171321086569, 0.0 ], [ 110.64497773757968, -7.587178178088413, 0.0 ], [ 110.644992347728305, -7.587112559945391, 0.0 ], [ 110.645119650575779, -7.587114942421569, 0.0 ] ] ] ] } },
{ "type": "Feature", "properties": { "LSD": "Lahan Sawah yang Dilindungi di Luar Kawasan Hutan", "KESIMPULAN": "Dipertahankan" }, "geometry": { "type": "MultiPolygon", "coordinates": [ [ [ [ 110.644922875641257, -7.587171321086569, 0.0 ], [ 110.644909191308784, -7.587582619716895, 0.0 ], [ 110.645096295611367, -7.587563626620985, 0.0 ], [ 110.645119650575779, -7.587114942421569, 0.0 ], [ 110.645119331886917, -7.587006040838571, 0.0 ], [ 110.645504804411161, -7.587021505625297, 0.0 ], [ 110.64548481843606, -7.587534566255628, 0.0 ], [ 110.645468399447168, -7.588035680592532, 0.0 ], [ 110.645381191733748, -7.588089896418569, 0.0 ], [ 110.645301240299901, -7.588134869058758, 0.0 ], [ 110.645205586386325, -7.588205539069707, 0.0 ], [ 110.645165612832216, -7.58822481239311, 0.0 ], [ 110.645107791902745, -7.588235520377989, 0.0 ], [ 110.645031410322304, -7.588244086592405, 0.0 ], [ 110.644967911309536, -7.588255270242424, 0.0 ], [ 110.644934598872496, -7.588264787917887, 0.0 ], [ 110.644900096776382, -7.588294530492925, 0.0 ], [ 110.644852507726569, -7.58832546453134, 0.0 ], [ 110.644810867415714, -7.588340930087559, 0.0 ], [ 110.644733533161215, -7.588334980963899, 0.0 ], [ 110.644600284921111, -7.588300479046161, 0.0 ], [ 110.644511053469444, -7.588289771240106, 0.0 ], [ 110.644407548632131, -7.588261219326344, 0.0 ], [ 110.643987984470598, -7.588142150329996, 0.0 ], [ 110.643760508375195, -7.588074573706496, 0.0 ], [ 110.643509999720251, -7.587999383433613, 0.0 ], [ 110.643374300964425, -7.587963098973775, 0.0 ], [ 110.643385155104795, -7.587819910337808, 0.0 ], [ 110.643456082142293, -7.586884174590819, 0.0 ], [ 110.64353331059597, -7.586854216587832, 0.0 ], [ 110.643635151178458, -7.586838034321586, 0.0 ], [ 110.643732232984661, -7.586833276293643, 0.0 ], [ 110.643885470249742, -7.58682661310141, 0.0 ], [ 110.643891181147353, -7.586921791545042, 0.0 ], [ 110.643957806638042, -7.586922744318127, 0.0 ], [ 110.643964469148386, -7.586820903094322, 0.0 ], [ 110.64399854288888, -7.586823631991368, 0.0 ], [ 110.644108948431068, -7.586835052819976, 0.0 ], [ 110.644151779882961, -7.586842666237769, 0.0 ], [ 110.644190802226461, -7.586865509259225, 0.0 ], [ 110.644305016203859, -7.586946411201684, 0.0 ], [ 110.644362124446587, -7.586972110210608, 0.0 ], [ 110.644418279204956, -7.58698543410557, 0.0 ], [ 110.644479193060903, -7.586996855079691, 0.0 ], [ 110.644611634524182, -7.587004296563018, 0.0 ], [ 110.644617582759594, -7.587028091249005, 0.0 ], [ 110.644612823402042, -7.587105422382971, 0.0 ], [ 110.644675879954931, -7.587101854777805, 0.0 ], [ 110.644686586286397, -7.58700786657791, 0.0 ], [ 110.644834113773143, -7.587015002819559, 0.0 ], [ 110.644897450338249, -7.58701928967105, 0.0 ], [ 110.644892075400818, -7.58716747147473, 0.0 ], [ 110.644922875641257, -7.587171321086569, 0.0 ] ] ] ] } },
{ "type": "Feature", "properties": { "LSD": "Lahan Sawah yang Dilindungi di Luar Kawasan Hutan", "KESIMPULAN": "Dipertahankan" }, "geometry": { "type": "MultiPolygon", "coordinates": [ [ [ [ 110.646075573248567, -7.5867164566239, 0.0 ], [ 110.646060107486164, -7.587013887456838, 0.0 ], [ 110.646023224957403, -7.587011508306308, 0.0 ], [ 110.646027983156188, -7.58693417623956, 0.0 ], [ 110.645964926893882, -7.586932986076941, 0.0 ], [ 110.64596016908088, -7.587003180289625, 0.0 ], [ 110.645905441668219, -7.586996995606774, 0.0 ], [ 110.645829773535056, -7.586987001964528, 0.0 ], [ 110.645803705125005, -7.586985760488202, 0.0 ], [ 110.645836344185611, -7.586519226919851, 0.0 ], [ 110.645841196143593, -7.586520150804471, 0.0 ], [ 110.645897113955172, -7.586542754157655, 0.0 ], [ 110.645973256397781, -7.586603431361828, 0.0 ], [ 110.646024415180023, -7.58665339998379, 0.0 ], [ 110.646075573248567, -7.5867164566239, 0.0 ] ] ] ] } },
{ "type": "Feature", "properties": { "LSD": "Lahan Sawah yang Dilindungi di Luar Kawasan Hutan", "KESIMPULAN": "Dipertahankan" }, "geometry": { "type": "MultiPolygon", "coordinates": [ [ [ [ 110.643936383050317, -7.586348595106207, 0.0 ], [ 110.643922180767873, -7.58675480512769, 0.0 ], [ 110.64391787752291, -7.586754675871187, 0.0 ], [ 110.643825078832251, -7.586767525084647, 0.0 ], [ 110.64375681165815, -7.586774239773558, 0.0 ], [ 110.643788166726679, -7.586357035366301, 0.0 ], [ 110.643854861363536, -7.586347658177768, 0.0 ], [ 110.643936383050317, -7.586348595106207, 0.0 ] ] ] ] } },
{ "type": "Feature", "properties": { "LSD": "Lahan Sawah yang Dilindungi di Luar Kawasan Hutan", "KESIMPULAN": "Dipertahankan" }, "geometry": { "type": "MultiPolygon", "coordinates": [ [ [ [ 110.644534435674018, -7.58634337744764, 0.0 ], [ 110.644572983610161, -7.586367647436009, 0.0 ], [ 110.644604391970717, -7.586404766234295, 0.0 ], [ 110.644692907223614, -7.586440457259698, 0.0 ], [ 110.644770001591709, -7.586453307038483, 0.0 ], [ 110.644891235365648, -7.586489453505737, 0.0 ], [ 110.644953101896078, -7.586495402624251, 0.0 ], [ 110.645007829142727, -7.58650611291792, 0.0 ], [ 110.645087541736387, -7.586545371486314, 0.0 ], [ 110.645141079698703, -7.586570356498513, 0.0 ], [ 110.645206513521984, -7.586607239790388, 0.0 ], [ 110.645269570727407, -7.586622704862487, 0.0 ], [ 110.645367127333074, -7.586636982334094, 0.0 ], [ 110.645474203816832, -7.586614376124546, 0.0 ], [ 110.64551822297048, -7.586594152659123, 0.0 ], [ 110.645534736564045, -7.586587457024718, 0.0 ], [ 110.645507570461945, -7.586981408904455, 0.0 ], [ 110.645504263494956, -7.586981289521161, 0.0 ], [ 110.645004576416341, -7.586958446226554, 0.0 ], [ 110.644690251182283, -7.586947412660353, 0.0 ], [ 110.644484665856027, -7.586931708901496, 0.0 ], [ 110.644399004862819, -7.586917430102343, 0.0 ], [ 110.644340470634305, -7.58689173174141, 0.0 ], [ 110.64427336868296, -7.586841764362269, 0.0 ], [ 110.64421626104776, -7.586803217028701, 0.0 ], [ 110.644166293768436, -7.586781801490037, 0.0 ], [ 110.644013532501759, -7.586757530259524, 0.0 ], [ 110.643922180767873, -7.58675480512769, 0.0 ], [ 110.643936383050317, -7.586348595106207, 0.0 ], [ 110.643979069820773, -7.586349085946005, 0.0 ], [ 110.644057591903362, -7.586323387552065, 0.0 ], [ 110.644118981485221, -7.586281986504919, 0.0 ], [ 110.644170378692706, -7.586233443039997, 0.0 ], [ 110.644207497030877, -7.586223450923528, 0.0 ], [ 110.644236050540414, -7.586232017812107, 0.0 ], [ 110.644271742688716, -7.586261998666448, 0.0 ], [ 110.644321711245738, -7.586276275435346, 0.0 ], [ 110.644387386524357, -7.586290551472533, 0.0 ], [ 110.644440207548158, -7.586311968412558, 0.0 ], [ 110.644534435674018, -7.58634337744764, 0.0 ] ] ], [ [ [ 110.643738981808298, -7.586346708470081, 0.0 ], [ 110.643780384990905, -7.586358128933204, 0.0 ], [ 110.643788166726679, -7.586357035366301, 0.0 ], [ 110.64375681165815, -7.586774239773558, 0.0 ], [ 110.643650902747879, -7.586784657618601, 0.0 ], [ 110.643529549876661, -7.58678751245054, 0.0 ], [ 110.643381071951978, -7.586850331542252, 0.0 ], [ 110.643269711499173, -7.586903153120597, 0.0 ], [ 110.643227873693732, -7.586729323748997, 0.0 ], [ 110.643227873895896, -7.586685067443496, 0.0 ], [ 110.643247861819205, -7.586548009235173, 0.0 ], [ 110.643267847618787, -7.586450926065667, 0.0 ], [ 110.643300685698819, -7.586352416999973, 0.0 ], [ 110.643342087801784, -7.586278178763629, 0.0 ], [ 110.643392056552216, -7.586223927379404, 0.0 ], [ 110.643420609388997, -7.58617824176413, 0.0 ], [ 110.64346344097568, -7.586061172148978, 0.0 ], [ 110.643491993962698, -7.58600977516119, 0.0 ], [ 110.643519119910721, -7.586016914440676, 0.0 ], [ 110.643539106927875, -7.586052605606487, 0.0 ], [ 110.643556239185727, -7.586098292489852, 0.0 ], [ 110.643574799685069, -7.586136839073129, 0.0 ], [ 110.643597641507867, -7.586176812935094, 0.0 ], [ 110.643621912708056, -7.586193946118169, 0.0 ], [ 110.643643327810665, -7.58622820925126, 0.0 ], [ 110.643660459649979, -7.586281035791417, 0.0 ], [ 110.643701862900869, -7.586321009477554, 0.0 ], [ 110.643738981808298, -7.586346708470081, 0.0 ] ] ] ] } },
{ "type": "Feature", "properties": { "LSD": "Lahan Sawah yang Dilindungi di Luar Kawasan Hutan", "KESIMPULAN": "Dipertahankan" }, "geometry": { "type": "MultiPolygon", "coordinates": [ [ [ [ 110.638240752541847, -7.585751030387716, 0.0 ], [ 110.638326413726617, -7.585798145746971, 0.0 ], [ 110.638407069814406, -7.585626079500831, 0.0 ], [ 110.638454905101653, -7.58552403021765, 0.0 ], [ 110.638549131191425, -7.585566860535163, 0.0 ], [ 110.638851396435243, -7.585688605175281, 0.0 ], [ 110.638635137428366, -7.58612390846783, 0.0 ], [ 110.638547679008667, -7.58608918951042, 0.0 ], [ 110.638538527806219, -7.586085557351441, 0.0 ], [ 110.638429847099317, -7.586042415603989, 0.0 ], [ 110.638421633855984, -7.586039155994677, 0.0 ], [ 110.638386824316783, -7.586025338011539, 0.0 ], [ 110.638348479543296, -7.586010115929765, 0.0 ], [ 110.638330972824264, -7.586003166145938, 0.0 ], [ 110.638290037118949, -7.585986915234288, 0.0 ], [ 110.638237597624311, -7.585966098505021, 0.0 ], [ 110.638201718736568, -7.585951855381611, 0.0 ], [ 110.638159576835704, -7.585935128563152, 0.0 ], [ 110.638158880845523, -7.585934851190175, 0.0 ], [ 110.63807061232842, -7.585899811253499, 0.0 ], [ 110.638069149660268, -7.58589923021633, 0.0 ], [ 110.637989971631839, -7.585867799767926, 0.0 ], [ 110.637973867780914, -7.585861407439443, 0.0 ], [ 110.637899113114457, -7.585831732780639, 0.0 ], [ 110.637882789957516, -7.585825252524416, 0.0 ], [ 110.637790231358721, -7.585788508396842, 0.0 ], [ 110.637787731048093, -7.585787516731056, 0.0 ], [ 110.637687247417489, -7.585747628079845, 0.0 ], [ 110.637675207144738, -7.585742849234164, 0.0 ], [ 110.637595582402341, -7.585711240146875, 0.0 ], [ 110.637866273482544, -7.585168549564966, 0.0 ], [ 110.638060034510673, -7.585213565020068, 0.0 ], [ 110.638230165209976, -7.585276621095185, 0.0 ], [ 110.63826347734576, -7.58529446763812, 0.0 ], [ 110.638384947562287, -7.585446934686757, 0.0 ], [ 110.638319761459471, -7.585584408213078, 0.0 ], [ 110.638240752541847, -7.585751030387716, 0.0 ] ] ] ] } },
{ "type": "Feature", "properties": { "LSD": "Lahan Sawah yang Dilindungi di Luar Kawasan Hutan", "KESIMPULAN": "Dipertahankan" }, "geometry": { "type": "MultiPolygon", "coordinates": [ [ [ [ 110.637803052885289, -7.586738630672551, 0.0 ], [ 110.63786229583161, -7.586762943801408, 0.0 ], [ 110.637950636012249, -7.586799195950339, 0.0 ], [ 110.638024996704871, -7.586829711515557, 0.0 ], [ 110.638102288155721, -7.586861430756894, 0.0 ], [ 110.63819593888573, -7.586899864541779, 0.0 ], [ 110.638280471144654, -7.586934554004548, 0.0 ], [ 110.638369731222269, -7.586971184036068, 0.0 ], [ 110.63837469555304, -7.586973221604729, 0.0 ], [ 110.638460062479652, -7.587008254554346, 0.0 ], [ 110.638460445815667, -7.587008411361126, 0.0 ], [ 110.638513895306389, -7.587030346034441, 0.0 ], [ 110.638520456417254, -7.587033038922356, 0.0 ], [ 110.638535771718665, -7.587039323839754, 0.0 ], [ 110.638537093909221, -7.587039866767422, 0.0 ], [ 110.638540417964023, -7.587041230886222, 0.0 ], [ 110.638541706624636, -7.587041759313128, 0.0 ], [ 110.638616060153737, -7.587072272965707, 0.0 ], [ 110.63862299463392, -7.587075118127744, 0.0 ], [ 110.638630977623293, -7.587078393824739, 0.0 ], [ 110.638608187486398, -7.587126894340429, 0.0 ], [ 110.63869004020242, -7.587174484080077, 0.0 ], [ 110.638717684002614, -7.587113976903745, 0.0 ], [ 110.638744686068094, -7.587125057525743, 0.0 ], [ 110.63878953454811, -7.587143461777879, 0.0 ], [ 110.638796932113877, -7.587146498183043, 0.0 ], [ 110.638864864124997, -7.587174376013635, 0.0 ], [ 110.638867735066114, -7.587175554319862, 0.0 ], [ 110.638953679346898, -7.587210822839863, 0.0 ], [ 110.639046621562827, -7.587248964592793, 0.0 ], [ 110.639105098891292, -7.587272961232898, 0.0 ], [ 110.639125124803783, -7.587281179456368, 0.0 ], [ 110.639125741947282, -7.587281433244028, 0.0 ], [ 110.639171435975555, -7.587300184604575, 0.0 ], [ 110.639187751776902, -7.587306880093612, 0.0 ], [ 110.639134657469256, -7.587468898021665, 0.0 ], [ 110.638926014542534, -7.588047682883357, 0.0 ], [ 110.638807041108876, -7.588367719832842, 0.0 ], [ 110.638785626620958, -7.588531903286134, 0.0 ], [ 110.638774918649574, -7.5885426097547, 0.0 ], [ 110.638738035973134, -7.588541420377141, 0.0 ], [ 110.63869996451686, -7.588506917944569, 0.0 ], [ 110.638658326418238, -7.588464089730152, 0.0 ], [ 110.638624418181593, -7.588422645574257, 0.0 ], [ 110.63856136264782, -7.58838457469917, 0.0 ], [ 110.638473321953128, -7.588345312548022, 0.0 ], [ 110.638388850196307, -7.588320329946301, 0.0 ], [ 110.638296051583453, -7.58829891430064, 0.0 ], [ 110.638174699245596, -7.588294154878827, 0.0 ], [ 110.638025983413712, -7.588282257412569, 0.0 ], [ 110.637951030343871, -7.58827036071317, 0.0 ], [ 110.637698649094091, -7.588192790212514, 0.0 ], [ 110.637501629654039, -7.588127117208837, 0.0 ], [ 110.637410257401413, -7.588080479040809, 0.0 ], [ 110.637335066539507, -7.588053830550585, 0.0 ], [ 110.637226563856743, -7.588050973914144, 0.0 ], [ 110.63717910124258, -7.588055288516207, 0.0 ], [ 110.637795520305062, -7.586735539865313, 0.0 ], [ 110.637803052885289, -7.586738630672551, 0.0 ] ] ] ] } },
{ "type": "Feature", "properties": { "LSD": "Lahan Sawah yang Dilindungi di Luar Kawasan Hutan", "KESIMPULAN": "Dipertahankan" }, "geometry": { "type": "MultiPolygon", "coordinates": [ [ [ [ 110.638922960837746, -7.585544554406304, 0.0 ], [ 110.638911106993007, -7.585568415788854, 0.0 ], [ 110.638865924530322, -7.585659362100133, 0.0 ], [ 110.638842332381216, -7.585648961832375, 0.0 ], [ 110.638699565487599, -7.585593282753342, 0.0 ], [ 110.638519678928432, -7.585513332503182, 0.0 ], [ 110.638451150821794, -7.58547335841715, 0.0 ], [ 110.638405047722486, -7.585407367139886, 0.0 ], [ 110.638297972898755, -7.585283633514941, 0.0 ], [ 110.638274177732043, -7.585251511051754, 0.0 ], [ 110.638146877419842, -7.585199163474997, 0.0 ], [ 110.637980314948734, -7.585159902862835, 0.0 ], [ 110.637817197233488, -7.585124036234969, 0.0 ], [ 110.637744623336758, -7.585089534853378, 0.0 ], [ 110.63765896360843, -7.585066930129282, 0.0 ], [ 110.637564973470617, -7.585059790870003, 0.0 ], [ 110.637497161494835, -7.585051464015394, 0.0 ], [ 110.637426965228698, -7.585032428844345, 0.0 ], [ 110.637231848676578, -7.584934869069698, 0.0 ], [ 110.637230474821592, -7.584934182153686, 0.0 ], [ 110.637323793171205, -7.584716422839925, 0.0 ], [ 110.637347556184537, -7.58473905420367, 0.0 ], [ 110.637401808093855, -7.58479616059596, 0.0 ], [ 110.637467481595024, -7.584834708689769, 0.0 ], [ 110.637544576437833, -7.584860408033997, 0.0 ], [ 110.63761738753368, -7.584878965948953, 0.0 ], [ 110.637697336415783, -7.584898955376205, 0.0 ], [ 110.637791564457174, -7.584917513912481, 0.0 ], [ 110.637870086512905, -7.584941785191046, 0.0 ], [ 110.637992865396711, -7.585002223949362, 0.0 ], [ 110.638084237886616, -7.584993657853784, 0.0 ], [ 110.63816561442124, -7.584996512484082, 0.0 ], [ 110.638224149617741, -7.585032205180337, 0.0 ], [ 110.638346929163944, -7.585082174516268, 0.0 ], [ 110.638381193516778, -7.585105015892825, 0.0 ], [ 110.63841831452082, -7.585140709757897, 0.0 ], [ 110.638461143125795, -7.585153555671505, 0.0 ], [ 110.638539666562565, -7.585134997935802, 0.0 ], [ 110.638611049358602, -7.585129286179414, 0.0 ], [ 110.638698138958972, -7.58515926765284, 0.0 ], [ 110.638872314469523, -7.585329161189936, 0.0 ], [ 110.638882308352166, -7.585369136371873, 0.0 ], [ 110.638880879977904, -7.58539483451559, 0.0 ], [ 110.638873742904408, -7.585426243806893, 0.0 ], [ 110.638850900112359, -7.585461936697694, 0.0 ], [ 110.638839478738475, -7.585493343335695, 0.0 ], [ 110.638860894149303, -7.585537602930576, 0.0 ], [ 110.638912290103605, -7.585543314448287, 0.0 ], [ 110.638922960837746, -7.585544554406304, 0.0 ] ] ] ] } },
{ "type": "Feature", "properties": { "LSD": "Lahan Sawah yang Dilindungi di Luar Kawasan Hutan", "KESIMPULAN": "Dipertahankan" }, "geometry": { "type": "MultiPolygon", "coordinates": [ [ [ [ 110.637555010832358, -7.585555675264969, 0.0 ], [ 110.637497840176948, -7.585672439203978, 0.0 ], [ 110.637492828685296, -7.58567044952821, 0.0 ], [ 110.637491947822909, -7.585670099635696, 0.0 ], [ 110.637469089801769, -7.585661025985099, 0.0 ], [ 110.637424564557691, -7.585643351850983, 0.0 ], [ 110.63735939342628, -7.58561748151008, 0.0 ], [ 110.637313348433395, -7.585599202759448, 0.0 ], [ 110.637261592340067, -7.585578656948387, 0.0 ], [ 110.637210321994573, -7.585558304206795, 0.0 ], [ 110.637160653880272, -7.585538587793812, 0.0 ], [ 110.637153734763459, -7.585535841219257, 0.0 ], [ 110.637069981287453, -7.585502593158718, 0.0 ], [ 110.637063208075091, -7.58549990550058, 0.0 ], [ 110.637002662419135, -7.58547587159667, 0.0 ], [ 110.636998660681115, -7.585475123808086, 0.0 ], [ 110.637216001826502, -7.584967955011356, 0.0 ], [ 110.637438398184955, -7.585067427484073, 0.0 ], [ 110.637488367340922, -7.585080513722999, 0.0 ], [ 110.637554992662416, -7.585088842304142, 0.0 ], [ 110.637614478279644, -7.585094789564726, 0.0 ], [ 110.637754535176811, -7.585137508972664, 0.0 ], [ 110.637555010832358, -7.585555675264969, 0.0 ] ] ] ] } },
{ "type": "Feature", "properties": { "LSD": "Lahan Sawah yang Dilindungi di Luar Kawasan Hutan", "KESIMPULAN": "Dipertahankan" }, "geometry": { "type": "MultiPolygon", "coordinates": [ [ [ [ 110.649714873426674, -7.590185128036731, 0.0 ], [ 110.649719054409388, -7.590537994349631, 0.0 ], [ 110.649719083842541, -7.590539711221469, 0.0 ], [ 110.648641036835159, -7.590574208452276, 0.0 ], [ 110.648673837152103, -7.590564728980225, 0.0 ], [ 110.648705398932606, -7.590557715229838, 0.0 ], [ 110.648751007511635, -7.590547581253363, 0.0 ], [ 110.64878501741417, -7.590540024932274, 0.0 ], [ 110.648837921334263, -7.590531706857914, 0.0 ], [ 110.648897529133066, -7.590522337669802, 0.0 ], [ 110.648995442102745, -7.590513182125097, 0.0 ], [ 110.649010935304048, -7.590511732871768, 0.0 ], [ 110.649124783527341, -7.590508256304934, 0.0 ], [ 110.649167539824376, -7.590509631366331, 0.0 ], [ 110.649238625965282, -7.590511917557997, 0.0 ], [ 110.649310726457685, -7.590518776184388, 0.0 ], [ 110.649335174005131, -7.59049115356729, 0.0 ], [ 110.649336433312385, -7.590489899058827, 0.0 ], [ 110.649415778727857, -7.590410855076283, 0.0 ], [ 110.649501278196098, -7.590335763523743, 0.0 ], [ 110.64952295465848, -7.590319016856134, 0.0 ], [ 110.649591335836547, -7.590266180757399, 0.0 ], [ 110.649685592440861, -7.590202374233788, 0.0 ], [ 110.649714873426674, -7.590185128036731, 0.0 ] ] ], [ [ [ 110.650213015737052, -7.590523905626419, 0.0 ], [ 110.650042417702863, -7.59052936481159, 0.0 ], [ 110.65002908044103, -7.590033951108851, 0.0 ], [ 110.650096977943178, -7.590009620728932, 0.0 ], [ 110.650206382216311, -7.589978002256574, 0.0 ], [ 110.650241568964688, -7.589970184443721, 0.0 ], [ 110.650241568647203, -7.589988527040242, 0.0 ], [ 110.650284400193229, -7.590031356065785, 0.0 ], [ 110.650370059177902, -7.590088462680111, 0.0 ], [ 110.650370059859199, -7.590152709711339, 0.0 ], [ 110.650298675739776, -7.590245507732963, 0.0 ], [ 110.65022729208286, -7.590366860780653, 0.0 ], [ 110.650213015737052, -7.590523905626419, 0.0 ] ] ] ] } },
{ "type": "Feature", "properties": { "LSD": "Lahan Sawah yang Dilindungi di Luar Kawasan Hutan", "KESIMPULAN": "Dipertahankan" }, "geometry": { "type": "MultiPolygon", "coordinates": [ [ [ [ 110.650241568964688, -7.589970184443721, 0.0 ], [ 110.650206382216311, -7.589978002256574, 0.0 ], [ 110.650096977943178, -7.590009620728932, 0.0 ], [ 110.65002908044103, -7.590033951108851, 0.0 ], [ 110.64998977832677, -7.590048033262597, 0.0 ], [ 110.649885207752163, -7.590093085521586, 0.0 ], [ 110.64987463486527, -7.590098451880934, 0.0 ], [ 110.649783678838119, -7.590144600546914, 0.0 ], [ 110.649714873426674, -7.590185128036731, 0.0 ], [ 110.649685592440861, -7.590202374233788, 0.0 ], [ 110.649591335836547, -7.590266180757399, 0.0 ], [ 110.64952295465848, -7.590319016856134, 0.0 ], [ 110.649501278196098, -7.590335763523743, 0.0 ], [ 110.649415778727857, -7.590410855076283, 0.0 ], [ 110.649336433312385, -7.590489899058827, 0.0 ], [ 110.649335174005131, -7.59049115356729, 0.0 ], [ 110.649310726457685, -7.590518776184388, 0.0 ], [ 110.649238625965282, -7.590511917557997, 0.0 ], [ 110.649167539824376, -7.590509631366331, 0.0 ], [ 110.649124783527341, -7.590508256304934, 0.0 ], [ 110.649010935304048, -7.590511732871768, 0.0 ], [ 110.648995442102745, -7.590513182125097, 0.0 ], [ 110.648897529133066, -7.590522337669802, 0.0 ], [ 110.648837921334263, -7.590531706857914, 0.0 ], [ 110.64878501741417, -7.590540024932274, 0.0 ], [ 110.648751007511635, -7.590547581253363, 0.0 ], [ 110.648705398932606, -7.590557715229838, 0.0 ], [ 110.648673837152103, -7.590564728980225, 0.0 ], [ 110.648641036835159, -7.590574208452276, 0.0 ], [ 110.648625177242351, -7.590574716657554, 0.0 ], [ 110.648625305951754, -7.590559109546722, 0.0 ], [ 110.648651712332693, -7.589514431622646, 0.0 ], [ 110.648652169387162, -7.589496371619444, 0.0 ], [ 110.64865274167812, -7.589473714753858, 0.0 ], [ 110.648606033623579, -7.589470381706167, 0.0 ], [ 110.648576299686582, -7.589468259102222, 0.0 ], [ 110.648582964693915, -7.589331940607837, 0.0 ], [ 110.648692539554972, -7.58936034810778, 0.0 ], [ 110.648842445759783, -7.589553085449158, 0.0 ], [ 110.648970936508078, -7.589731544216108, 0.0 ], [ 110.649142257081408, -7.589838620074563, 0.0 ], [ 110.649113704391453, -7.589988526349168, 0.0 ], [ 110.64932071818744, -7.589917142068887, 0.0 ], [ 110.649513453899928, -7.589824343466121, 0.0 ], [ 110.649713328492453, -7.589752959568199, 0.0 ], [ 110.649806127926439, -7.589681576176567, 0.0 ], [ 110.650020279327507, -7.589752958928556, 0.0 ], [ 110.650220153488178, -7.589767236293499, 0.0 ], [ 110.650241569299027, -7.589895727684325, 0.0 ], [ 110.650241568964688, -7.589970184443721, 0.0 ] ] ] ] } },
{ "type": "Feature", "properties": { "LSD": "Lahan Sawah yang Dilindungi di Luar Kawasan Hutan", "KESIMPULAN": "Sawah" }, "geometry": { "type": "MultiPolygon", "coordinates": [ [ [ [ 110.643578725919923, -7.588857996325269, 0.0 ], [ 110.643548213267437, -7.588857065851279, 0.0 ], [ 110.643514955662482, -7.58885605352373, 0.0 ], [ 110.643458491483727, -7.588853835387156, 0.0 ], [ 110.64345645816816, -7.588853755023454, 0.0 ], [ 110.643454647855208, -7.588853683888135, 0.0 ], [ 110.643437829258971, -7.588853023338685, 0.0 ], [ 110.643578725919923, -7.588857996325269, 0.0 ] ] ] ] } }
]
}
