{
"type": "FeatureCollection",
"name": "pendidikan",
"crs": { "type": "name", "properties": { "name": "urn:ogc:def:crs:EPSG::32749" } },
"features": [
{ "type": "Feature", "properties": { "OBJECTID": 172, "X": 110.64313132700001, "Y": -7.5913893078400001, "KODE": "PNPLWN0001", "DESA": "Wunut", "Klasif_Top": "Toponim Pendidikan dan IPTEK", "Jenis": "Pendidikan", "Jenis_Utam": "Fasilitas Umum dan Sosial", "Keg_Objek": "Pendidikan Lain", "Toponim": "RUMAH BELAJAR AR RAWHA", "KODE_JNS": "PN", "KODE_DS": "WN", "KODE_BGNN": "PL", "KODE_KEG": "PNPL", "FOTO": "PNPLWN0001.png", "ID_DESA": "3310192018", "SUMBER": "Geotagging dan Observasi Kelompok C2" }, "geometry": { "type": "Point", "coordinates": [ 460634.95160000026226, 9160858.058900000527501, 0.0 ] } },
{ "type": "Feature", "properties": { "OBJECTID": 173, "X": 110.6406967, "Y": -7.5905070001999997, "KODE": "PNSDWN0001", "DESA": "Wunut", "Klasif_Top": "Toponim Pendidikan dan IPTEK", "Jenis": "Pendidikan", "Jenis_Utam": "Fasilitas Umum dan Sosial", "Keg_Objek": "SD / Setingkat", "Toponim": "SD NEGERI WUNUT", "KODE_JNS": "PN", "KODE_DS": "WN", "KODE_BGNN": "SD", "KODE_KEG": "PNSD", "FOTO": "PNSDWN0001.png", "ID_DESA": "3310192018", "SUMBER": "Geotagging dan Observasi Kelompok C2" }, "geometry": { "type": "Point", "coordinates": [ 460366.3114, 9160955.377699999138713, 0.0 ] } },
{ "type": "Feature", "properties": { "OBJECTID": 174, "X": 110.64095710300001, "Y": -7.5867676587000004, "KODE": "PNSDWN0002", "DESA": "Wunut", "Klasif_Top": "Toponim Pendidikan dan IPTEK", "Jenis": "Pendidikan", "Jenis_Utam": "Fasilitas Umum dan Sosial", "Keg_Objek": "SD / Setingkat", "Toponim": "BUSTANUL ATHFAL 'AISSYAH WUNUT", "KODE_JNS": "PN", "KODE_DS": "WN", "KODE_BGNN": "SD", "KODE_KEG": "PNSD", "FOTO": "PNSDWN0002.png", "ID_DESA": "3310192018", "SUMBER": "Geotagging dan Observasi Kelompok C2" }, "geometry": { "type": "Point", "coordinates": [ 460394.693900000303984, 9161368.791300000622869, 0.0 ] } },
{ "type": "Feature", "properties": { "OBJECTID": 175, "X": 110.641348, "Y": -7.5867590000299998, "KODE": "PNSDWN0003", "DESA": "Wunut", "Klasif_Top": "Toponim Pendidikan dan IPTEK", "Jenis": "Pendidikan", "Jenis_Utam": "Fasilitas Umum dan Sosial", "Keg_Objek": "SD / Setingkat", "Toponim": "Madrasah Ibtidaiyah Muhammadiyah TAHFIDZUL QUR'AN", "KODE_JNS": "PN", "KODE_DS": "WN", "KODE_BGNN": "SD", "KODE_KEG": "PNSD", "FOTO": "PNSDWN0003.png", "ID_DESA": "3310192018", "SUMBER": "Geotagging dan Observasi Kelompok C2" }, "geometry": { "type": "Point", "coordinates": [ 460437.812699999660254, 9161369.784199999645352, 0.0 ] } },
{ "type": "Feature", "properties": { "OBJECTID": 176, "X": 110.639458042, "Y": -7.58655164324, "KODE": "PNPLWN0002", "DESA": "Wunut", "Klasif_Top": "Toponim Pendidikan dan IPTEK", "Jenis": "Pendidikan", "Jenis_Utam": "Fasilitas Umum dan Sosial", "Keg_Objek": "Pendidikan Lain", "Toponim": "Bimbel Vianda Wunut", "KODE_JNS": "PN", "KODE_DS": "WN", "KODE_BGNN": "PL", "KODE_KEG": "PNPL", "FOTO": "PNPLWN0002.png", "ID_DESA": "3310192018", "SUMBER": "Geotagging dan Observasi Kelompok C2" }, "geometry": { "type": "Point", "coordinates": [ 460229.313500000163913, 9161392.5351, 0.0 ] } },
{ "type": "Feature", "properties": { "OBJECTID": 177, "X": 110.63907210399999, "Y": -7.5864514523100004, "KODE": "PNPLWN0003", "DESA": "Wunut", "Klasif_Top": "Toponim Pendidikan dan IPTEK", "Jenis": "Pendidikan", "Jenis_Utam": "Fasilitas Umum dan Sosial", "Keg_Objek": "Pendidikan Lain", "Toponim": "TPQ AL IKHLAS", "KODE_JNS": "PN", "KODE_DS": "WN", "KODE_BGNN": "PL", "KODE_KEG": "PNPL", "FOTO": "PNPLWN0003.png", "ID_DESA": "3310192018", "SUMBER": "Geotagging dan Observasi Kelompok C2" }, "geometry": { "type": "Point", "coordinates": [ 460186.731700000353158, 9161403.575899999588728, 0.0 ] } }
]
}
