{
"type": "FeatureCollection",
"name": "pendidikanfix",
"crs": { "type": "name", "properties": { "name": "urn:ogc:def:crs:OGC:1.3:CRS84" } },
"features": [
{ "type": "Feature", "properties": { "OBJECTID": 172, "X": 110.64313132700001, "Y": -7.5913893078400001, "KODE": "PNPLWN0001", "DESA": "Wunut", "Klasif_Top": "Toponim Pendidikan dan IPTEK", "Jenis": "Pendidikan", "Jenis_Utam": "Fasilitas Umum dan Sosial", "Keg_Objek": "Pendidikan Lain", "Toponim": "RUMAH BELAJAR AR RAWHA", "KODE_JNS": "PN", "KODE_DS": "WN", "KODE_BGNN": "PL", "KODE_KEG": "PNPL", "FOTO": "PNPLWN0001.png", "ID_DESA": "3310192018", "SUMBER": "Geotagging dan Observasi Kelompok C2" }, "geometry": { "type": "Point", "coordinates": [ 110.643131327291925, -7.591389308329424, 0.0 ] } },
{ "type": "Feature", "properties": { "OBJECTID": 173, "X": 110.6406967, "Y": -7.5905070001999997, "KODE": "PNSDWN0001", "DESA": "Wunut", "Klasif_Top": "Toponim Pendidikan dan IPTEK", "Jenis": "Pendidikan", "Jenis_Utam": "Fasilitas Umum dan Sosial", "Keg_Objek": "SD / Setingkat", "Toponim": "SD NEGERI WUNUT", "KODE_JNS": "PN", "KODE_DS": "WN", "KODE_BGNN": "SD", "KODE_KEG": "PNSD", "FOTO": "PNSDWN0001.png", "ID_DESA": "3310192018", "SUMBER": "Geotagging dan Observasi Kelompok C2" }, "geometry": { "type": "Point", "coordinates": [ 110.640696700061667, -7.590506999981622, 0.0 ] } },
{ "type": "Feature", "properties": { "OBJECTID": 174, "X": 110.64095710300001, "Y": -7.5867676587000004, "KODE": "PNSDWN0002", "DESA": "Wunut", "Klasif_Top": "Toponim Pendidikan dan IPTEK", "Jenis": "Pendidikan", "Jenis_Utam": "Fasilitas Umum dan Sosial", "Keg_Objek": "SD / Setingkat", "Toponim": "BUSTANUL ATHFAL 'AISSYAH WUNUT", "KODE_JNS": "PN", "KODE_DS": "WN", "KODE_BGNN": "SD", "KODE_KEG": "PNSD", "FOTO": "PNSDWN0002.png", "ID_DESA": "3310192018", "SUMBER": "Geotagging dan Observasi Kelompok C2" }, "geometry": { "type": "Point", "coordinates": [ 110.64095710262761, -7.586767658944011, 0.0 ] } },
{ "type": "Feature", "properties": { "OBJECTID": 175, "X": 110.641348, "Y": -7.5867590000299998, "KODE": "PNSDWN0003", "DESA": "Wunut", "Klasif_Top": "Toponim Pendidikan dan IPTEK", "Jenis": "Pendidikan", "Jenis_Utam": "Fasilitas Umum dan Sosial", "Keg_Objek": "SD / Setingkat", "Toponim": "Madrasah Ibtidaiyah Muhammadiyah TAHFIDZUL QUR'AN", "KODE_JNS": "PN", "KODE_DS": "WN", "KODE_BGNN": "SD", "KODE_KEG": "PNSD", "FOTO": "PNSDWN0003.png", "ID_DESA": "3310192018", "SUMBER": "Geotagging dan Observasi Kelompok C2" }, "geometry": { "type": "Point", "coordinates": [ 110.641347999400594, -7.586759000137463, 0.0 ] } },
{ "type": "Feature", "properties": { "OBJECTID": 176, "X": 110.639458042, "Y": -7.58655164324, "KODE": "PNPLWN0002", "DESA": "Wunut", "Klasif_Top": "Toponim Pendidikan dan IPTEK", "Jenis": "Pendidikan", "Jenis_Utam": "Fasilitas Umum dan Sosial", "Keg_Objek": "Pendidikan Lain", "Toponim": "Bimbel Vianda Wunut", "KODE_JNS": "PN", "KODE_DS": "WN", "KODE_BGNN": "PL", "KODE_KEG": "PNPL", "FOTO": "PNPLWN0002.png", "ID_DESA": "3310192018", "SUMBER": "Geotagging dan Observasi Kelompok C2" }, "geometry": { "type": "Point", "coordinates": [ 110.63945804150498, -7.586551642939199, 0.0 ] } },
{ "type": "Feature", "properties": { "OBJECTID": 177, "X": 110.63907210399999, "Y": -7.5864514523100004, "KODE": "PNPLWN0003", "DESA": "Wunut", "Klasif_Top": "Toponim Pendidikan dan IPTEK", "Jenis": "Pendidikan", "Jenis_Utam": "Fasilitas Umum dan Sosial", "Keg_Objek": "Pendidikan Lain", "Toponim": "TPQ AL IKHLAS", "KODE_JNS": "PN", "KODE_DS": "WN", "KODE_BGNN": "PL", "KODE_KEG": "PNPL", "FOTO": "PNPLWN0003.png", "ID_DESA": "3310192018", "SUMBER": "Geotagging dan Observasi Kelompok C2" }, "geometry": { "type": "Point", "coordinates": [ 110.639072103807607, -7.586451452663934, 0.0 ] } }
]
}
