{
"type": "FeatureCollection",
"name": "zntwunut",
"crs": { "type": "name", "properties": { "name": "urn:ogc:def:crs:OGC:1.3:CRS84" } },
"features": [
{ "type": "Feature", "properties": { "harga": "500000-1000000" }, "geometry": { "type": "MultiPolygon", "coordinates": [ [ [ [ 110.639181327003456, -7.58543459753921, 0.0 ], [ 110.639195780581389, -7.585447578506884, 0.0 ], [ 110.639201272272672, -7.585452510674035, 0.0 ], [ 110.63920166447204, -7.585452862913922, 0.0 ], [ 110.639239342509697, -7.58547837821023, 0.0 ], [ 110.639265900269223, -7.58549383285919, 0.0 ], [ 110.639297060621587, -7.585511965862264, 0.0 ], [ 110.63935991801543, -7.585548544170254, 0.0 ], [ 110.639380002514599, -7.585558169916329, 0.0 ], [ 110.639401369815332, -7.585564470673832, 0.0 ], [ 110.639423470687845, -7.585567286785443, 0.0 ], [ 110.639445739513917, -7.585566543608637, 0.0 ], [ 110.639470746925554, -7.585563696853432, 0.0 ], [ 110.639472387013612, -7.585563510106744, 0.0 ], [ 110.639514803422088, -7.585558688701402, 0.0 ], [ 110.639528928632259, -7.585558164005708, 0.0 ], [ 110.639542968653657, -7.585559786654109, 0.0 ], [ 110.639556599887129, -7.585563514768922, 0.0 ], [ 110.639569505112433, -7.585569266677383, 0.0 ], [ 110.639581386190969, -7.585576907353626, 0.0 ], [ 110.639591964962548, -7.585586260178991, 0.0 ], [ 110.639607633743879, -7.585602394152446, 0.0 ], [ 110.639645101098282, -7.58564146943472, 0.0 ], [ 110.639660139307253, -7.585657153319885, 0.0 ], [ 110.639674455076516, -7.585670573407797, 0.0 ], [ 110.639690119291146, -7.585682397166908, 0.0 ], [ 110.639736287704068, -7.585713534286259, 0.0 ], [ 110.639812761375893, -7.585765110001415, 0.0 ], [ 110.639891928388792, -7.585799041210746, 0.0 ], [ 110.639893096501353, -7.585799541492571, 0.0 ], [ 110.639921997538892, -7.585811928885735, 0.0 ], [ 110.6401487851859, -7.585873362225529, 0.0 ], [ 110.640177037171327, -7.585879182895368, 0.0 ], [ 110.640205789760785, -7.585881497014946, 0.0 ], [ 110.640313867457522, -7.585883547478055, 0.0 ], [ 110.640325599264585, -7.585883204402577, 0.0 ], [ 110.640325826810965, -7.585883198258839, 0.0 ], [ 110.64034158012322, -7.585882737297825, 0.0 ], [ 110.640369082876376, -7.585879256693742, 0.0 ], [ 110.640369562505072, -7.585879172966608, 0.0 ], [ 110.640629553242348, -7.585833456317634, 0.0 ], [ 110.640746492116165, -7.585821585643983, 0.0 ], [ 110.640827183649066, -7.585827543653904, 0.0 ], [ 110.640873157418199, -7.585834645290245, 0.0 ], [ 110.640918800318886, -7.585849380194968, 0.0 ], [ 110.640961521047359, -7.58587115826803, 0.0 ], [ 110.641000235843237, -7.585899425932283, 0.0 ], [ 110.641032943611435, -7.585932434840089, 0.0 ], [ 110.641039920738763, -7.58594070009714, 0.0 ], [ 110.641087864047122, -7.585997490587011, 0.0 ], [ 110.641089393689455, -7.585999303674472, 0.0 ], [ 110.641091136160043, -7.586001368404068, 0.0 ], [ 110.641166013753903, -7.586094169767372, 0.0 ], [ 110.641201858564671, -7.586135114458275, 0.0 ], [ 110.64122172137796, -7.586157803281911, 0.0 ], [ 110.641237056815385, -7.586172626223669, 0.0 ], [ 110.64124281242016, -7.586176578986578, 0.0 ], [ 110.641253394245467, -7.586183846241039, 0.0 ], [ 110.64127137306788, -7.586192208310682, 0.0 ], [ 110.641291953170253, -7.586197878757726, 0.0 ], [ 110.641362948664934, -7.586211221609815, 0.0 ], [ 110.641393873228736, -7.58621478392097, 0.0 ], [ 110.641424990919518, -7.586213926729372, 0.0 ], [ 110.64159551415591, -7.586197054391164, 0.0 ], [ 110.641719573412914, -7.586184778658287, 0.0 ], [ 110.641723604219308, -7.586184379451228, 0.0 ], [ 110.641765675489722, -7.586176019825875, 0.0 ], [ 110.641830329839962, -7.586138065896608, 0.0 ], [ 110.641850894438718, -7.586125993892971, 0.0 ], [ 110.641868795682257, -7.586114173423912, 0.0 ], [ 110.641885348590947, -7.586100534591167, 0.0 ], [ 110.641940854570308, -7.58604965469661, 0.0 ], [ 110.64198355063327, -7.586012294367685, 0.0 ], [ 110.641983830251974, -7.58601204969296, 0.0 ], [ 110.641988056876656, -7.586008351729216, 0.0 ], [ 110.642012238177514, -7.585987193265054, 0.0 ], [ 110.642042803896743, -7.585968635224468, 0.0 ], [ 110.642079060534783, -7.585950479869191, 0.0 ], [ 110.642117793305658, -7.585938450391522, 0.0 ], [ 110.64215797121318, -7.585932864346365, 0.0 ], [ 110.64219852351134, -7.585933872818016, 0.0 ], [ 110.642238373255594, -7.585941448688502, 0.0 ], [ 110.642276457242843, -7.585955391176841, 0.0 ], [ 110.642336604962296, -7.585983151710438, 0.0 ], [ 110.642350452063155, -7.585990605766363, 0.0 ], [ 110.642353558778638, -7.585992278147452, 0.0 ], [ 110.642415420173478, -7.586030647806997, 0.0 ], [ 110.642580334114612, -7.586132934856317, 0.0 ], [ 110.642695230017807, -7.586204180722746, 0.0 ], [ 110.64271739199215, -7.586215536446759, 0.0 ], [ 110.642721318524949, -7.586217548389279, 0.0 ], [ 110.642726958195567, -7.586220438137953, 0.0 ], [ 110.642754608507843, -7.586229307406787, 0.0 ], [ 110.642760914545789, -7.58623132884144, 0.0 ], [ 110.642796195487847, -7.586236560823601, 0.0 ], [ 110.642831859240871, -7.586235994009064, 0.0 ], [ 110.642866462503861, -7.586229734854673, 0.0 ], [ 110.642866954828634, -7.586229645707915, 0.0 ], [ 110.642889415356777, -7.586221645721359, 0.0 ], [ 110.642889824209064, -7.586221500096411, 0.0 ], [ 110.642900547471115, -7.586217680686496, 0.0 ], [ 110.642931742144981, -7.586200422945941, 0.0 ], [ 110.642959705361562, -7.586178330412396, 0.0 ], [ 110.64304621852628, -7.586097748495691, 0.0 ], [ 110.643256125700489, -7.585902231777067, 0.0 ], [ 110.643681996936607, -7.585831873517437, 0.0 ], [ 110.64322510115025, -7.586586701942764, 0.0 ], [ 110.643072802732732, -7.587517653606141, 0.0 ], [ 110.642412842570621, -7.589278908489616, 0.0 ], [ 110.643555081910137, -7.589605998541726, 0.0 ], [ 110.644113509474025, -7.588901498480046, 0.0 ], [ 110.644525772843679, -7.589273657090271, 0.0 ], [ 110.645371510955499, -7.589479562573524, 0.0 ], [ 110.645460535352726, -7.59046496627962, 0.0 ], [ 110.645015410671704, -7.590656163552071, 0.0 ], [ 110.644926385626079, -7.591038557910334, 0.0 ], [ 110.643383285355654, -7.590935605401112, 0.0 ], [ 110.643279422354553, -7.59174451598046, 0.0 ], [ 110.643035419174396, -7.591728391609477, 0.0 ], [ 110.642869618939542, -7.591693356984474, 0.0 ], [ 110.642755496764011, -7.59166924272148, 0.0 ], [ 110.64272571611005, -7.591669775449176, 0.0 ], [ 110.642696207569912, -7.591665736773933, 0.0 ], [ 110.642635354391757, -7.591652574304725, 0.0 ], [ 110.642571880845736, -7.591638845229546, 0.0 ], [ 110.642534577998816, -7.59163454323994, 0.0 ], [ 110.642504194289501, -7.591633125234494, 0.0 ], [ 110.642482083448314, -7.591632093945276, 0.0 ], [ 110.642429744347936, -7.591636805235074, 0.0 ], [ 110.642278863202591, -7.591661153836584, 0.0 ], [ 110.642063723474351, -7.591697933734072, 0.0 ], [ 110.64192631390047, -7.591674966463593, 0.0 ], [ 110.641786438782987, -7.591651586940321, 0.0 ], [ 110.641783055449068, -7.591658259772479, 0.0 ], [ 110.641765997612978, -7.591656271068715, 0.0 ], [ 110.641472075671771, -7.591918481747891, 0.0 ], [ 110.641463470591603, -7.591917743021811, 0.0 ], [ 110.641433952644249, -7.591915209433401, 0.0 ], [ 110.641423909046608, -7.591914347182549, 0.0 ], [ 110.641247714761334, -7.591888472975262, 0.0 ], [ 110.641224926347903, -7.591880134660548, 0.0 ], [ 110.641175986270923, -7.591859221639377, 0.0 ], [ 110.641113248839375, -7.591832413990894, 0.0 ], [ 110.641082324406227, -7.591816194196513, 0.0 ], [ 110.641054357396044, -7.591795302099368, 0.0 ], [ 110.641031766399323, -7.591772030936748, 0.0 ], [ 110.64103004995097, -7.591770262922121, 0.0 ], [ 110.640993604147781, -7.591726210814509, 0.0 ], [ 110.640981664147589, -7.591711779622847, 0.0 ], [ 110.640978636406373, -7.59170833257433, 0.0 ], [ 110.640928297829333, -7.591651033528898, 0.0 ], [ 110.640912650124719, -7.591633221662007, 0.0 ], [ 110.640870820079641, -7.591598219697651, 0.0 ], [ 110.640828275035076, -7.59156727045209, 0.0 ], [ 110.640781922008955, -7.591542352345511, 0.0 ], [ 110.640734497318604, -7.591520862518441, 0.0 ], [ 110.640728920501857, -7.591518336007976, 0.0 ], [ 110.640624700020879, -7.591471110747044, 0.0 ], [ 110.640584672735741, -7.591452973875901, 0.0 ], [ 110.640547760751389, -7.591434016760609, 0.0 ], [ 110.640460296931792, -7.591362121479461, 0.0 ], [ 110.64040774214979, -7.591362106335031, 0.0 ], [ 110.640359807237644, -7.591337487803935, 0.0 ], [ 110.640359316096578, -7.59133723593112, 0.0 ], [ 110.640287789881185, -7.591300501541012, 0.0 ], [ 110.640247509192108, -7.591282975005321, 0.0 ], [ 110.640205311291552, -7.591270733101366, 0.0 ], [ 110.640199271727681, -7.591269793696222, 0.0 ], [ 110.640161891333321, -7.591263979024479, 0.0 ], [ 110.640117962680179, -7.591262821911497, 0.0 ], [ 110.640074246021641, -7.591267281354614, 0.0 ], [ 110.640059909654312, -7.591269678314332, 0.0 ], [ 110.639995995312944, -7.591280364265481, 0.0 ], [ 110.639944528570837, -7.591285891888354, 0.0 ], [ 110.639892767713206, -7.591285354216994, 0.0 ], [ 110.639867127770728, -7.59128206119706, 0.0 ], [ 110.639841427095902, -7.591278760888859, 0.0 ], [ 110.639791217382154, -7.591266201139581, 0.0 ], [ 110.639742831032464, -7.591247850122765, 0.0 ], [ 110.639733404613224, -7.591243626176913, 0.0 ], [ 110.639662189931144, -7.591211718652957, 0.0 ], [ 110.639582041822166, -7.591175809193638, 0.0 ], [ 110.63953711546192, -7.591155679953936, 0.0 ], [ 110.639506156547668, -7.591141809153778, 0.0 ], [ 110.639414962653007, -7.591100949822037, 0.0 ], [ 110.639400444804693, -7.59108941193321, 0.0 ], [ 110.639400414002367, -7.591089387484653, 0.0 ], [ 110.639400819025795, -7.591088544774996, 0.0 ], [ 110.639410889203077, -7.591067607243459, 0.0 ], [ 110.639437756022758, -7.591011744286545, 0.0 ], [ 110.639454036848207, -7.590977893044666, 0.0 ], [ 110.639487476510823, -7.590890026032254, 0.0 ], [ 110.639528438763776, -7.590782497505385, 0.0 ], [ 110.63955569861065, -7.590710764439359, 0.0 ], [ 110.639574714294014, -7.590660799899143, 0.0 ], [ 110.63960626092053, -7.590557824323596, 0.0 ], [ 110.639614051219553, -7.59053239377775, 0.0 ], [ 110.639620552527816, -7.59051117105972, 0.0 ], [ 110.639655756113399, -7.590396259282722, 0.0 ], [ 110.639665505341057, -7.590364435152045, 0.0 ], [ 110.639694131247197, -7.590270991160625, 0.0 ], [ 110.639711840739992, -7.590213183937617, 0.0 ], [ 110.639715637708207, -7.59020079015138, 0.0 ], [ 110.639715937130902, -7.590199386529413, 0.0 ], [ 110.639716777460507, -7.59019725699766, 0.0 ], [ 110.639719045150613, -7.590190225958064, 0.0 ], [ 110.63973089530451, -7.590153487307208, 0.0 ], [ 110.639728123396026, -7.590153108714953, 0.0 ], [ 110.639700527547475, -7.590149388021608, 0.0 ], [ 110.639658840086739, -7.590143767839031, 0.0 ], [ 110.639657436105523, -7.590143453699072, 0.0 ], [ 110.639651470783491, -7.590142649127379, 0.0 ], [ 110.639580568565449, -7.590133089803865, 0.0 ], [ 110.63953437969721, -7.590126862538958, 0.0 ], [ 110.639456978850518, -7.590116814774358, 0.0 ], [ 110.639321851661037, -7.590099273710582, 0.0 ], [ 110.639294429743501, -7.590095714146955, 0.0 ], [ 110.639197716999135, -7.590083160071569, 0.0 ], [ 110.639139222897057, -7.590075566623715, 0.0 ], [ 110.639120191080934, -7.59007309586191, 0.0 ], [ 110.639108518728989, -7.590071580992019, 0.0 ], [ 110.639106747526782, -7.590071350669109, 0.0 ], [ 110.639099982708004, -7.590070454970656, 0.0 ], [ 110.639053948765124, -7.590064359849032, 0.0 ], [ 110.639070847946542, -7.590033649749672, 0.0 ], [ 110.639076359950209, -7.590023632756159, 0.0 ], [ 110.639076829506976, -7.590022587479911, 0.0 ], [ 110.639156151872299, -7.589878625485928, 0.0 ], [ 110.639233395952388, -7.589738436459422, 0.0 ], [ 110.639234116178912, -7.589736835089347, 0.0 ], [ 110.639253100706838, -7.589702484066843, 0.0 ], [ 110.639268056806813, -7.589675424036105, 0.0 ], [ 110.639268275558109, -7.589675095863976, 0.0 ], [ 110.639269027118488, -7.589673968506895, 0.0 ], [ 110.639269477615784, -7.589672948542116, 0.0 ], [ 110.639290071965107, -7.589635574019829, 0.0 ], [ 110.639310097047783, -7.589599229312753, 0.0 ], [ 110.639310735315277, -7.589598071106709, 0.0 ], [ 110.639351790152602, -7.589497905744995, 0.0 ], [ 110.639403080424245, -7.589373144053383, 0.0 ], [ 110.639419924151909, -7.589331672394263, 0.0 ], [ 110.639422811931553, -7.589324626492771, 0.0 ], [ 110.639428512713437, -7.58930779834731, 0.0 ], [ 110.639434763548337, -7.589287969342756, 0.0 ], [ 110.639438327172726, -7.589270565936519, 0.0 ], [ 110.639441190877747, -7.589249976105279, 0.0 ], [ 110.63944256182215, -7.589232266045372, 0.0 ], [ 110.639442815940853, -7.589229746164469, 0.0 ], [ 110.639442214077008, -7.589208968025319, 0.0 ], [ 110.639439018218411, -7.589181011896107, 0.0 ], [ 110.639438624916693, -7.589177579686342, 0.0 ], [ 110.639434573322234, -7.589157190358838, 0.0 ], [ 110.639433761243552, -7.589154789899609, 0.0 ], [ 110.639429542931055, -7.589140827300699, 0.0 ], [ 110.63942667727234, -7.589133289976761, 0.0 ], [ 110.639426581388761, -7.589133037526262, 0.0 ], [ 110.63942303368998, -7.589123704998536, 0.0 ], [ 110.639422154453996, -7.589121392225479, 0.0 ], [ 110.639421123048791, -7.589118922838119, 0.0 ], [ 110.63941793202504, -7.589111283934078, 0.0 ], [ 110.639416531484855, -7.589107931394391, 0.0 ], [ 110.639415519725318, -7.58910582022729, 0.0 ], [ 110.639405809369691, -7.589085556462454, 0.0 ], [ 110.639400746953953, -7.589074991578252, 0.0 ], [ 110.639394218483204, -7.589061367175939, 0.0 ], [ 110.639387794223481, -7.58905323441644, 0.0 ], [ 110.639369187056246, -7.5890296770216, 0.0 ], [ 110.639362109868117, -7.589020716051908, 0.0 ], [ 110.639345404443205, -7.58899956635122, 0.0 ], [ 110.639335513390009, -7.588988367890393, 0.0 ], [ 110.63920528736179, -7.588915330964456, 0.0 ], [ 110.638976588249704, -7.588765799019251, 0.0 ], [ 110.638881027937913, -7.588685979480353, 0.0 ], [ 110.63886225181875, -7.588671568790102, 0.0 ], [ 110.638808397657229, -7.588630236527375, 0.0 ], [ 110.638807135801358, -7.588629084884604, 0.0 ], [ 110.638803594815045, -7.58862585268011, 0.0 ], [ 110.638802547973938, -7.5886245049274, 0.0 ], [ 110.638799608488256, -7.588620719634607, 0.0 ], [ 110.638797355626281, -7.588616491679961, 0.0 ], [ 110.638796553684926, -7.588614984928919, 0.0 ], [ 110.638795053522458, -7.58861043648235, 0.0 ], [ 110.638794519105943, -7.588608816884112, 0.0 ], [ 110.638793814140328, -7.588604080046031, 0.0 ], [ 110.638793562622141, -7.588602392841141, 0.0 ], [ 110.638793674494949, -7.588597606026548, 0.0 ], [ 110.638793713992484, -7.588595900972279, 0.0 ], [ 110.638796484719592, -7.588570519638299, 0.0 ], [ 110.637938867413297, -7.588310266806661, 0.0 ], [ 110.637234948901352, -7.58807760669906, 0.0 ], [ 110.637278498286861, -7.587931499244205, 0.0 ], [ 110.638983923995369, -7.588500574968124, 0.0 ], [ 110.640182788381551, -7.588785113408431, 0.0 ], [ 110.64200671346812, -7.589304070081305, 0.0 ], [ 110.642742823345927, -7.587618296711282, 0.0 ], [ 110.640839091082213, -7.587064758719026, 0.0 ], [ 110.640585260217975, -7.587794422343282, 0.0 ], [ 110.639011509142392, -7.587366688680222, 0.0 ], [ 110.639138425043669, -7.58678798880519, 0.0 ], [ 110.6388084442749, -7.585932517298529, 0.0 ], [ 110.639113041119316, -7.58540413787216, 0.0 ], [ 110.639181327003456, -7.58543459753921, 0.0 ] ] ] ] } },
{ "type": "Feature", "properties": { "harga": "100000-200000" }, "geometry": { "type": "MultiPolygon", "coordinates": [ [ [ [ 110.641247714761334, -7.591888472975262, 0.0 ], [ 110.641423909046608, -7.591914347182549, 0.0 ], [ 110.641381429863017, -7.591910700308192, 0.0 ], [ 110.641329468198592, -7.591906239581202, 0.0 ], [ 110.641293757816058, -7.591901255859365, 0.0 ], [ 110.641258779411459, -7.591892521546836, 0.0 ], [ 110.641247714761334, -7.591888472975262, 0.0 ] ] ], [ [ [ 110.641663910477973, -7.591893211242382, 0.0 ], [ 110.641604982996398, -7.591929892287526, 0.0 ], [ 110.641550485220208, -7.591925212249669, 0.0 ], [ 110.641547265377312, -7.591924935513805, 0.0 ], [ 110.641536788195651, -7.591924036790048, 0.0 ], [ 110.641536713863687, -7.591924030396862, 0.0 ], [ 110.641522942507279, -7.591922848543628, 0.0 ], [ 110.641472075671771, -7.591918481747891, 0.0 ], [ 110.641765997612978, -7.591656271068715, 0.0 ], [ 110.641783055449068, -7.591658259772479, 0.0 ], [ 110.641663910477973, -7.591893211242382, 0.0 ] ] ], [ [ [ 110.640460296931792, -7.591362121479461, 0.0 ], [ 110.640547760751389, -7.591434016760609, 0.0 ], [ 110.640537709870927, -7.591428854867155, 0.0 ], [ 110.640467020919459, -7.591392550861621, 0.0 ], [ 110.64040774214979, -7.591362106335031, 0.0 ], [ 110.640460296931792, -7.591362121479461, 0.0 ] ] ] ] } },
{ "type": "Feature", "properties": { "harga": "100000-200000" }, "geometry": { "type": "MultiPolygon", "coordinates": [ [ [ [ 110.643035419174396, -7.591728391609477, 0.0 ], [ 110.643279422354553, -7.59174451598046, 0.0 ], [ 110.643383285355654, -7.590935605401112, 0.0 ], [ 110.644926385626079, -7.591038557910334, 0.0 ], [ 110.645015410671704, -7.590656163552071, 0.0 ], [ 110.645460535352726, -7.59046496627962, 0.0 ], [ 110.645371510955499, -7.589479562573524, 0.0 ], [ 110.644525772843679, -7.589273657090271, 0.0 ], [ 110.644113509474025, -7.588901498480046, 0.0 ], [ 110.643555081910137, -7.589605998541726, 0.0 ], [ 110.642412842570621, -7.589278908489616, 0.0 ], [ 110.643072802732732, -7.587517653606141, 0.0 ], [ 110.64322510115025, -7.586586701942764, 0.0 ], [ 110.643681996936607, -7.585831873517437, 0.0 ], [ 110.643256125700489, -7.585902231777067, 0.0 ], [ 110.643306462750772, -7.585855344692878, 0.0 ], [ 110.643324589213194, -7.585840781732233, 0.0 ], [ 110.643460228295993, -7.585747238822155, 0.0 ], [ 110.643487827517248, -7.585731159441853, 0.0 ], [ 110.643510095630901, -7.585722402423077, 0.0 ], [ 110.643517559837804, -7.585719467095514, 0.0 ], [ 110.643548730625938, -7.585712433484999, 0.0 ], [ 110.643580611795258, -7.585710224451702, 0.0 ], [ 110.643612459037882, -7.585712889136264, 0.0 ], [ 110.64363712813028, -7.585716867684991, 0.0 ], [ 110.643666270921244, -7.585724239268783, 0.0 ], [ 110.643693694488036, -7.585736537463828, 0.0 ], [ 110.643718566936386, -7.585753388007375, 0.0 ], [ 110.643740138067997, -7.585774285543156, 0.0 ], [ 110.643757754791025, -7.585798594538401, 0.0 ], [ 110.643770884663809, -7.585825580962609, 0.0 ], [ 110.643779130384871, -7.585854430390236, 0.0 ], [ 110.643782244281937, -7.585884267008484, 0.0 ], [ 110.643784789264046, -7.586029348125471, 0.0 ], [ 110.643785383428906, -7.586037701282696, 0.0 ], [ 110.643786869721268, -7.586045942101041, 0.0 ], [ 110.643794100568215, -7.586076542804966, 0.0 ], [ 110.643794366093317, -7.586077666498356, 0.0 ], [ 110.643799031225512, -7.586097409541089, 0.0 ], [ 110.643801385770544, -7.586104807119614, 0.0 ], [ 110.643804846661126, -7.586111758753463, 0.0 ], [ 110.64380933153609, -7.586118101555105, 0.0 ], [ 110.643814733546662, -7.586123686185167, 0.0 ], [ 110.643820928604796, -7.586128381381479, 0.0 ], [ 110.643827769034615, -7.586132077571726, 0.0 ], [ 110.643835095357346, -7.586134686883375, 0.0 ], [ 110.643855626621274, -7.586140262192151, 0.0 ], [ 110.643896398932213, -7.586144951325324, 0.0 ], [ 110.643937429730343, -7.586143979049878, 0.0 ], [ 110.643977932122269, -7.586137363717282, 0.0 ], [ 110.643992213761479, -7.58613294217775, 0.0 ], [ 110.643992663519498, -7.586132803244241, 0.0 ], [ 110.644018335104036, -7.586124856925757, 0.0 ], [ 110.644068259638345, -7.586105530332917, 0.0 ], [ 110.64419158976942, -7.586073642517671, 0.0 ], [ 110.644218409786617, -7.586068081536402, 0.0 ], [ 110.644245643751219, -7.586065142295539, 0.0 ], [ 110.64433106389022, -7.586060097793013, 0.0 ], [ 110.644386538037296, -7.586059786756388, 0.0 ], [ 110.644442692593103, -7.58606548704428, 0.0 ], [ 110.644497918501145, -7.586077138545263, 0.0 ], [ 110.644551580390129, -7.586094605961662, 0.0 ], [ 110.644597898413977, -7.586115374428242, 0.0 ], [ 110.644602180240128, -7.58611729377683, 0.0 ], [ 110.644604567059659, -7.586118520496062, 0.0 ], [ 110.644655874611772, -7.586144902186129, 0.0 ], [ 110.644767309612106, -7.58620190607513, 0.0 ], [ 110.644784224928074, -7.586211629395641, 0.0 ], [ 110.644800109105574, -7.586222949319597, 0.0 ], [ 110.644873911740632, -7.586281184304225, 0.0 ], [ 110.644899512156854, -7.586299217632619, 0.0 ], [ 110.644926923486693, -7.586314368712963, 0.0 ], [ 110.645032449174252, -7.586365423874394, 0.0 ], [ 110.645080961740675, -7.586385386313963, 0.0 ], [ 110.645130473013751, -7.58639908460716, 0.0 ], [ 110.64518127834414, -7.586406737897089, 0.0 ], [ 110.645232635366185, -7.586408232508129, 0.0 ], [ 110.64526561688254, -7.586405211959386, 0.0 ], [ 110.645284891381053, -7.586403448417287, 0.0 ], [ 110.645387235391809, -7.586387821540684, 0.0 ], [ 110.645537174766446, -7.586352044641203, 0.0 ], [ 110.645699111631131, -7.586310292918093, 0.0 ], [ 110.645831056688735, -7.586280483991362, 0.0 ], [ 110.645933161961295, -7.586267362103412, 0.0 ], [ 110.64595474809019, -7.586264587616957, 0.0 ], [ 110.645972760049077, -7.586263591889026, 0.0 ], [ 110.645992044365954, -7.586265333478624, 0.0 ], [ 110.646010872240268, -7.586269847160827, 0.0 ], [ 110.646027615097864, -7.586276547266958, 0.0 ], [ 110.646057204581879, -7.586290961027975, 0.0 ], [ 110.646093607112775, -7.586311549404515, 0.0 ], [ 110.646128101858892, -7.586337097717109, 0.0 ], [ 110.646159197417347, -7.586366673059906, 0.0 ], [ 110.646186425469921, -7.586399830915559, 0.0 ], [ 110.646208775496959, -7.586435126790955, 0.0 ], [ 110.646338315708974, -7.586617083234155, 0.0 ], [ 110.646354163812745, -7.586639343682488, 0.0 ], [ 110.646469222175156, -7.586727990570569, 0.0 ], [ 110.646653843385792, -7.58681190523104, 0.0 ], [ 110.646712463452459, -7.586831456896094, 0.0 ], [ 110.646804911901256, -7.586862286898516, 0.0 ], [ 110.647139345606746, -7.586871709763551, 0.0 ], [ 110.647358921372515, -7.586842199414919, 0.0 ], [ 110.647618281894637, -7.586803418732941, 0.0 ], [ 110.647709153810766, -7.586789830835707, 0.0 ], [ 110.647898677818176, -7.586744510453185, 0.0 ], [ 110.64804501999582, -7.586708729773632, 0.0 ], [ 110.648193761897318, -7.586670556623893, 0.0 ], [ 110.648304131200888, -7.586625172929509, 0.0 ], [ 110.648399103218921, -7.586582719281049, 0.0 ], [ 110.648414136211159, -7.586577361081924, 0.0 ], [ 110.648431215348239, -7.586574135671293, 0.0 ], [ 110.648448589647884, -7.586573598840418, 0.0 ], [ 110.648465834840593, -7.58657576110101, 0.0 ], [ 110.648482534863419, -7.586580574175354, 0.0 ], [ 110.648498284590559, -7.586587917430087, 0.0 ], [ 110.648511519210544, -7.586596823534392, 0.0 ], [ 110.648553578334997, -7.586630161483453, 0.0 ], [ 110.648643256959332, -7.586721872749322, 0.0 ], [ 110.648667808708026, -7.586751068148258, 0.0 ], [ 110.648742882818553, -7.58685528575446, 0.0 ], [ 110.648800919568387, -7.58695260410694, 0.0 ], [ 110.648819551171414, -7.586989059210532, 0.0 ], [ 110.648830815578862, -7.58702070969245, 0.0 ], [ 110.648845802081681, -7.587110695314045, 0.0 ], [ 110.648847799709799, -7.587240844514633, 0.0 ], [ 110.648850506780093, -7.58727868520281, 0.0 ], [ 110.648861135822472, -7.587361617191662, 0.0 ], [ 110.6488620537814, -7.587368779306525, 0.0 ], [ 110.648874162015915, -7.587463247393521, 0.0 ], [ 110.648881625871041, -7.587500903774226, 0.0 ], [ 110.648894140276653, -7.587537200161347, 0.0 ], [ 110.648920162586734, -7.587598710206189, 0.0 ], [ 110.648936276118874, -7.587630358268453, 0.0 ], [ 110.648955956217833, -7.587658378319603, 0.0 ], [ 110.648979392781953, -7.58768335756959, 0.0 ], [ 110.64900611844071, -7.587704795420898, 0.0 ], [ 110.649009504529445, -7.587706801811446, 0.0 ], [ 110.649035603210876, -7.587722266303603, 0.0 ], [ 110.649067259027049, -7.587735422392888, 0.0 ], [ 110.649100454239004, -7.587744002666284, 0.0 ], [ 110.649135556042751, -7.587747949528055, 0.0 ], [ 110.649176332717644, -7.587746418448363, 0.0 ], [ 110.649215163503087, -7.587738724860846, 0.0 ], [ 110.649252290326459, -7.587725014594655, 0.0 ], [ 110.64928678642012, -7.58770563153879, 0.0 ], [ 110.649317782920505, -7.587681061644549, 0.0 ], [ 110.649345482349517, -7.587650856415888, 0.0 ], [ 110.649467225039757, -7.587494934846602, 0.0 ], [ 110.649484707820164, -7.587470184894049, 0.0 ], [ 110.649499736031103, -7.587443880743318, 0.0 ], [ 110.64957002231283, -7.587305895725395, 0.0 ], [ 110.649660019431394, -7.587128787314201, 0.0 ], [ 110.649663287278926, -7.587122359454012, 0.0 ], [ 110.649670922553895, -7.587107331874514, 0.0 ], [ 110.64967814192066, -7.587078617114331, 0.0 ], [ 110.649696649843634, -7.58703945748645, 0.0 ], [ 110.649721235570283, -7.586996506328857, 0.0 ], [ 110.649753129932876, -7.586956796654465, 0.0 ], [ 110.649790840786409, -7.586922539805495, 0.0 ], [ 110.649833445502452, -7.586894570847895, 0.0 ], [ 110.649879902816551, -7.586873576405077, 0.0 ], [ 110.649897246097495, -7.586868813403357, 0.0 ], [ 110.649929071884557, -7.586860071154835, 0.0 ], [ 110.649955207097079, -7.586857138413379, 0.0 ], [ 110.649978335128125, -7.586854542354865, 0.0 ], [ 110.650015456312588, -7.586853294994945, 0.0 ], [ 110.650058495318461, -7.586854396099719, 0.0 ], [ 110.650102167400718, -7.586860723333182, 0.0 ], [ 110.650144782860494, -7.586872160457236, 0.0 ], [ 110.650184742104287, -7.58688814807423, 0.0 ], [ 110.650222157194875, -7.586905751893349, 0.0 ], [ 110.650244019457233, -7.586917983703864, 0.0 ], [ 110.650263946599679, -7.586933153766209, 0.0 ], [ 110.650337141448901, -7.586997484083491, 0.0 ], [ 110.650557120915337, -7.587212393595546, 0.0 ], [ 110.650559480424633, -7.587216038141085, 0.0 ], [ 110.650570194189584, -7.587232588377026, 0.0 ], [ 110.650639345921761, -7.587312687247988, 0.0 ], [ 110.650696667914005, -7.587396507903279, 0.0 ], [ 110.650708656326231, -7.587409639935806, 0.0 ], [ 110.650719752395688, -7.587424273719907, 0.0 ], [ 110.650730345550812, -7.587436391527787, 0.0 ], [ 110.65074251917801, -7.587446931248824, 0.0 ], [ 110.650756037742454, -7.587455686454802, 0.0 ], [ 110.650770641199841, -7.587462491402898, 0.0 ], [ 110.650850308942424, -7.58749308687416, 0.0 ], [ 110.650914981414161, -7.587518242049856, 0.0 ], [ 110.650940903393874, -7.587526896850784, 0.0 ], [ 110.65096754632691, -7.587532992333494, 0.0 ], [ 110.651216047753366, -7.587577241813721, 0.0 ], [ 110.651257986581868, -7.587582489313204, 0.0 ], [ 110.651280242752321, -7.587582957911367, 0.0 ], [ 110.65128344461597, -7.587583025325716, 0.0 ], [ 110.651289824765641, -7.587583159622557, 0.0 ], [ 110.65129035961786, -7.587583170880745, 0.0 ], [ 110.651300242585435, -7.587583378908777, 0.0 ], [ 110.651336992055022, -7.587582251470653, 0.0 ], [ 110.651401499669504, -7.587580272431991, 0.0 ], [ 110.651497422796183, -7.587576997320845, 0.0 ], [ 110.651621551970266, -7.58757275913678, 0.0 ], [ 110.651645232448416, -7.587571950437361, 0.0 ], [ 110.651725982362876, -7.587561330934455, 0.0 ], [ 110.651727965179788, -7.587561070171997, 0.0 ], [ 110.651732350540243, -7.587560493448348, 0.0 ], [ 110.651803370336452, -7.587551153783389, 0.0 ], [ 110.65199499734446, -7.587539898243026, 0.0 ], [ 110.651995789692805, -7.587539851702895, 0.0 ], [ 110.652000698852092, -7.58753956335391, 0.0 ], [ 110.652189239205029, -7.587522482382487, 0.0 ], [ 110.652460777828267, -7.587483211046002, 0.0 ], [ 110.652712305098206, -7.587458969051275, 0.0 ], [ 110.653135292001537, -7.587418203573445, 0.0 ], [ 110.653166454471588, -7.587417025367212, 0.0 ], [ 110.653188697608044, -7.587417925953949, 0.0 ], [ 110.653210526403683, -7.587422285234674, 0.0 ], [ 110.653231406084871, -7.587429995140771, 0.0 ], [ 110.653250818260091, -7.587440867111237, 0.0 ], [ 110.653286483458913, -7.587464688107294, 0.0 ], [ 110.653293362048345, -7.587468685930991, 0.0 ], [ 110.653297291681014, -7.587470969826275, 0.0 ], [ 110.653308799962829, -7.587475859990029, 0.0 ], [ 110.653367792933579, -7.587496687401937, 0.0 ], [ 110.653393714517932, -7.587508168798783, 0.0 ], [ 110.653417543430649, -7.587523510079769, 0.0 ], [ 110.653498427141585, -7.587584949541921, 0.0 ], [ 110.653498608339319, -7.587585087180114, 0.0 ], [ 110.653502642446824, -7.587588151497076, 0.0 ], [ 110.653706374440588, -7.587754951255968, 0.0 ], [ 110.653740330420149, -7.587798586079485, 0.0 ], [ 110.653780467388486, -7.587870359351097, 0.0 ], [ 110.653919117914057, -7.588057504955336, 0.0 ], [ 110.653944794995198, -7.588086863789704, 0.0 ], [ 110.653974915982658, -7.588111661764682, 0.0 ], [ 110.65400867910931, -7.588131241533061, 0.0 ], [ 110.654045183686279, -7.588145080448058, 0.0 ], [ 110.654083458191579, -7.58815280867686, 0.0 ], [ 110.654122482921494, -7.588154224596211, 0.0 ], [ 110.654161219008273, -7.588149284865413, 0.0 ], [ 110.654180919301794, -7.5881434082492, 0.0 ], [ 110.654183436370545, -7.588142657325849, 0.0 ], [ 110.654198633788312, -7.588138123442244, 0.0 ], [ 110.654233731634392, -7.588121039848183, 0.0 ], [ 110.654265574816407, -7.58809848652118, 0.0 ], [ 110.65429331976695, -7.588071064321665, 0.0 ], [ 110.654366101331547, -7.587986398658713, 0.0 ], [ 110.654430498194017, -7.587909736170939, 0.0 ], [ 110.65443991292203, -7.587896914320921, 0.0 ], [ 110.654447573467564, -7.587882979376179, 0.0 ], [ 110.654453351819555, -7.58786816732448, 0.0 ], [ 110.654482218239082, -7.587777006394417, 0.0 ], [ 110.654501970585585, -7.58764566413067, 0.0 ], [ 110.654513830380679, -7.587566791659871, 0.0 ], [ 110.654517568071455, -7.587550873521502, 0.0 ], [ 110.654523895089213, -7.587535793250794, 0.0 ], [ 110.654532636140317, -7.587521964995477, 0.0 ], [ 110.654538117761817, -7.587515841344909, 0.0 ], [ 110.654543550684664, -7.587509772096502, 0.0 ], [ 110.654556339294459, -7.587499550811041, 0.0 ], [ 110.654570646380392, -7.587491582173743, 0.0 ], [ 110.654586077418784, -7.587486088392103, 0.0 ], [ 110.654595519684108, -7.587484408075045, 0.0 ], [ 110.654597559519203, -7.587484045072118, 0.0 ], [ 110.654602208029331, -7.587483217476302, 0.0 ], [ 110.654618592126667, -7.587483052291247, 0.0 ], [ 110.654627733499382, -7.587484488595361, 0.0 ], [ 110.654634776437348, -7.587485595190616, 0.0 ], [ 110.654650316810304, -7.587490777075371, 0.0 ], [ 110.654664782753215, -7.587498452874681, 0.0 ], [ 110.654677776459678, -7.587508414224566, 0.0 ], [ 110.654688936439797, -7.587520384043756, 0.0 ], [ 110.654697956545931, -7.587534031021385, 0.0 ], [ 110.654704588682321, -7.587548982283072, 0.0 ], [ 110.654773465376877, -7.587746548801654, 0.0 ], [ 110.654815683401679, -7.587892907981671, 0.0 ], [ 110.654815738935497, -7.587893100463579, 0.0 ], [ 110.65482438665677, -7.587923073725644, 0.0 ], [ 110.654840143069123, -7.587965449351194, 0.0 ], [ 110.654862115217171, -7.588004972414085, 0.0 ], [ 110.654865769362928, -7.588009692579177, 0.0 ], [ 110.654889806126079, -7.588040743389353, 0.0 ], [ 110.654920656658049, -7.588070115591062, 0.0 ], [ 110.654920973966412, -7.588070417694267, 0.0 ], [ 110.654937852006441, -7.588098872169655, 0.0 ], [ 110.655077927168932, -7.588183776477718, 0.0 ], [ 110.655135563681455, -7.588203840518733, 0.0 ], [ 110.655132952346278, -7.588208062249908, 0.0 ], [ 110.655131747827284, -7.588209987096521, 0.0 ], [ 110.655117497829977, -7.588232760681634, 0.0 ], [ 110.655018293826345, -7.588391289199692, 0.0 ], [ 110.654991035134287, -7.588426798196441, 0.0 ], [ 110.654964613174855, -7.588476268614554, 0.0 ], [ 110.654950831778777, -7.588494870392241, 0.0 ], [ 110.654946725536817, -7.588498904171612, 0.0 ], [ 110.654850817290153, -7.588636763947964, 0.0 ], [ 110.654845761158384, -7.588661878778189, 0.0 ], [ 110.654843446711808, -7.588665637888107, 0.0 ], [ 110.654825152158637, -7.588732144485859, 0.0 ], [ 110.654854071329893, -7.588733991029533, 0.0 ], [ 110.654855631286679, -7.588735275041572, 0.0 ], [ 110.654860803576852, -7.588747343111827, 0.0 ], [ 110.65485626280848, -7.58876765585726, 0.0 ], [ 110.654846360639894, -7.588811950484163, 0.0 ], [ 110.654787270633221, -7.588918167308292, 0.0 ], [ 110.654710971355613, -7.588949698374489, 0.0 ], [ 110.654630366789945, -7.588965429728877, 0.0 ], [ 110.654590073337417, -7.588961090220436, 0.0 ], [ 110.654535403122821, -7.588939506571117, 0.0 ], [ 110.654508063313074, -7.588935177347336, 0.0 ], [ 110.654496544445806, -7.588942347662622, 0.0 ], [ 110.654489324212491, -7.588972498044395, 0.0 ], [ 110.654493597393824, -7.589028504369364, 0.0 ], [ 110.654490476833146, -7.589052639086915, 0.0 ], [ 110.654486356527642, -7.58908450244896, 0.0 ], [ 110.654440273012568, -7.589123237848835, 0.0 ], [ 110.654426811147573, -7.589133582122238, 0.0 ], [ 110.654419129858141, -7.589134285584371, 0.0 ], [ 110.65440879658199, -7.589135986079049, 0.0 ], [ 110.654398897086125, -7.589139392912624, 0.0 ], [ 110.654389711570587, -7.589144409520277, 0.0 ], [ 110.654381500327645, -7.589150894093544, 0.0 ], [ 110.654374496487037, -7.589158662288191, 0.0 ], [ 110.65436572355587, -7.589178004991475, 0.0 ], [ 110.654316436785905, -7.589210733986151, 0.0 ], [ 110.654239369411172, -7.589277658761831, 0.0 ], [ 110.65415787687725, -7.589348426310602, 0.0 ], [ 110.653988578934673, -7.589442680177192, 0.0 ], [ 110.653973417319122, -7.58945239028774, 0.0 ], [ 110.653956946773562, -7.58945967514347, 0.0 ], [ 110.653951945337525, -7.589461024971893, 0.0 ], [ 110.653914714187025, -7.589460994744254, 0.0 ], [ 110.653870592994991, -7.589445641854369, 0.0 ], [ 110.653865655836867, -7.58944563837066, 0.0 ], [ 110.653862235247942, -7.589444861804333, 0.0 ], [ 110.653850484255585, -7.589444127898607, 0.0 ], [ 110.653838768921304, -7.589445282735671, 0.0 ], [ 110.65383751222376, -7.58944561568132, 0.0 ], [ 110.653830296970511, -7.589445609771698, 0.0 ], [ 110.653772722032812, -7.589457051797556, 0.0 ], [ 110.653740559896704, -7.589463711083814, 0.0 ], [ 110.653739966795783, -7.58946366515882, 0.0 ], [ 110.653734328569541, -7.589464171742939, 0.0 ], [ 110.653728853690254, -7.589465601105086, 0.0 ], [ 110.653726660809468, -7.58946658519075, 0.0 ], [ 110.653723692673694, -7.589467917182852, 0.0 ], [ 110.653718987896212, -7.589471059484352, 0.0 ], [ 110.653714870883135, -7.589474933135852, 0.0 ], [ 110.653711455939046, -7.58947943872721, 0.0 ], [ 110.653708837450495, -7.589484444268273, 0.0 ], [ 110.653707088047668, -7.589489816847109, 0.0 ], [ 110.65370625680788, -7.589495401823545, 0.0 ], [ 110.65370636651646, -7.589501047250205, 0.0 ], [ 110.653707413671683, -7.589506597540518, 0.0 ], [ 110.653707368449545, -7.589564017868456, 0.0 ], [ 110.653705460289402, -7.589583365724027, 0.0 ], [ 110.653690079083717, -7.589621646077004, 0.0 ], [ 110.653645922646916, -7.589650330580946, 0.0 ], [ 110.653600562427414, -7.589729841169163, 0.0 ], [ 110.653594848619775, -7.589735296521499, 0.0 ], [ 110.653577866246934, -7.589748891142592, 0.0 ], [ 110.653558778666607, -7.589759338941343, 0.0 ], [ 110.653538162696194, -7.589766324686777, 0.0 ], [ 110.65351664493231, -7.589769634498166, 0.0 ], [ 110.653484067312164, -7.589771775406589, 0.0 ], [ 110.653476891150277, -7.589771673344102, 0.0 ], [ 110.653412057374396, -7.589763935643185, 0.0 ], [ 110.653348392089043, -7.589749472580025, 0.0 ], [ 110.653282874431653, -7.589731986810732, 0.0 ], [ 110.653277278222163, -7.589731037638002, 0.0 ], [ 110.653275517209352, -7.589730450433123, 0.0 ], [ 110.653256628749915, -7.589727535281732, 0.0 ], [ 110.65321601288457, -7.589720646423225, 0.0 ], [ 110.653214568530942, -7.58972104452929, 0.0 ], [ 110.653181983864073, -7.589716015988734, 0.0 ], [ 110.653146234623151, -7.589722190014538, 0.0 ], [ 110.653099221771996, -7.58973030979713, 0.0 ], [ 110.653040420348248, -7.589746117040225, 0.0 ], [ 110.652966071891029, -7.589766103581188, 0.0 ], [ 110.652954249885795, -7.589770811741117, 0.0 ], [ 110.652945073982664, -7.589773429106527, 0.0 ], [ 110.652922359841412, -7.589783510027878, 0.0 ], [ 110.652841456931711, -7.589815724861563, 0.0 ], [ 110.652786120760894, -7.589837759091329, 0.0 ], [ 110.652588205967248, -7.589877090307581, 0.0 ], [ 110.652479344060424, -7.589906354356287, 0.0 ], [ 110.652423257893702, -7.589900479650747, 0.0 ], [ 110.652413122626243, -7.589899417738875, 0.0 ], [ 110.652377065874575, -7.589895641330584, 0.0 ], [ 110.6523076455031, -7.589888370167032, 0.0 ], [ 110.652249284096982, -7.589882256625721, 0.0 ], [ 110.652201785132178, -7.589877282545795, 0.0 ], [ 110.652199930718453, -7.589876575424943, 0.0 ], [ 110.652148265138351, -7.589851217356078, 0.0 ], [ 110.65209915340543, -7.589821230899332, 0.0 ], [ 110.652048141669539, -7.589805761051357, 0.0 ], [ 110.6519988626208, -7.589785445969826, 0.0 ], [ 110.651951782978458, -7.589760477795093, 0.0 ], [ 110.651907339512604, -7.589731089348588, 0.0 ], [ 110.651838846781956, -7.589674260816102, 0.0 ], [ 110.651837473234281, -7.589671878110726, 0.0 ], [ 110.651804069897011, -7.589628755566001, 0.0 ], [ 110.651770779475072, -7.589603044920553, 0.0 ], [ 110.651758470762502, -7.589593539025591, 0.0 ], [ 110.651728788313207, -7.589579211494439, 0.0 ], [ 110.651701010689536, -7.589565803612355, 0.0 ], [ 110.651570528447621, -7.589512983307175, 0.0 ], [ 110.651549949267505, -7.589504653033858, 0.0 ], [ 110.651419560003305, -7.589469259042978, 0.0 ], [ 110.651337722086069, -7.589447043542074, 0.0 ], [ 110.65128991829836, -7.589436569333215, 0.0 ], [ 110.65128800672673, -7.589436150799407, 0.0 ], [ 110.651177883364525, -7.589412021153378, 0.0 ], [ 110.651134340290582, -7.589407158931829, 0.0 ], [ 110.651092340609011, -7.589397435283437, 0.0 ], [ 110.651022820512509, -7.589388058031266, 0.0 ], [ 110.650952725840284, -7.58938521301456, 0.0 ], [ 110.650885915736495, -7.589388750683532, 0.0 ], [ 110.650840665630753, -7.589379682126569, 0.0 ], [ 110.650825652913468, -7.589376673273777, 0.0 ], [ 110.650791684667581, -7.589363083974884, 0.0 ], [ 110.650767880862972, -7.589353561683676, 0.0 ], [ 110.650714368652046, -7.589292575906162, 0.0 ], [ 110.650676333067267, -7.589262853278234, 0.0 ], [ 110.650640784692655, -7.589230207309788, 0.0 ], [ 110.65061774129002, -7.589205387616069, 0.0 ], [ 110.650601920201765, -7.58918298670295, 0.0 ], [ 110.650586193854167, -7.58915207216759, 0.0 ], [ 110.650560526893472, -7.589111518359668, 0.0 ], [ 110.650516911798718, -7.589094949818795, 0.0 ], [ 110.650472235351955, -7.589081488476801, 0.0 ], [ 110.65042672050869, -7.589071201449788, 0.0 ], [ 110.650413417205229, -7.5890708678269, 0.0 ], [ 110.650400230957928, -7.589072641009939, 0.0 ], [ 110.650387492690996, -7.589076477846282, 0.0 ], [ 110.650375523402715, -7.589082278188338, 0.0 ], [ 110.650364627809324, -7.589089897552131, 0.0 ], [ 110.650355078936755, -7.589099143486763, 0.0 ], [ 110.650347119021347, -7.589109782811543, 0.0 ], [ 110.650340947720991, -7.58912154612924, 0.0 ], [ 110.650336723013794, -7.589134137777027, 0.0 ], [ 110.650334551226621, -7.589147234913781, 0.0 ], [ 110.650337032459262, -7.589175205895604, 0.0 ], [ 110.650314467623929, -7.589238088702656, 0.0 ], [ 110.65031126210981, -7.589247021334006, 0.0 ], [ 110.650267957311627, -7.589408534871505, 0.0 ], [ 110.650271514789196, -7.589458796703018, 0.0 ], [ 110.650278033571851, -7.589485840960084, 0.0 ], [ 110.650278591577433, -7.589492113594312, 0.0 ], [ 110.650285411749309, -7.589519899820441, 0.0 ], [ 110.650287403535913, -7.589524710800033, 0.0 ], [ 110.650296615459354, -7.589562925922557, 0.0 ], [ 110.650330420245183, -7.589638582179223, 0.0 ], [ 110.650335828549075, -7.589650686031103, 0.0 ], [ 110.650341327229299, -7.589668502826699, 0.0 ], [ 110.650355677414609, -7.589717340520052, 0.0 ], [ 110.650386473065041, -7.589758981752922, 0.0 ], [ 110.650401938453328, -7.589788186407643, 0.0 ], [ 110.650402028171285, -7.589788355686179, 0.0 ], [ 110.650372845725855, -7.589845154595694, 0.0 ], [ 110.650367019549648, -7.589931309823174, 0.0 ], [ 110.65035113050169, -7.590003097122207, 0.0 ], [ 110.650374118543638, -7.590050503517119, 0.0 ], [ 110.650391336343773, -7.590113700636371, 0.0 ], [ 110.650391298334384, -7.590161863732622, 0.0 ], [ 110.650389748465372, -7.590164778728544, 0.0 ], [ 110.650353835946362, -7.590217061285601, 0.0 ], [ 110.650309178794203, -7.59027159183196, 0.0 ], [ 110.650255823185233, -7.590403659384524, 0.0 ], [ 110.650231323334921, -7.590446720079806, 0.0 ], [ 110.65020676570542, -7.590560142557082, 0.0 ], [ 110.650274316711432, -7.590670769892355, 0.0 ], [ 110.650274274938909, -7.590722463452299, 0.0 ], [ 110.650284322989677, -7.590754063171102, 0.0 ], [ 110.650303006833497, -7.590785670741593, 0.0 ], [ 110.650327432950462, -7.590831640955558, 0.0 ], [ 110.650331153348034, -7.59086461419979, 0.0 ], [ 110.65034065279265, -7.590948806126142, 0.0 ], [ 110.650336796643344, -7.590985440274988, 0.0 ], [ 110.650339348807421, -7.591022189934611, 0.0 ], [ 110.650348239471555, -7.591057946062532, 0.0 ], [ 110.650360372454841, -7.591068407972129, 0.0 ], [ 110.650373918474401, -7.591076968735678, 0.0 ], [ 110.650388585772959, -7.591083439970687, 0.0 ], [ 110.650404050830204, -7.591087674878684, 0.0 ], [ 110.650419972853214, -7.591089586348058, 0.0 ], [ 110.650436002854889, -7.591089130679409, 0.0 ], [ 110.650465495943394, -7.591098901897317, 0.0 ], [ 110.650493092534816, -7.591113155474842, 0.0 ], [ 110.650491719333459, -7.591136451222812, 0.0 ], [ 110.650493764775447, -7.591159698159899, 0.0 ], [ 110.650499185750164, -7.591182396936213, 0.0 ], [ 110.650507867514136, -7.591204067139905, 0.0 ], [ 110.650508322052588, -7.591204928139591, 0.0 ], [ 110.650518612745984, -7.591224421063751, 0.0 ], [ 110.650532523460853, -7.591242771226109, 0.0 ], [ 110.650549230182179, -7.591258627060047, 0.0 ], [ 110.650568292663806, -7.591271570306233, 0.0 ], [ 110.650589208046711, -7.591281257733232, 0.0 ], [ 110.650611419006353, -7.59128743561695, 0.0 ], [ 110.650628376444232, -7.591288069773026, 0.0 ], [ 110.650644968911266, -7.591291615402422, 0.0 ], [ 110.650660699706975, -7.591297961750126, 0.0 ], [ 110.650675095759638, -7.591306925715602, 0.0 ], [ 110.650687726680431, -7.591318231063419, 0.0 ], [ 110.650698212893246, -7.591331544611895, 0.0 ], [ 110.650708002675557, -7.591348474921886, 0.0 ], [ 110.650714720811877, -7.591366838294509, 0.0 ], [ 110.65071625825145, -7.591375423841722, 0.0 ], [ 110.650718166495096, -7.591386080075382, 0.0 ], [ 110.650718235932843, -7.591405628501466, 0.0 ], [ 110.650714927786098, -7.591424895609983, 0.0 ], [ 110.650650109559848, -7.591494249231999, 0.0 ], [ 110.650523897227046, -7.591518291287445, 0.0 ], [ 110.650443798339353, -7.591532377758575, 0.0 ], [ 110.650400602447561, -7.591561060875461, 0.0 ], [ 110.650386154868897, -7.591630457680155, 0.0 ], [ 110.650386093004514, -7.591706045080787, 0.0 ], [ 110.650386084353698, -7.59171661481592, 0.0 ], [ 110.65041487432832, -7.591752581639402, 0.0 ], [ 110.65043400891993, -7.591776486153592, 0.0 ], [ 110.65048672529251, -7.591841148252565, 0.0 ], [ 110.650518290760843, -7.591848634767006, 0.0 ], [ 110.650577854442858, -7.591862761728293, 0.0 ], [ 110.65066419397867, -7.591872403149075, 0.0 ], [ 110.650745773413888, -7.59184135830047, 0.0 ], [ 110.650824561253032, -7.591798339388219, 0.0 ], [ 110.650843534356099, -7.591730042540818, 0.0 ], [ 110.650849820457253, -7.591707414666389, 0.0 ], [ 110.651007648290914, -7.591760659291984, 0.0 ], [ 110.65105604398083, -7.591776985995136, 0.0 ], [ 110.651113612009823, -7.59177344383374, 0.0 ], [ 110.651203571718497, -7.591757957663831, 0.0 ], [ 110.651218436256372, -7.591725492358971, 0.0 ], [ 110.651240814991041, -7.591676615454136, 0.0 ], [ 110.651385234812864, -7.591683736193056, 0.0 ], [ 110.651413507241784, -7.591685130182952, 0.0 ], [ 110.651523843762774, -7.591682825203413, 0.0 ], [ 110.651564645509694, -7.591651745691778, 0.0 ], [ 110.651590457872274, -7.59167076116695, 0.0 ], [ 110.651638418307257, -7.591685159444957, 0.0 ], [ 110.651676776096309, -7.591709122944426, 0.0 ], [ 110.651715140574723, -7.591725906980544, 0.0 ], [ 110.65177749547577, -7.591735530769156, 0.0 ], [ 110.651815873440995, -7.591735561515069, 0.0 ], [ 110.651875840144243, -7.591733216092952, 0.0 ], [ 110.651878017601206, -7.59183698947264, 0.0 ], [ 110.651878150312598, -7.591843309715755, 0.0 ], [ 110.651956500704031, -7.591870652081601, 0.0 ], [ 110.651981260775159, -7.591879292332562, 0.0 ], [ 110.652012413966716, -7.591887796590054, 0.0 ], [ 110.652029334685295, -7.591892416139537, 0.0 ], [ 110.652060396337504, -7.591900894992787, 0.0 ], [ 110.652090697324667, -7.591888971046084, 0.0 ], [ 110.652090715619138, -7.592413247450367, 0.0 ], [ 110.652203803006898, -7.592421990854676, 0.0 ], [ 110.65220293428095, -7.592424544726134, 0.0 ], [ 110.652201931983043, -7.592427491873965, 0.0 ], [ 110.65218873946516, -7.592466265988754, 0.0 ], [ 110.65216619549966, -7.592532527520308, 0.0 ], [ 110.652138258740166, -7.592626599848143, 0.0 ], [ 110.65211980936472, -7.592688723593603, 0.0 ], [ 110.652081249822174, -7.592818566242732, 0.0 ], [ 110.652067449137817, -7.592865037641531, 0.0 ], [ 110.652048006183634, -7.592930509255189, 0.0 ], [ 110.65202726423783, -7.593000355167416, 0.0 ], [ 110.652023847242475, -7.593011862008786, 0.0 ], [ 110.65190493315653, -7.593412285406581, 0.0 ], [ 110.651856983305279, -7.593573747417039, 0.0 ], [ 110.651856481525328, -7.593575438535675, 0.0 ], [ 110.651828051089311, -7.593671173069408, 0.0 ], [ 110.651808442286281, -7.593693602060577, 0.0 ], [ 110.651747296900965, -7.593853719335925, 0.0 ], [ 110.651745194852992, -7.593858375140393, 0.0 ], [ 110.65174073046974, -7.593865026379475, 0.0 ], [ 110.651734333742681, -7.593871859699576, 0.0 ], [ 110.651726920753433, -7.593877581409662, 0.0 ], [ 110.651718682904942, -7.593882043315825, 0.0 ], [ 110.651709833332603, -7.593885127996525, 0.0 ], [ 110.651700605989959, -7.593886758751991, 0.0 ], [ 110.651691233900664, -7.593886887827453, 0.0 ], [ 110.65138037265524, -7.593890467517666, 0.0 ], [ 110.651262184754756, -7.593898437702932, 0.0 ], [ 110.651144333605529, -7.593910381842552, 0.0 ], [ 110.651105221451246, -7.593918956389009, 0.0 ], [ 110.651065302279804, -7.593922134604775, 0.0 ], [ 110.651025321329357, -7.593919858292038, 0.0 ], [ 110.650986024662302, -7.593912171468847, 0.0 ], [ 110.650969139817278, -7.593904582246269, 0.0 ], [ 110.650951320966087, -7.593899553976512, 0.0 ], [ 110.65093295512186, -7.593897193708034, 0.0 ], [ 110.650914441127412, -7.593897553320868, 0.0 ], [ 110.650896180594856, -7.59390062318753, 0.0 ], [ 110.650878571553164, -7.59390634030888, 0.0 ], [ 110.65084184564121, -7.593918051036602, 0.0 ], [ 110.6508038998236, -7.593924870748878, 0.0 ], [ 110.650784272120575, -7.593925794808823, 0.0 ], [ 110.650765386011955, -7.593926680567999, 0.0 ], [ 110.65072696601932, -7.593923449366373, 0.0 ], [ 110.650640549817751, -7.593945370564636, 0.0 ], [ 110.650556144331361, -7.593974050398423, 0.0 ], [ 110.650422729603761, -7.593954252987572, 0.0 ], [ 110.650410429681656, -7.593948396656883, 0.0 ], [ 110.650342966033989, -7.593928704455224, 0.0 ], [ 110.65034107812177, -7.593928152965734, 0.0 ], [ 110.650339899875704, -7.593927809190722, 0.0 ], [ 110.650310352934412, -7.593932839169224, 0.0 ], [ 110.650305328008528, -7.593933837617372, 0.0 ], [ 110.650298873948884, -7.593934161437932, 0.0 ], [ 110.650268118590418, -7.593940283145029, 0.0 ], [ 110.65026210684843, -7.5939424279196, 0.0 ], [ 110.650252776415883, -7.59394428069441, 0.0 ], [ 110.65022609874498, -7.593945922699434, 0.0 ], [ 110.650200458227033, -7.593947500409695, 0.0 ], [ 110.650191419006717, -7.593947428004656, 0.0 ], [ 110.650182476892994, -7.593946104676182, 0.0 ], [ 110.650112708895961, -7.593930765118231, 0.0 ], [ 110.650095558680562, -7.593929610662374, 0.0 ], [ 110.650069120389603, -7.593927830913984, 0.0 ], [ 110.650067756009989, -7.593927845192645, 0.0 ], [ 110.650055241793282, -7.593927976225055, 0.0 ], [ 110.650041554556992, -7.593930268201981, 0.0 ], [ 110.649986052142154, -7.593944065922083, 0.0 ], [ 110.649955418530183, -7.593945370037961, 0.0 ], [ 110.649947103740161, -7.593945185141893, 0.0 ], [ 110.649946531713397, -7.593945172017273, 0.0 ], [ 110.649937746453986, -7.593943825291706, 0.0 ], [ 110.649929209594347, -7.593941354402601, 0.0 ], [ 110.649924247645941, -7.593939562097094, 0.0 ], [ 110.649885287062759, -7.593925489278399, 0.0 ], [ 110.649872857270154, -7.593920998995412, 0.0 ], [ 110.649837537738662, -7.593899815675699, 0.0 ], [ 110.649820427906505, -7.593891333431002, 0.0 ], [ 110.649802180772639, -7.593885684243984, 0.0 ], [ 110.649783264910553, -7.593883011411978, 0.0 ], [ 110.649764163457903, -7.593883384975189, 0.0 ], [ 110.649748146781931, -7.593886289258987, 0.0 ], [ 110.649745365964122, -7.593886793568966, 0.0 ], [ 110.649672916514433, -7.593906016684921, 0.0 ], [ 110.649590481002662, -7.593927889321819, 0.0 ], [ 110.649577932751242, -7.59393198588775, 0.0 ], [ 110.649565924596246, -7.593937462337219, 0.0 ], [ 110.649527863816672, -7.593957478415819, 0.0 ], [ 110.649487368798006, -7.593978774283506, 0.0 ], [ 110.649418340426365, -7.5940150763285, 0.0 ], [ 110.649407156327399, -7.594021671469787, 0.0 ], [ 110.649396668515166, -7.59402932188519, 0.0 ], [ 110.649375091155832, -7.594046733097976, 0.0 ], [ 110.649371854929242, -7.594048600570222, 0.0 ], [ 110.649336967113442, -7.594074168644187, 0.0 ], [ 110.649305078858035, -7.594103379070457, 0.0 ], [ 110.649276571198115, -7.594135884807626, 0.0 ], [ 110.649260314684298, -7.594180769334293, 0.0 ], [ 110.649249117342151, -7.594227168553048, 0.0 ], [ 110.649243118334738, -7.594274517229094, 0.0 ], [ 110.649242387032203, -7.594322235598157, 0.0 ], [ 110.649236531322302, -7.59436056144113, 0.0 ], [ 110.649224570204794, -7.594397448633241, 0.0 ], [ 110.649206812690394, -7.594431932261977, 0.0 ], [ 110.649183721852268, -7.594463112667002, 0.0 ], [ 110.649166242328562, -7.594480115958733, 0.0 ], [ 110.649166038967294, -7.594480313779385, 0.0 ], [ 110.649166018618374, -7.594480333573891, 0.0 ], [ 110.64915497233109, -7.594490948954183, 0.0 ], [ 110.649130598751086, -7.59451124865764, 0.0 ], [ 110.649126850168528, -7.594514370690055, 0.0 ], [ 110.649117340101938, -7.59452229121317, 0.0 ], [ 110.649116067827023, -7.594523350905051, 0.0 ], [ 110.64905187570993, -7.59456366610952, 0.0 ], [ 110.648980338108473, -7.594608594612841, 0.0 ], [ 110.648910929353377, -7.594648732485214, 0.0 ], [ 110.6488973973063, -7.594655251541174, 0.0 ], [ 110.64888303655988, -7.594659665929291, 0.0 ], [ 110.648860900146573, -7.594670414209014, 0.0 ], [ 110.648832557826978, -7.59467499806461, 0.0 ], [ 110.648791497954932, -7.594676156176104, 0.0 ], [ 110.648750642832638, -7.594671895253227, 0.0 ], [ 110.648710710396514, -7.594662288241059, 0.0 ], [ 110.648672399467259, -7.594647503952481, 0.0 ], [ 110.64863637978047, -7.59462780344173, 0.0 ], [ 110.648604277926879, -7.594606258088559, 0.0 ], [ 110.648569420779609, -7.594589504652149, 0.0 ], [ 110.648532524236785, -7.594577890155921, 0.0 ], [ 110.648494343266321, -7.594571653108368, 0.0 ], [ 110.648447648120708, -7.594565149560885, 0.0 ], [ 110.648402077098325, -7.594553082088695, 0.0 ], [ 110.648358292750174, -7.594535628521571, 0.0 ], [ 110.648316933998217, -7.594513038130088, 0.0 ], [ 110.64827860161958, -7.594485645182571, 0.0 ], [ 110.648268362277349, -7.594478674524996, 0.0 ], [ 110.648243755598841, -7.594461926647733, 0.0 ], [ 110.648205746687708, -7.594443676304822, 0.0 ], [ 110.648165431247733, -7.594431305514869, 0.0 ], [ 110.648123709261284, -7.594425094513901, 0.0 ], [ 110.648081529783099, -7.59442517794445, 0.0 ], [ 110.648054213361164, -7.594424094773991, 0.0 ], [ 110.648027319780638, -7.594419195622121, 0.0 ], [ 110.648001382016773, -7.594410580421903, 0.0 ], [ 110.647976912137992, -7.594398417835865, 0.0 ], [ 110.647954394955434, -7.594382950678101, 0.0 ], [ 110.647933997581944, -7.594334842520732, 0.0 ], [ 110.647739774705258, -7.594257143838247, 0.0 ], [ 110.647692319437638, -7.594211152103786, 0.0 ], [ 110.647585176029054, -7.594160125139195, 0.0 ], [ 110.64743762259846, -7.594380834708453, 0.0 ], [ 110.64742736236434, -7.594396180317272, 0.0 ], [ 110.647336372753557, -7.594363115504657, 0.0 ], [ 110.647074873089906, -7.594268090325226, 0.0 ], [ 110.646908736919613, -7.594214262711315, 0.0 ], [ 110.64662165548792, -7.594121251728501, 0.0 ], [ 110.646261973981638, -7.593988849560513, 0.0 ], [ 110.646067784758856, -7.593869503516927, 0.0 ], [ 110.645885103022707, -7.59375734713393, 0.0 ], [ 110.645869056668417, -7.593743330626247, 0.0 ], [ 110.645855566101119, -7.593726849476977, 0.0 ], [ 110.645845004446869, -7.593708361695777, 0.0 ], [ 110.645837666820341, -7.593688383120259, 0.0 ], [ 110.645813226300547, -7.593658207113606, 0.0 ], [ 110.645523927157413, -7.593692433884208, 0.0 ], [ 110.644943884433033, -7.593766633208721, 0.0 ], [ 110.644919241543562, -7.593766611781187, 0.0 ], [ 110.644908521926297, -7.593753959525881, 0.0 ], [ 110.644883432622478, -7.593618565908249, 0.0 ], [ 110.644872257898314, -7.593557352717911, 0.0 ], [ 110.644870606981371, -7.593548614263736, 0.0 ], [ 110.644868836373988, -7.593539906466632, 0.0 ], [ 110.644868362147903, -7.593537816555065, 0.0 ], [ 110.644867381173384, -7.593533498308267, 0.0 ], [ 110.64486565695023, -7.59352681675417, 0.0 ], [ 110.644864693277427, -7.593523508910429, 0.0 ], [ 110.644862627802851, -7.593517298350999, 0.0 ], [ 110.644860138226235, -7.593510885729001, 0.0 ], [ 110.644858765568074, -7.593507734943692, 0.0 ], [ 110.644855901142591, -7.593501860226061, 0.0 ], [ 110.64485427455034, -7.593498829539111, 0.0 ], [ 110.644852569959497, -7.593495841302526, 0.0 ], [ 110.644850785555491, -7.593492897323969, 0.0 ], [ 110.644847176514546, -7.593487429047839, 0.0 ], [ 110.644845186220152, -7.593484609729682, 0.0 ], [ 110.644841050525969, -7.59347907408593, 0.0 ], [ 110.644837879930904, -7.593475108635356, 0.0 ], [ 110.644835777068636, -7.593472478277326, 0.0 ], [ 110.644824879106125, -7.59345954417143, 0.0 ], [ 110.64480472753911, -7.593436049048363, 0.0 ], [ 110.644791394901318, -7.593420504212483, 0.0 ], [ 110.644785600225546, -7.593413848276576, 0.0 ], [ 110.644782845989297, -7.593410683697897, 0.0 ], [ 110.64477704570659, -7.593404232186909, 0.0 ], [ 110.644774089314723, -7.593401060206473, 0.0 ], [ 110.644773931709409, -7.593400895448481, 0.0 ], [ 110.644771076683085, -7.593397928885071, 0.0 ], [ 110.644764936196893, -7.593391776503811, 0.0 ], [ 110.644760440543408, -7.593387416487698, 0.0 ], [ 110.644755570780816, -7.593382693438824, 0.0 ], [ 110.644711053861997, -7.593340281316072, 0.0 ], [ 110.644699090383597, -7.593328841566867, 0.0 ], [ 110.64464608313321, -7.593278153950934, 0.0 ], [ 110.6446226660821, -7.593255873681866, 0.0 ], [ 110.644613888554588, -7.593247364583215, 0.0 ], [ 110.644607599459562, -7.593241137000212, 0.0 ], [ 110.644523443703463, -7.593156503051151, 0.0 ], [ 110.644522412897373, -7.593155464682381, 0.0 ], [ 110.644492357338933, -7.593125243308005, 0.0 ], [ 110.644445626667007, -7.593078417830125, 0.0 ], [ 110.644436355844121, -7.593068972109242, 0.0 ], [ 110.644434515327859, -7.59306702219005, 0.0 ], [ 110.644430302610644, -7.593062559282907, 0.0 ], [ 110.644425666215824, -7.593057378716264, 0.0 ], [ 110.644423439140127, -7.593054772677788, 0.0 ], [ 110.644421059909874, -7.593051988317275, 0.0 ], [ 110.644416546282159, -7.593046342909313, 0.0 ], [ 110.644414373828027, -7.593043459216834, 0.0 ], [ 110.644410397815932, -7.593037778971039, 0.0 ], [ 110.644406568887916, -7.59303182838339, 0.0 ], [ 110.644404711180599, -7.593028735091455, 0.0 ], [ 110.644401188951932, -7.593022439214383, 0.0 ], [ 110.644398108139256, -7.593016235963185, 0.0 ], [ 110.644396693788892, -7.593013079715127, 0.0 ], [ 110.644395228792732, -7.593009775983003, 0.0 ], [ 110.644394671467822, -7.593008422311439, 0.0 ], [ 110.644393856291828, -7.593006439762561, 0.0 ], [ 110.644391332558371, -7.592999683379024, 0.0 ], [ 110.644389231149631, -7.592993084733785, 0.0 ], [ 110.644387363814744, -7.592986263759337, 0.0 ], [ 110.644386510001738, -7.592982758811385, 0.0 ], [ 110.644385023616508, -7.592975698441357, 0.0 ], [ 110.644383906924531, -7.592968858180969, 0.0 ], [ 110.644383143083729, -7.592962875728216, 0.0 ], [ 110.644383009769541, -7.592961834475369, 0.0 ], [ 110.64438281824458, -7.592959922992169, 0.0 ], [ 110.644382287719921, -7.592954639951993, 0.0 ], [ 110.644381945266971, -7.592949954977148, 0.0 ], [ 110.644381696946397, -7.592946554548566, 0.0 ], [ 110.644381648780595, -7.592945595679968, 0.0 ], [ 110.644381247417328, -7.592937582796013, 0.0 ], [ 110.644379760265167, -7.592893955755966, 0.0 ], [ 110.644379737254653, -7.59289327460659, 0.0 ], [ 110.644379644309623, -7.592890545485596, 0.0 ], [ 110.644378187245081, -7.592847813075834, 0.0 ], [ 110.644377846938454, -7.592836105131216, 0.0 ], [ 110.644377666224315, -7.592829864452636, 0.0 ], [ 110.644377541870696, -7.592821230365479, 0.0 ], [ 110.644377559103674, -7.592815705352542, 0.0 ], [ 110.64437757421274, -7.592810558442215, 0.0 ], [ 110.644377577952483, -7.592809317394673, 0.0 ], [ 110.644377666619008, -7.592805119423615, 0.0 ], [ 110.644377730763495, -7.592802079263929, 0.0 ], [ 110.644378055339843, -7.592794322058724, 0.0 ], [ 110.64437857796932, -7.59278604851419, 0.0 ], [ 110.644379453534498, -7.592775220792777, 0.0 ], [ 110.644380237994994, -7.59276714556022, 0.0 ], [ 110.64438072487701, -7.592762657552578, 0.0 ], [ 110.64438120718907, -7.592758214768991, 0.0 ], [ 110.64438267248552, -7.592745710483612, 0.0 ], [ 110.644388235138337, -7.592698234899578, 0.0 ], [ 110.644394621282956, -7.592643724353803, 0.0 ], [ 110.644411932786099, -7.592495964848443, 0.0 ], [ 110.64442043789191, -7.592423373963747, 0.0 ], [ 110.644424958852852, -7.592384787500835, 0.0 ], [ 110.64442680028624, -7.592369070540322, 0.0 ], [ 110.644429834042342, -7.592343174683671, 0.0 ], [ 110.644434530290283, -7.592303090419333, 0.0 ], [ 110.644439229259788, -7.592263002538839, 0.0 ], [ 110.644449283579249, -7.592177262486657, 0.0 ], [ 110.644450872103576, -7.592163726203088, 0.0 ], [ 110.644463458121123, -7.592056281593815, 0.0 ], [ 110.644466343063542, -7.592031651992834, 0.0 ], [ 110.644468583453914, -7.592012530609803, 0.0 ], [ 110.644470916053805, -7.591992620529433, 0.0 ], [ 110.644471156156555, -7.591990576429563, 0.0 ], [ 110.644471754121753, -7.591985496932911, 0.0 ], [ 110.644472777460038, -7.591976863784184, 0.0 ], [ 110.644463843675126, -7.591974307437702, 0.0 ], [ 110.644446005923228, -7.591971559975898, 0.0 ], [ 110.644433798865819, -7.591969679782029, 0.0 ], [ 110.644248287462773, -7.59194110631612, 0.0 ], [ 110.64417077432752, -7.591929167300963, 0.0 ], [ 110.643758517658597, -7.591865668935821, 0.0 ], [ 110.643704354432188, -7.591856199143032, 0.0 ], [ 110.643421516593605, -7.591806748211838, 0.0 ], [ 110.643333003679743, -7.591791272710733, 0.0 ], [ 110.643280180804965, -7.59178011087256, 0.0 ], [ 110.64312971581775, -7.591748317048583, 0.0 ], [ 110.643035419174396, -7.591728391609477, 0.0 ] ] ] ] } },
{ "type": "Feature", "properties": { "harga": "100000-200000" }, "geometry": { "type": "MultiPolygon", "coordinates": [ [ [ [ 110.639181327003456, -7.58543459753921, 0.0 ], [ 110.639113041119316, -7.58540413787216, 0.0 ], [ 110.6388084442749, -7.585932517298529, 0.0 ], [ 110.639138425043669, -7.58678798880519, 0.0 ], [ 110.639011509142392, -7.587366688680222, 0.0 ], [ 110.640585260217975, -7.587794422343282, 0.0 ], [ 110.640839091082213, -7.587064758719026, 0.0 ], [ 110.642742823345927, -7.587618296711282, 0.0 ], [ 110.64200671346812, -7.589304070081305, 0.0 ], [ 110.640182788381551, -7.588785113408431, 0.0 ], [ 110.638983923995369, -7.588500574968124, 0.0 ], [ 110.637278498286861, -7.587931499244205, 0.0 ], [ 110.637234948901352, -7.58807760669906, 0.0 ], [ 110.637177539736086, -7.588058631682871, 0.0 ], [ 110.637795519398523, -7.586735539864541, 0.0 ], [ 110.637795596592881, -7.586735374395192, 0.0 ], [ 110.637929016229791, -7.586449721037726, 0.0 ], [ 110.637940505435623, -7.586425121265723, 0.0 ], [ 110.63793427711488, -7.586422336381958, 0.0 ], [ 110.637933717988844, -7.586422086259179, 0.0 ], [ 110.6379089206999, -7.586410999284006, 0.0 ], [ 110.637851179592701, -7.586386010806239, 0.0 ], [ 110.63771127137035, -7.586325462748381, 0.0 ], [ 110.637653245736644, -7.586300350988764, 0.0 ], [ 110.63756329065825, -7.586261420859216, 0.0 ], [ 110.637513461723259, -7.586239856341849, 0.0 ], [ 110.637186904971898, -7.586088805530933, 0.0 ], [ 110.637074764218369, -7.586036934318853, 0.0 ], [ 110.636860484385892, -7.585937817012366, 0.0 ], [ 110.636817592128693, -7.585918691463522, 0.0 ], [ 110.636820713530852, -7.585890360681291, 0.0 ], [ 110.636998659774562, -7.585475123807331, 0.0 ], [ 110.637366183020248, -7.5846175056136, 0.0 ], [ 110.63736619664553, -7.584617473060963, 0.0 ], [ 110.637384276568525, -7.58457528247641, 0.0 ], [ 110.637398751404518, -7.58454150396599, 0.0 ], [ 110.637411623547166, -7.584549882737565, 0.0 ], [ 110.637429130095867, -7.584561279350182, 0.0 ], [ 110.637455476032372, -7.584582717562879, 0.0 ], [ 110.637456493379659, -7.584583545174428, 0.0 ], [ 110.637474145510865, -7.584599533601418, 0.0 ], [ 110.637512435016987, -7.584634214335122, 0.0 ], [ 110.637581847089635, -7.584697646230446, 0.0 ], [ 110.637606907147855, -7.584717426217612, 0.0 ], [ 110.637633422311382, -7.584732738006667, 0.0 ], [ 110.637663091510916, -7.584744567168805, 0.0 ], [ 110.637740183760783, -7.584769028139537, 0.0 ], [ 110.637770147639543, -7.584775378647154, 0.0 ], [ 110.637896062286231, -7.584802066551421, 0.0 ], [ 110.638003388821971, -7.584813083809687, 0.0 ], [ 110.638042961188916, -7.584817146532232, 0.0 ], [ 110.638241943704543, -7.58482855205541, 0.0 ], [ 110.638244670436492, -7.584828708097342, 0.0 ], [ 110.638350004956408, -7.584834744940341, 0.0 ], [ 110.63837138278673, -7.584837057569461, 0.0 ], [ 110.638473230402624, -7.584853311153286, 0.0 ], [ 110.63849238027889, -7.584857422895161, 0.0 ], [ 110.638510984558636, -7.584863541391735, 0.0 ], [ 110.638654505302625, -7.584919370400116, 0.0 ], [ 110.63875673223697, -7.584981937481631, 0.0 ], [ 110.63878482047501, -7.58500138975577, 0.0 ], [ 110.638811301955187, -7.585024554799499, 0.0 ], [ 110.638834304232958, -7.585049792908315, 0.0 ], [ 110.638892847284794, -7.58512180976413, 0.0 ], [ 110.638918151799061, -7.585152938437115, 0.0 ], [ 110.639047058685875, -7.585294450914769, 0.0 ], [ 110.639047150192226, -7.585294551369348, 0.0 ], [ 110.639100874039144, -7.585353528744611, 0.0 ], [ 110.639167819722402, -7.585422466193862, 0.0 ], [ 110.639181327003456, -7.58543459753921, 0.0 ] ] ] ] } }
]
}
